{
"type": "FeatureCollection",
"name": "SECONDARY_CROSSSENSOR_2024-10-30_S2A_to_2026-06-17_S2B_change_rois",
"crs": { "type": "name", "properties": { "name": "urn:ogc:def:crs:OGC:1.3:CRS84" } },
"features": [
{ "type": "Feature", "properties": { "lat": 28.19571025844969, "lon": 77.619206864594105, "area": 46761.087423933583, "perimeter": 1959.185214245766, "anomaly_score": null, "change_score": 0.89164376258850098, "confidence": 0.89877309157851315, "timestamp": "2026-06-17T05:41:01Z", "source_scene": "S2B_MSIL2A_20260617T052649_N0512_R105_T43RGM_20260617T104156.SAFE_stack", "class": "UNKNOWN", "roi_id": "S2B_MSIL2A_20260617T052649_N0512_R105_T43RGM_20260617T104156.SAFE_stack:change:0003", "source_branch": "change", "target_profile": "landcover", "linked_roi_ids": [ ], "confidence_components": [ "c_change", "c_clear", "c_shape" ], "georef": "real" }, "geometry": { "type": "Polygon", "coordinates": [ [ [ 77.617089552672894, 28.196649114542179 ], [ 77.617085156097346, 28.196468762836464 ], [ 77.616881586494088, 28.196472657796967 ], [ 77.616877190300144, 28.196292306056559 ], [ 77.61708075956237, 28.196288411125359 ], [ 77.617076363067966, 28.196108059408871 ], [ 77.617279931948588, 28.196104164204698 ], [ 77.617275535153738, 28.195923812512138 ], [ 77.617479103652769, 28.195919917034999 ], [ 77.617474706557473, 28.195739565366356 ], [ 77.61727113839946, 28.195743460814182 ], [ 77.617266741685768, 28.19556310911085 ], [ 77.6170631738282, 28.195567004227104 ], [ 77.617054381204568, 28.195206300745664 ], [ 77.6172579483801, 28.195202405688022 ], [ 77.617253551788124, 28.195022053968536 ], [ 77.617457118582067, 28.195018158637939 ], [ 77.617461515515046, 28.195198510328122 ], [ 77.61766508260942, 28.195194614665951 ], [ 77.61766947992399, 28.195374966321435 ], [ 77.618076614673015, 28.195367174031681 ], [ 77.61807221667641, 28.19518682243482 ], [ 77.61827578364904, 28.195182925865865 ], [ 77.618271385352031, 28.195002574292943 ], [ 77.618678518493454, 28.194994780306871 ], [ 77.618682917472483, 28.195175131821159 ], [ 77.618886484323312, 28.195171234345406 ], [ 77.618890883683946, 28.195351585824969 ], [ 77.619298017945823, 28.19534378990803 ], [ 77.619302418029093, 28.195524141323563 ], [ 77.619709552810562, 28.195516344138895 ], [ 77.619705152045256, 28.195335992782027 ], [ 77.619908719034058, 28.195332093765629 ], [ 77.619904317968377, 28.195151742432717 ], [ 77.620107884575546, 28.195147843143396 ], [ 77.620103483209476, 28.194967491834429 ], [ 77.620307049435013, 28.194963592272181 ], [ 77.620302647768568, 28.194783240987174 ], [ 77.620099081884021, 28.194787140520084 ], [ 77.62009468059918, 28.194606789200343 ], [ 77.620298246142724, 28.194602889696778 ], [ 77.620293844557509, 28.194422538400996 ], [ 77.620497409719448, 28.194418638624523 ], [ 77.620501811645653, 28.194598989890959 ], [ 77.620705377107939, 28.194595089782883 ], [ 77.620709779415776, 28.194775441014595 ], [ 77.620506213612487, 28.19477934115201 ], [ 77.620510615619949, 28.194959692407682 ], [ 77.620714181764242, 28.194955792240918 ], [ 77.620718584153323, 28.195136143461852 ], [ 77.620922150598005, 28.195132242963485 ], [ 77.620926553368733, 28.19531259414968 ], [ 77.62113012011379, 28.195308693319696 ], [ 77.62113452326615, 28.19548904447117 ], [ 77.620930956180104, 28.195492945330496 ], [ 77.620939761924731, 28.195853647675968 ], [ 77.621143329692813, 28.195849746757936 ], [ 77.621147732967088, 28.196030097893242 ], [ 77.620944164857988, 28.196033998840626 ], [ 77.620948567831888, 28.196214349999892 ], [ 77.620744999341113, 28.196218250674342 ], [ 77.620753804728764, 28.196578953035417 ], [ 77.619939527631175, 28.196594552945221 ], [ 77.619935126281163, 28.196414201650011 ], [ 77.61973155724624, 28.196418100842426 ], [ 77.619727156277875, 28.196237749512488 ], [ 77.619523587543355, 28.196241648373299 ], [ 77.619519186956637, 28.19606129700864 ], [ 77.619315618522535, 28.196065195537837 ], [ 77.619311218317449, 28.195884844138462 ], [ 77.619107650183764, 28.195888742336056 ], [ 77.619112050047846, 28.196069093764759 ], [ 77.618908481532515, 28.196072991689409 ], [ 77.618904082009479, 28.195892640231381 ], [ 77.618700513794579, 28.195896537824428 ], [ 77.618704912976611, 28.196076889311779 ], [ 77.618501344380107, 28.196080786631882 ], [ 77.618496945539093, 28.195900435115202 ], [ 77.618089808906333, 28.195908228789939 ], [ 77.618094207065283, 28.196088580365256 ], [ 77.617890638346992, 28.196092476778531 ], [ 77.61789503620551, 28.196272828377776 ], [ 77.617691467105601, 28.196276724518093 ], [ 77.617695864663659, 28.196457076141261 ], [ 77.617492295182146, 28.196460972008609 ], [ 77.617496692439758, 28.196641323655708 ], [ 77.617089552672894, 28.196649114542179 ] ] ] } },
{ "type": "Feature", "properties": { "lat": 28.194633285345166, "lon": 77.584428950867135, "area": 35172.250587729432, "perimeter": 1119.5584219312716, "anomaly_score": null, "change_score": 0.91603124141693115, "confidence": 0.93721258272253471, "timestamp": "2026-06-17T05:41:01Z", "source_scene": "S2B_MSIL2A_20260617T052649_N0512_R105_T43RGM_20260617T104156.SAFE_stack", "class": "UNKNOWN", "roi_id": "S2B_MSIL2A_20260617T052649_N0512_R105_T43RGM_20260617T104156.SAFE_stack:change:0009", "source_branch": "change", "target_profile": "landcover", "linked_roi_ids": [ ], "confidence_components": [ "c_change", "c_clear", "c_shape" ], "georef": "real" }, "geometry": { "type": "Polygon", "coordinates": [ [ [ 77.584275197669527, 28.195649106596036 ], [ 77.584270856364995, 28.195468750153193 ], [ 77.584067283339678, 28.195472596183134 ], [ 77.584062942416253, 28.195292239705978 ], [ 77.583859369691936, 28.195296085404681 ], [ 77.583855029149632, 28.195115728893228 ], [ 77.583651456726301, 28.195119574260705 ], [ 77.583647116565075, 28.19493921771495 ], [ 77.583239972280339, 28.194946907485171 ], [ 77.583244311759472, 28.195127264088789 ], [ 77.583040739215974, 28.195131108549393 ], [ 77.583036400077887, 28.194950751916849 ], [ 77.582832827835404, 28.194954596046234 ], [ 77.582824150361475, 28.194593882707185 ], [ 77.583027721921894, 28.194590038635649 ], [ 77.58302338290396, 28.194409681986993 ], [ 77.583226954083287, 28.194405837642094 ], [ 77.583222614764367, 28.194225481017007 ], [ 77.584036897717027, 28.194210100730309 ], [ 77.584032557074039, 28.19402974421557 ], [ 77.584236127371028, 28.194025898417127 ], [ 77.584231786427083, 28.193845541925956 ], [ 77.584435356342993, 28.193841695854182 ], [ 77.584431015098062, 28.19366133938658 ], [ 77.58463458463288, 28.193657493041471 ], [ 77.584638926218815, 28.193837849480126 ], [ 77.584842496054577, 28.193834002803801 ], [ 77.584846838021605, 28.194014359208143 ], [ 77.585253978254968, 28.194006664890768 ], [ 77.585249635605891, 28.193826308544317 ], [ 77.585453205321429, 28.193822460961162 ], [ 77.585457548311524, 28.194002817278665 ], [ 77.585661118327991, 28.19399896936428 ], [ 77.585665461699193, 28.194179325647454 ], [ 77.585869032016618, 28.194175477401846 ], [ 77.585877719561338, 28.194536189894169 ], [ 77.585674148561864, 28.194540038197697 ], [ 77.585678492053347, 28.19472039446477 ], [ 77.585474920672738, 28.19472424249496 ], [ 77.585479263863249, 28.194904598785609 ], [ 77.585275692101533, 28.19490844654247 ], [ 77.585280034991101, 28.195088802856695 ], [ 77.585076462848235, 28.195092650340218 ], [ 77.585080805436846, 28.195273006678022 ], [ 77.584877232912859, 28.195276853888199 ], [ 77.584881575200498, 28.1954572102496 ], [ 77.584678002295405, 28.195461057186424 ], [ 77.584682344282044, 28.195641413571384 ], [ 77.584275197669527, 28.195649106596036 ] ] ] } },
{ "type": "Feature", "properties": { "lat": 28.191466268714439, "lon": 77.586349913394713, "area": 134293.70584280166, "perimeter": 4478.2283772617211, "anomaly_score": null, "change_score": 0.9057580828666687, "confidence": 0.89368387291955609, "timestamp": "2026-06-17T05:41:01Z", "source_scene": "S2B_MSIL2A_20260617T052649_N0512_R105_T43RGM_20260617T104156.SAFE_stack", "class": "UNKNOWN", "roi_id": "S2B_MSIL2A_20260617T052649_N0512_R105_T43RGM_20260617T104156.SAFE_stack:change:0011", "source_branch": "change", "target_profile": "landcover", "linked_roi_ids": [ ], "confidence_components": [ "c_change", "c_clear", "c_shape" ], "georef": "real" }, "geometry": { "type": "Polygon", "coordinates": [ [ [ 77.588134388485159, 28.19521526225034 ], [ 77.588130040780911, 28.195034906347008 ], [ 77.587926469199502, 28.195038758062573 ], [ 77.58791777459345, 28.194678046181835 ], [ 77.58812134549278, 28.194674194524225 ], [ 77.588112650365176, 28.194313482679963 ], [ 77.587909080147895, 28.19431733427961 ], [ 77.587904732985294, 28.19413697832044 ], [ 77.587701163068928, 28.194140829588832 ], [ 77.587696816287476, 28.193960473595315 ], [ 77.587493246671997, 28.193964324532448 ], [ 77.58748455391148, 28.19360361247135 ], [ 77.587280984937948, 28.193607463048259 ], [ 77.587276638958869, 28.193427106980682 ], [ 77.587073070286223, 28.193430957226354 ], [ 77.587060033612701, 28.192889888904478 ], [ 77.586856465922978, 28.192893738760976 ], [ 77.586852120786347, 28.192713382613984 ], [ 77.586648553397524, 28.192717232139255 ], [ 77.586644208641999, 28.192536875957913 ], [ 77.586440641554077, 28.192540725151964 ], [ 77.586436297179645, 28.192360368936296 ], [ 77.586232730392624, 28.192364217799128 ], [ 77.586237074426052, 28.192544574043751 ], [ 77.58582994004972, 28.192552270920558 ], [ 77.585834283441244, 28.19273262721774 ], [ 77.585630715851948, 28.192736475231705 ], [ 77.585635058942557, 28.19291683155247 ], [ 77.585227922961721, 28.192924526731534 ], [ 77.585223580553105, 28.192744170352871 ], [ 77.584816445093963, 28.192751864264984 ], [ 77.584820786820544, 28.19293222070154 ], [ 77.584617218689857, 28.192936067233155 ], [ 77.584621560115508, 28.193116423693283 ], [ 77.584417991603743, 28.193120269951574 ], [ 77.58441365051911, 28.192939913462499 ], [ 77.584210082308275, 28.192943759389578 ], [ 77.584192719734361, 28.192222333263842 ], [ 77.584396286581182, 28.192218487452511 ], [ 77.584391945696879, 28.192038130936595 ], [ 77.584595512162636, 28.192034284851953 ], [ 77.584586829832219, 28.191673571861887 ], [ 77.584383264048427, 28.191677417888648 ], [ 77.584378923284305, 28.191497061356618 ], [ 77.584175357801442, 28.191500907052195 ], [ 77.584171017418356, 28.191320550485866 ], [ 77.583967452236408, 28.191324395850256 ], [ 77.583963112234358, 28.191144039249611 ], [ 77.583759547353353, 28.191147884282827 ], [ 77.583755207732324, 28.190967527647892 ], [ 77.583551643152234, 28.190971372349935 ], [ 77.583555982432273, 28.1911517290138 ], [ 77.583352417471147, 28.191155573442522 ], [ 77.583356756450243, 28.191335930129959 ], [ 77.583153191108096, 28.191339774285375 ], [ 77.583148852469961, 28.191159417569011 ], [ 77.582945287428743, 28.191163261393253 ], [ 77.582940949171643, 28.19098290464261 ], [ 77.58273738443134, 28.190986748135686 ], [ 77.582733046555262, 28.190806391350744 ], [ 77.582936610954576, 28.190802547886591 ], [ 77.582932272777555, 28.1906221911252 ], [ 77.583135836795847, 28.19061834738773 ], [ 77.583122821482107, 28.190077277158139 ], [ 77.582919258486712, 28.190081120808834 ], [ 77.582910582493014, 28.189720407237751 ], [ 77.58270702013948, 28.189724250528378 ], [ 77.582702682543626, 28.189543893705867 ], [ 77.582906244556213, 28.189540050444158 ], [ 77.582901906659473, 28.189359693645201 ], [ 77.583309029882628, 28.189352006272969 ], [ 77.583304691344026, 28.189171649526486 ], [ 77.583508252554594, 28.189167805415973 ], [ 77.583512591434143, 28.189348162133523 ], [ 77.583716152945598, 28.189344317691866 ], [ 77.58372049220614, 28.189524674375114 ], [ 77.583516930353738, 28.189528518845712 ], [ 77.583529947352801, 28.190069588950056 ], [ 77.583733510228086, 28.190065744392669 ], [ 77.583737849648827, 28.190246101054449 ], [ 77.583941412824998, 28.190242256165902 ], [ 77.583950092468569, 28.19060296941549 ], [ 77.584153656286631, 28.190599124166841 ], [ 77.584157996509475, 28.190779480754653 ], [ 77.584361560628437, 28.19077563517483 ], [ 77.584365901232303, 28.19095599172833 ], [ 77.584773030031982, 28.190948299604099 ], [ 77.584777371357873, 28.191128656094346 ], [ 77.584980936038576, 28.191124809549926 ], [ 77.584985277745503, 28.191305166005861 ], [ 77.585188842727121, 28.191301319130254 ], [ 77.585193184815097, 28.19148167555187 ], [ 77.5858038805424, 28.191470133024733 ], [ 77.585799537431498, 28.191289776689974 ], [ 77.586003102252775, 28.191285928605399 ], [ 77.585998758840972, 28.191105572294219 ], [ 77.586202323281199, 28.191101723936356 ], [ 77.58619797956851, 28.190921367648773 ], [ 77.586401543627673, 28.190917519017631 ], [ 77.586397199614098, 28.190737162753639 ], [ 77.586600763292211, 28.190733313849222 ], [ 77.586596418977763, 28.190552957608816 ], [ 77.586799982274812, 28.190549108431135 ], [ 77.586782604054164, 28.189827683531682 ], [ 77.586579042120974, 28.189831532593505 ], [ 77.586566009899371, 28.189290463775649 ], [ 77.586769570809736, 28.189286614800718 ], [ 77.586760882180613, 28.188925902286552 ], [ 77.586964442369009, 28.188922053067337 ], [ 77.586955753218405, 28.188561340589629 ], [ 77.587159312684847, 28.188557491126147 ], [ 77.587154967828752, 28.188377134908208 ], [ 77.587358526914173, 28.188373285171483 ], [ 77.587354181757263, 28.188192928977148 ], [ 77.58776129912593, 28.188185228655041 ], [ 77.587765644964676, 28.188365584791423 ], [ 77.587969203929759, 28.188361734148089 ], [ 77.587973550149528, 28.188542090250134 ], [ 77.588177109415426, 28.188538239275619 ], [ 77.588181456016258, 28.188718595343314 ], [ 77.588385015582958, 28.188714744037604 ], [ 77.588393709586825, 28.189075456098916 ], [ 77.588597269795272, 28.189071604433035 ], [ 77.588601617198336, 28.189251960426649 ], [ 77.588398056648956, 28.18925581212152 ], [ 77.588402403751203, 28.189436168138744 ], [ 77.588198842820759, 28.189440019560379 ], [ 77.588203189622178, 28.189620375601219 ], [ 77.587999628310669, 28.189624226749611 ], [ 77.588003974811272, 28.18980458281407 ], [ 77.5878004131187, 28.189808433689226 ], [ 77.587813451838343, 28.190349501937291 ], [ 77.587609889082785, 28.19035335259716 ], [ 77.587614235061935, 28.190533708698084 ], [ 77.587410671925312, 28.190537559084692 ], [ 77.587419363322013, 28.190898271328383 ], [ 77.587215799463365, 28.190902121470707 ], [ 77.587220144880902, 28.191082477613463 ], [ 77.587016580641162, 28.19108632748252 ], [ 77.587020925757855, 28.191266683648884 ], [ 77.587224490338556, 28.191262833750862 ], [ 77.587228835836328, 28.191443189882879 ], [ 77.587432400717901, 28.191439339653645 ], [ 77.587436746596751, 28.191619695751321 ], [ 77.587640311779211, 28.191615845190864 ], [ 77.587644658039153, 28.191796201254196 ], [ 77.587441092515718, 28.191800051843632 ], [ 77.587445438474788, 28.191980407930572 ], [ 77.58724187257026, 28.191984258246723 ], [ 77.587246218228444, 28.192164614357264 ], [ 77.587042651942824, 28.192168464400144 ], [ 77.587051342697535, 28.192529176663051 ], [ 77.587254909665162, 28.192525326562233 ], [ 77.587259255443684, 28.192705682656662 ], [ 77.587462822712197, 28.192701832224614 ], [ 77.587467168871825, 28.192882188284702 ], [ 77.587670736441225, 28.192878337521424 ], [ 77.587675082981974, 28.193058693547165 ], [ 77.587878650852247, 28.193054842452643 ], [ 77.587874303970494, 28.192874486455878 ], [ 77.58807787145966, 28.192870635088077 ], [ 77.588073524277021, 28.192690279114927 ], [ 77.588277091385066, 28.192686427473848 ], [ 77.588281438908695, 28.192866783418015 ], [ 77.588485006317612, 28.192862931445696 ], [ 77.58849370216727, 28.193223643259955 ], [ 77.588290134076345, 28.193227495290252 ], [ 77.588294481720354, 28.193407851218314 ], [ 77.588498050152282, 28.193403999159035 ], [ 77.58850239817744, 28.193584355052735 ], [ 77.588705966910254, 28.193580502662204 ], [ 77.588710315316547, 28.193760858521554 ], [ 77.588913884350248, 28.193757005799768 ], [ 77.588918233137704, 28.193937361624752 ], [ 77.589121802472278, 28.193933508571703 ], [ 77.589126151640883, 28.194113864362325 ], [ 77.588922581965278, 28.194117717444367 ], [ 77.588926930833011, 28.194298073258608 ], [ 77.588723360776243, 28.194301926067361 ], [ 77.58873205795004, 28.194662637737721 ], [ 77.588935628688873, 28.194658784870981 ], [ 77.588939977677001, 28.19483914066911 ], [ 77.58873640659715, 28.194842993564837 ], [ 77.588740755284391, 28.195023349386577 ], [ 77.588333612322202, 28.195031054329153 ], [ 77.588337960367497, 28.195211410203498 ], [ 77.588134388485159, 28.19521526225034 ] ] ] } },
{ "type": "Feature", "properties": { "lat": 28.190410772988599, "lon": 77.624178376257959, "area": 43563.471340007236, "perimeter": 1359.4302177333075, "anomaly_score": null, "change_score": 0.93407833576202393, "confidence": 0.94468076366007125, "timestamp": "2026-06-17T05:41:01Z", "source_scene": "S2B_MSIL2A_20260617T052649_N0512_R105_T43RGM_20260617T104156.SAFE_stack", "class": "UNKNOWN", "roi_id": "S2B_MSIL2A_20260617T052649_N0512_R105_T43RGM_20260617T104156.SAFE_stack:change:0016", "source_branch": "change", "target_profile": "landcover", "linked_roi_ids": [ ], "confidence_components": [ "c_change", "c_clear", "c_shape" ], "georef": "real" }, "geometry": { "type": "Polygon", "coordinates": [ [ [ 77.622878508508506, 28.191846904367406 ], [ 77.622874103100287, 28.191666553372443 ], [ 77.622670543540579, 28.191670456335402 ], [ 77.622666138513964, 28.191490105305686 ], [ 77.622869697732725, 28.191486202372101 ], [ 77.622865292405834, 28.191305851366366 ], [ 77.623068851242991, 28.191301948159932 ], [ 77.623051228978255, 28.190580544200614 ], [ 77.623254786411039, 28.190576640809464 ], [ 77.623250380605583, 28.190396289835537 ], [ 77.623453937656777, 28.19039238617156 ], [ 77.623449531551074, 28.190212035221624 ], [ 77.623653088220678, 28.190208131284827 ], [ 77.623639869124801, 28.189667078490814 ], [ 77.623436313477924, 28.189670982339482 ], [ 77.623431907534879, 28.189490631367995 ], [ 77.623635462840852, 28.189486727548708 ], [ 77.62363105659756, 28.189306376601206 ], [ 77.623834611521957, 28.189302472509105 ], [ 77.623830204978447, 28.189122121585598 ], [ 77.624033759521268, 28.189118217220692 ], [ 77.624038166405683, 28.189298568114818 ], [ 77.624445276051119, 28.189290758419695 ], [ 77.624440868484896, 28.189110407584334 ], [ 77.624644422905689, 28.189106502312878 ], [ 77.624648830812816, 28.189286853118855 ], [ 77.624852385533828, 28.189282947515832 ], [ 77.624856793822531, 28.18946329828702 ], [ 77.625060348843746, 28.189459392352422 ], [ 77.625064757514053, 28.189639743088836 ], [ 77.625268312835487, 28.189635836822657 ], [ 77.625272721887384, 28.18981618752429 ], [ 77.625476277509037, 28.189812280926521 ], [ 77.62548509641671, 28.190172982254833 ], [ 77.625281540113235, 28.190176888911388 ], [ 77.625285949287203, 28.190357239596853 ], [ 77.625489505931597, 28.190353332910902 ], [ 77.625493915487198, 28.19053368356159 ], [ 77.62569747243181, 28.190529776544039 ], [ 77.625701882369015, 28.190710127159932 ], [ 77.62549832508347, 28.190714034206881 ], [ 77.625502734720456, 28.190894384846789 ], [ 77.62509561934543, 28.190902198092875 ], [ 77.625091210390309, 28.190721847394176 ], [ 77.624684095534363, 28.190729659372661 ], [ 77.624688503807647, 28.190910010130146 ], [ 77.624484945977727, 28.190913915695475 ], [ 77.624489353950764, 28.191094266476956 ], [ 77.624285795739212, 28.191098171769472 ], [ 77.624290203412002, 28.191278522574954 ], [ 77.623883086185018, 28.191286332312117 ], [ 77.623887493216614, 28.191466683170976 ], [ 77.62348037514505, 28.191474491758061 ], [ 77.623484781535439, 28.191654842670292 ], [ 77.623281222097717, 28.191658746539893 ], [ 77.62328562818783, 28.191839097476109 ], [ 77.622878508508506, 28.191846904367406 ] ] ] } },
{ "type": "Feature", "properties": { "lat": 28.188931236947138, "lon": 77.630873760351079, "area": 29175.292298283839, "perimeter": 1319.441338232532, "anomaly_score": null, "change_score": 0.91049849987030029, "confidence": 0.91510536845070511, "timestamp": "2026-06-17T05:41:01Z", "source_scene": "S2B_MSIL2A_20260617T052649_N0512_R105_T43RGM_20260617T104156.SAFE_stack", "class": "UNKNOWN", "roi_id": "S2B_MSIL2A_20260617T052649_N0512_R105_T43RGM_20260617T104156.SAFE_stack:change:0019", "source_branch": "change", "target_profile": "landcover", "linked_roi_ids": [ ], "confidence_components": [ "c_change", "c_clear", "c_shape" ], "georef": "real" }, "geometry": { "type": "Polygon", "coordinates": [ [ [ 77.631405889351527, 28.190780956939069 ], [ 77.631401469827821, 28.190600607152668 ], [ 77.63119791368311, 28.190604522661157 ], [ 77.631189075439906, 28.190243823013255 ], [ 77.630985519936232, 28.190247738160622 ], [ 77.630981101216719, 28.190067388299134 ], [ 77.630777546013178, 28.190071303114852 ], [ 77.630768709378302, 28.189710603316776 ], [ 77.630565154815784, 28.189714517771392 ], [ 77.630560736900406, 28.189534167834815 ], [ 77.630357182638008, 28.189538081957799 ], [ 77.630352765104305, 28.18935773198638 ], [ 77.63014921114204, 28.189361645777723 ], [ 77.630144793990013, 28.189181295771462 ], [ 77.629941240327867, 28.189185209231187 ], [ 77.629927990139024, 28.188644159091702 ], [ 77.6301315427785, 28.188640245720325 ], [ 77.630127125789542, 28.18845989569251 ], [ 77.630330678047372, 28.18845598204841 ], [ 77.630321843510004, 28.188095282035491 ], [ 77.630525395045311, 28.188091368148132 ], [ 77.6305209774969, 28.187911018163035 ], [ 77.630724528650561, 28.187907104002974 ], [ 77.630711275227384, 28.18736605410372 ], [ 77.630914825317674, 28.18736213972986 ], [ 77.630910407250639, 28.18718178978212 ], [ 77.631317506627184, 28.187173960186865 ], [ 77.631321925375929, 28.187354310075683 ], [ 77.631525475343892, 28.187350394795363 ], [ 77.63153431364546, 28.187711094497907 ], [ 77.631330762995788, 28.187715009837149 ], [ 77.631335181866888, 28.187895359709803 ], [ 77.631131630835569, 28.187899274776349 ], [ 77.631136049406578, 28.188079624673069 ], [ 77.630932497993598, 28.18808353946692 ], [ 77.630936916264531, 28.188263889387709 ], [ 77.631140468018387, 28.188259974564399 ], [ 77.631144886670967, 28.188440324450347 ], [ 77.630941334576235, 28.188444239303113 ], [ 77.63095458975603, 28.188985289016962 ], [ 77.631158142873417, 28.188981374075816 ], [ 77.63117139944292, 28.189522423652775 ], [ 77.631374953542192, 28.189518508321068 ], [ 77.631379372821158, 28.18969885813981 ], [ 77.631582927220549, 28.189694942476457 ], [ 77.631600606107924, 28.190416341579663 ], [ 77.631804161830132, 28.190412425496259 ], [ 77.631808581994875, 28.190592775229121 ], [ 77.631605025931734, 28.190596691341991 ], [ 77.631609445796357, 28.190777041098926 ], [ 77.631405889351527, 28.190780956939069 ] ] ] } },
{ "type": "Feature", "properties": { "lat": 28.169776643197249, "lon": 77.585347456021978, "area": 24780.400966775294, "perimeter": 839.66800752478321, "anomaly_score": null, "change_score": 0.93010932207107544, "confidence": 0.9511216069001911, "timestamp": "2026-06-17T05:41:01Z", "source_scene": "S2B_MSIL2A_20260617T052649_N0512_R105_T43RGM_20260617T104156.SAFE_stack", "class": "UNKNOWN", "roi_id": "S2B_MSIL2A_20260617T052649_N0512_R105_T43RGM_20260617T104156.SAFE_stack:change:0056", "source_branch": "change", "target_profile": "landcover", "linked_roi_ids": [ ], "confidence_components": [ "c_change", "c_clear", "c_shape" ], "georef": "real" }, "geometry": { "type": "Polygon", "coordinates": [ [ [ 77.585304685475052, 28.170729119337025 ], [ 77.585300346972062, 28.17054876238495 ], [ 77.585096821302301, 28.1705526068382 ], [ 77.585092483179977, 28.170372249851816 ], [ 77.584888957810776, 28.170376093974141 ], [ 77.584893295592479, 28.170556450989462 ], [ 77.584689769842612, 28.170560294838751 ], [ 77.584685432401514, 28.170379937794486 ], [ 77.584481906952234, 28.170383781312854 ], [ 77.584464558950714, 28.169662352966405 ], [ 77.58466808303757, 28.169658509563785 ], [ 77.584663745796703, 28.16947815249269 ], [ 77.584867269502922, 28.169474308817041 ], [ 77.584858594460087, 28.169113594716638 ], [ 77.585062117445077, 28.169109750796895 ], [ 77.585057779643137, 28.168929393767581 ], [ 77.585464824811794, 28.168921705080098 ], [ 77.585460486368731, 28.16874134810331 ], [ 77.585867530695992, 28.168733658265882 ], [ 77.585871869820238, 28.168914015184775 ], [ 77.586075392264377, 28.168910169784169 ], [ 77.58608407131419, 28.169270883547956 ], [ 77.585880548188882, 28.16927472900646 ], [ 77.585893566042301, 28.16981579969875 ], [ 77.586097090189412, 28.169811954153388 ], [ 77.586110109425192, 28.170353024710515 ], [ 77.585906584256264, 28.170356870342733 ], [ 77.585910923741054, 28.170537227213327 ], [ 77.585707398191445, 28.170541072572512 ], [ 77.585711737375675, 28.170721429466692 ], [ 77.585304685475052, 28.170729119337025 ] ] ] } },
{ "type": "Feature", "properties": { "lat": 28.161580351329096, "lon": 77.637492489777046, "area": 21581.523423702514, "perimeter": 719.69200293138783, "anomaly_score": null, "change_score": 0.94191849231719971, "confidence": 0.95986506925030768, "timestamp": "2026-06-17T05:41:01Z", "source_scene": "S2B_MSIL2A_20260617T052649_N0512_R105_T43RGM_20260617T104156.SAFE_stack", "class": "UNKNOWN", "roi_id": "S2B_MSIL2A_20260617T052649_N0512_R105_T43RGM_20260617T104156.SAFE_stack:change:0064", "source_branch": "change", "target_profile": "landcover", "linked_roi_ids": [ ], "confidence_components": [ "c_change", "c_clear", "c_shape" ], "georef": "real" }, "geometry": { "type": "Polygon", "coordinates": [ [ [ 77.637021096231081, 28.162344586447684 ], [ 77.637016672554736, 28.162164236729271 ], [ 77.636813171159588, 28.162168156970107 ], [ 77.636804324610253, 28.161807457458064 ], [ 77.63660082385509, 28.161811377338044 ], [ 77.636587555358574, 28.161270327941018 ], [ 77.63679105509253, 28.161266408149586 ], [ 77.636786632001616, 28.161086058369314 ], [ 77.637397129937256, 28.161074297272666 ], [ 77.637392705866006, 28.160893947575566 ], [ 77.637799703604756, 28.160886105394432 ], [ 77.637795278893577, 28.160705755750996 ], [ 77.63799877736129, 28.160701834237237 ], [ 77.638003202412861, 28.160882183851147 ], [ 77.63820670118011, 28.160878262006044 ], [ 77.638215552086592, 28.161238961158634 ], [ 77.63841905149377, 28.161235038952654 ], [ 77.638423477348695, 28.161415388491335 ], [ 77.638219977601125, 28.161419310726853 ], [ 77.638233254389874, 28.161960359399139 ], [ 77.638029753580227, 28.161964281421429 ], [ 77.638034178917778, 28.162144630997613 ], [ 77.637830677726882, 28.162148552747603 ], [ 77.637835102764868, 28.162328902347927 ], [ 77.637021096231081, 28.162344586447684 ] ] ] } },
{ "type": "Feature", "properties": { "lat": 28.159295853483801, "lon": 77.632374772440059, "area": 218614.24326282635, "perimeter": 3238.6247287831816, "anomaly_score": null, "change_score": 0.92396193742752075, "confidence": 0.93718691965063128, "timestamp": "2026-06-17T05:41:01Z", "source_scene": "S2B_MSIL2A_20260617T052649_N0512_R105_T43RGM_20260617T104156.SAFE_stack", "class": "UNKNOWN", "roi_id": "S2B_MSIL2A_20260617T052649_N0512_R105_T43RGM_20260617T104156.SAFE_stack:change:0065", "source_branch": "change", "target_profile": "landcover", "linked_roi_ids": [ ], "confidence_components": [ "c_change", "c_clear", "c_shape" ], "georef": "real" }, "geometry": { "type": "Polygon", "coordinates": [ [ [ 77.629257127269724, 28.161230888547749 ], [ 77.629252716814406, 28.161050537671535 ], [ 77.629049216252525, 28.161054446236612 ], [ 77.629044806178342, 28.160874095325575 ], [ 77.62884130591614, 28.160878003559393 ], [ 77.628836896223063, 28.160697652613543 ], [ 77.628226396213421, 28.160709375415806 ], [ 77.628221987582236, 28.160529024376292 ], [ 77.628018487838006, 28.160532931343983 ], [ 77.62798763094213, 28.159270473710677 ], [ 77.628191128303669, 28.159266566948922 ], [ 77.628186719998112, 28.159086215866328 ], [ 77.628390216978588, 28.159082308832186 ], [ 77.628385808373366, 28.158901957773633 ], [ 77.628589304972749, 28.158898050467116 ], [ 77.628584896067863, 28.158717699432597 ], [ 77.62899188846383, 28.158709883973032 ], [ 77.62898747891893, 28.158529532991977 ], [ 77.62959796618641, 28.158517807627465 ], [ 77.629593555661145, 28.158337456729331 ], [ 77.630407536752941, 28.158321818802666 ], [ 77.630411948639619, 28.158502169583045 ], [ 77.630615444151104, 28.158498259317454 ], [ 77.630624268727388, 28.158858960803169 ], [ 77.630827764878845, 28.158855050176893 ], [ 77.630832177568465, 28.159035400882217 ], [ 77.630628681076644, 28.159039311537938 ], [ 77.630633093466628, 28.159219662267326 ], [ 77.630836590298813, 28.15921575158216 ], [ 77.630841003069918, 28.159396102276709 ], [ 77.631044500201739, 28.159392191260295 ], [ 77.631048913353951, 28.15957254192001 ], [ 77.631659405526037, 28.159560806971587 ], [ 77.63165499135269, 28.159380456400235 ], [ 77.632061985249564, 28.159372631651195 ], [ 77.632057570436245, 28.159192281133386 ], [ 77.63226106698319, 28.159188368335627 ], [ 77.63225665187025, 28.159008017841892 ], [ 77.63246014803606, 28.159004104771803 ], [ 77.632455732623527, 28.158823754302148 ], [ 77.632252236798095, 28.15882766734277 ], [ 77.632243406776055, 28.158466966328362 ], [ 77.632039911590567, 28.158470879008259 ], [ 77.632026667884304, 28.157929827357862 ], [ 77.632230162048728, 28.157925914766352 ], [ 77.632225747221142, 28.157745564234904 ], [ 77.632836228448838, 28.157733824738106 ], [ 77.632831812641001, 28.157553474289678 ], [ 77.633442292480737, 28.157541732165292 ], [ 77.63343787569265, 28.157361381799905 ], [ 77.634455339574913, 28.157341805704501 ], [ 77.634450921125946, 28.157161455481145 ], [ 77.635061397944781, 28.157149706291111 ], [ 77.635056978515649, 28.156969356150842 ], [ 77.636074437362623, 28.156949768279581 ], [ 77.636078858493391, 28.157130118272335 ], [ 77.636282350480656, 28.157126199763276 ], [ 77.636295615138906, 28.157667249620676 ], [ 77.636092122130634, 28.157671168218268 ], [ 77.636100964759564, 28.15803186815528 ], [ 77.635897471029807, 28.158035786510109 ], [ 77.635906313141334, 28.15839648648458 ], [ 77.635702818690049, 28.158400404596634 ], [ 77.635716081142434, 28.158941454606445 ], [ 77.635512585629286, 28.158945372505226 ], [ 77.635521426787562, 28.159306072543828 ], [ 77.635317930552858, 28.159309990199819 ], [ 77.63533119157529, 28.159851040305817 ], [ 77.635534688831072, 28.15984712256132 ], [ 77.635543530397513, 28.160207822546038 ], [ 77.635340032460945, 28.160211740349535 ], [ 77.635344452965001, 28.16039209036331 ], [ 77.634937456288682, 28.160399925123876 ], [ 77.634933036465384, 28.160219575051102 ], [ 77.634729538406404, 28.160223491949171 ], [ 77.634733957889296, 28.160403842051444 ], [ 77.634530459449124, 28.160407758677195 ], [ 77.634534878632451, 28.160588108803569 ], [ 77.634331379811087, 28.160592025157005 ], [ 77.634335798694821, 28.160772375307477 ], [ 77.633318302274134, 28.160791952694872 ], [ 77.63332271949669, 28.160972302987371 ], [ 77.632101720403739, 28.160995786069105 ], [ 77.632106135624667, 28.161176136533044 ], [ 77.631902635292747, 28.161180049353092 ], [ 77.631898220412197, 28.160999698859687 ], [ 77.6312877201931, 28.161011435420516 ], [ 77.631283306374513, 28.160831084833351 ], [ 77.631079806560365, 28.160834996387198 ], [ 77.631075393122927, 28.160654645765188 ], [ 77.630871893608429, 28.160658556987766 ], [ 77.630867480552126, 28.160478206330914 ], [ 77.630663981337278, 28.160482117222223 ], [ 77.630659568662111, 28.160301766530544 ], [ 77.630456069746927, 28.160305677090587 ], [ 77.630460482081688, 28.160486027811718 ], [ 77.630256982785369, 28.160489938099396 ], [ 77.630261394820494, 28.160670288844589 ], [ 77.63005789514304, 28.160674198859894 ], [ 77.630066718654703, 28.161034900393002 ], [ 77.629863218255721, 28.161038810165369 ], [ 77.629867629732232, 28.161219160953284 ], [ 77.629257127269724, 28.161230888547749 ] ] ] } },
{ "type": "Feature", "properties": { "lat": 28.154864634344197, "lon": 77.611229105838603, "area": 23580.583446973837, "perimeter": 1399.4239334424153, "anomaly_score": null, "change_score": 0.88623058795928955, "confidence": 0.89962286118336077, "timestamp": "2026-06-17T05:41:01Z", "source_scene": "S2B_MSIL2A_20260617T052649_N0512_R105_T43RGM_20260617T104156.SAFE_stack", "class": "UNKNOWN", "roi_id": "S2B_MSIL2A_20260617T052649_N0512_R105_T43RGM_20260617T104156.SAFE_stack:change:0074", "source_branch": "change", "target_profile": "landcover", "linked_roi_ids": [ ], "confidence_components": [ "c_change", "c_clear", "c_shape" ], "georef": "real" }, "geometry": { "type": "Polygon", "coordinates": [ [ [ 77.612040233040076, 28.156508262731272 ], [ 77.612035852312403, 28.156327909240161 ], [ 77.611832357872004, 28.156331791632557 ], [ 77.61182797752511, 28.156151438106825 ], [ 77.611624483384603, 28.156155320168203 ], [ 77.611620103418502, 28.155974966607868 ], [ 77.61182359721866, 28.155971084575718 ], [ 77.611819216952654, 28.155790731039232 ], [ 77.611615723492818, 28.155794613042147 ], [ 77.611611343607592, 28.155614259471051 ], [ 77.611407850447634, 28.155618141142956 ], [ 77.611403470943173, 28.155437787537249 ], [ 77.611199978083107, 28.155441668878151 ], [ 77.611191219876147, 28.155080961592152 ], [ 77.61098772765628, 28.15508484257283 ], [ 77.610983348953766, 28.154904488892537 ], [ 77.610779857033805, 28.15490836954222 ], [ 77.610775478712014, 28.154728015827324 ], [ 77.610368495431445, 28.154735776162976 ], [ 77.610364117830713, 28.154555422384259 ], [ 77.610160626470105, 28.154559302070219 ], [ 77.610151872070517, 28.15419859443822 ], [ 77.609948381350108, 28.154202473763995 ], [ 77.609944004551252, 28.154022119910717 ], [ 77.609740514130721, 28.154025998905517 ], [ 77.609736137712559, 28.15384564501765 ], [ 77.609939627792798, 28.153841766052064 ], [ 77.609935251074759, 28.153661412188036 ], [ 77.610138740774275, 28.153657532949911 ], [ 77.610143117832607, 28.153837886784721 ], [ 77.610346607832, 28.153834007215639 ], [ 77.610350985271054, 28.15401436101585 ], [ 77.610554475570325, 28.154010481115797 ], [ 77.610558853390103, 28.154190834881415 ], [ 77.610762343989251, 28.154186954650385 ], [ 77.610766722189751, 28.15436730838141 ], [ 77.610970213088777, 28.154363427819401 ], [ 77.610965834547983, 28.154183074117597 ], [ 77.611169325066285, 28.15417919328306 ], [ 77.6111649462256, 28.153998839605119 ], [ 77.611571926460314, 28.153991077089248 ], [ 77.611576305981586, 28.154171430708729 ], [ 77.611779796378585, 28.154167548968935 ], [ 77.611784176280608, 28.154347902553816 ], [ 77.611987666977456, 28.15434402048303 ], [ 77.61199204726023, 28.154524374033286 ], [ 77.611788556223061, 28.154528256133307 ], [ 77.611792936205958, 28.154708609707427 ], [ 77.611589444788052, 28.154712491534926 ], [ 77.611598204194536, 28.155073198725503 ], [ 77.611801696293085, 28.155069316839537 ], [ 77.611810456541988, 28.155430023950135 ], [ 77.612013949280737, 28.155426141703938 ], [ 77.612018329806162, 28.155606495221935 ], [ 77.612221822844788, 28.155602612644724 ], [ 77.612226203751007, 28.155782966128104 ], [ 77.612022710372059, 28.155786848734554 ], [ 77.612027090978387, 28.155967202241797 ], [ 77.61223058469767, 28.155963319606101 ], [ 77.612234965684777, 28.156143673078734 ], [ 77.612438459703938, 28.156139790112025 ], [ 77.612442841071854, 28.156320143550033 ], [ 77.612239346712343, 28.156324026545985 ], [ 77.612243727780367, 28.15650438000786 ], [ 77.612040233040076, 28.156508262731272 ] ] ] } },
{ "type": "Feature", "properties": { "lat": 28.152054397730033, "lon": 77.608857990579097, "area": 29975.40002178483, "perimeter": 1519.3766659810144, "anomaly_score": null, "change_score": 0.90968132019042969, "confidence": 0.91235841259791284, "timestamp": "2026-06-17T05:41:01Z", "source_scene": "S2B_MSIL2A_20260617T052649_N0512_R105_T43RGM_20260617T104156.SAFE_stack", "class": "UNKNOWN", "roi_id": "S2B_MSIL2A_20260617T052649_N0512_R105_T43RGM_20260617T104156.SAFE_stack:change:0084", "source_branch": "change", "target_profile": "landcover", "linked_roi_ids": [ ], "confidence_components": [ "c_change", "c_clear", "c_shape" ], "georef": "real" }, "geometry": { "type": "Polygon", "coordinates": [ [ [ 77.608086347743352, 28.152974895191264 ], [ 77.608081974289917, 28.152794541037508 ], [ 77.607878485887866, 28.152798417112191 ], [ 77.6078697397827, 28.152437708730194 ], [ 77.608073227504178, 28.1524338327139 ], [ 77.608064480879975, 28.15207312436878 ], [ 77.60786099383904, 28.152077000326685 ], [ 77.607856620927777, 28.151896646116874 ], [ 77.60765313418672, 28.151900521743855 ], [ 77.607648761656094, 28.151720167499494 ], [ 77.607445275214928, 28.151724042795561 ], [ 77.607440903064955, 28.151543688516622 ], [ 77.607237416923667, 28.151547563481785 ], [ 77.607233045154331, 28.151367209168281 ], [ 77.607436530955326, 28.151363334232308 ], [ 77.607432158886098, 28.151182979942618 ], [ 77.607635644306484, 28.151179104734108 ], [ 77.607640016715976, 28.151359458994605 ], [ 77.607843502436253, 28.151355583455189 ], [ 77.607847875226383, 28.151535937681125 ], [ 77.608051361246538, 28.151532061810794 ], [ 77.608046988116143, 28.151351707614047 ], [ 77.60825047375566, 28.151347831471195 ], [ 77.608254847226306, 28.151528185638742 ], [ 77.608458333165686, 28.151524309164977 ], [ 77.608462707016983, 28.151704663297952 ], [ 77.608666193256241, 28.151700786493262 ], [ 77.608670567488176, 28.151881140591659 ], [ 77.608874054027311, 28.151877263456043 ], [ 77.608869679455111, 28.151696909386843 ], [ 77.60907316561358, 28.151693031978702 ], [ 77.609077540526059, 28.1518733860187 ], [ 77.609281026984405, 28.151869508279628 ], [ 77.609285402277521, 28.152049862285047 ], [ 77.609488889035731, 28.152045984215043 ], [ 77.609484513402336, 28.151865630238841 ], [ 77.609687999779894, 28.151861751896316 ], [ 77.609683623846635, 28.15168139794395 ], [ 77.609887109843498, 28.151677519328921 ], [ 77.609882733610391, 28.151497165400382 ], [ 77.609679247953778, 28.151501043986197 ], [ 77.609674872101323, 28.151320690023073 ], [ 77.609878357417685, 28.151316811466465 ], [ 77.609873981265395, 28.15113645752718 ], [ 77.610077466201091, 28.151132578698078 ], [ 77.610073089748965, 28.150952224782625 ], [ 77.610276574303995, 28.150948345681023 ], [ 77.610280951096371, 28.151128699567252 ], [ 77.61048443595125, 28.151124820134719 ], [ 77.610488813124306, 28.151305173986351 ], [ 77.610285327929176, 28.151309053448106 ], [ 77.610289704802383, 28.151489407323584 ], [ 77.610086219226588, 28.151493286512842 ], [ 77.610094972413734, 28.151853994306109 ], [ 77.610298458670059, 28.151850115058416 ], [ 77.610302835664513, 28.152030468917772 ], [ 77.610099349067923, 28.152034348194682 ], [ 77.610108102497563, 28.152395055955694 ], [ 77.609904615180014, 28.152398934989311 ], [ 77.609908991615185, 28.152579288890959 ], [ 77.60970550391697, 28.152583167652061 ], [ 77.609701127822092, 28.152402813721189 ], [ 77.609294152984987, 28.152410570279756 ], [ 77.609298528399322, 28.152590924269045 ], [ 77.609095040579902, 28.152594802124938 ], [ 77.609099415694359, 28.152775156138063 ], [ 77.608895927494245, 28.152779033721426 ], [ 77.608900302308811, 28.152959387758379 ], [ 77.608086347743352, 28.152974895191264 ] ] ] } }
]
}
