{
"type": "FeatureCollection",
"name": "SECONDARY_CROSSSENSOR_2022-03-30_S2B_to_2024-10-30_S2A_change_rois",
"crs": { "type": "name", "properties": { "name": "urn:ogc:def:crs:OGC:1.3:CRS84" } },
"features": [
{ "type": "Feature", "properties": { "lat": 28.185608361416925, "lon": 77.628791401016855, "area": 29575.026427414494, "perimeter": 1079.5443085297904, "anomaly_score": null, "change_score": 0.92517346143722534, "confidence": 0.93646996963708584, "timestamp": "2024-10-30T05:41:04Z", "source_scene": "S2A_MSIL2A_20241030T052941_N0511_R105_T43RGM_20241030T093050.SAFE_stack", "class": "UNKNOWN", "roi_id": "S2A_MSIL2A_20241030T052941_N0511_R105_T43RGM_20241030T093050.SAFE_stack:change:0013", "source_branch": "change", "target_profile": "landcover", "linked_roi_ids": [ ], "confidence_components": [ "c_change", "c_clear", "c_shape" ], "georef": "real" }, "geometry": { "type": "Polygon", "coordinates": [ [ [ 77.627635956322635, 28.186522981305188 ], [ 77.627631543912997, 28.186342630859464 ], [ 77.627427995215811, 28.18634654022231 ], [ 77.627410347347876, 28.18562513826787 ], [ 77.627613894681701, 28.185621229022708 ], [ 77.627609482475691, 28.18544087855005 ], [ 77.627813029427969, 28.185436969032171 ], [ 77.627808616921854, 28.185256618583544 ], [ 77.628012163492571, 28.185252708792962 ], [ 77.628016576339505, 28.185433059212166 ], [ 77.628423670040405, 28.185425238665751 ], [ 77.628419256511819, 28.185244888305405 ], [ 77.629029895735144, 28.185233155308097 ], [ 77.629025481224815, 28.185052805030658 ], [ 77.629229027210286, 28.185048893456727 ], [ 77.629224612399881, 28.18486854320334 ], [ 77.629428158003776, 28.184864631356728 ], [ 77.629423742893309, 28.184684281127389 ], [ 77.629627288115628, 28.184680369008095 ], [ 77.629622872705099, 28.184500018802812 ], [ 77.629826417545857, 28.184496106410837 ], [ 77.629830833297206, 28.184676456586679 ], [ 77.630034378438026, 28.184672543863147 ], [ 77.630043210744617, 28.185033244139778 ], [ 77.630246756526319, 28.185029331055222 ], [ 77.630255589677589, 28.185390031251391 ], [ 77.630052043214263, 28.185393944394843 ], [ 77.630056459510229, 28.185574294514293 ], [ 77.629852912665299, 28.185578207385063 ], [ 77.629857328661188, 28.185758557528569 ], [ 77.629450234167422, 28.185766382422592 ], [ 77.629454649522401, 28.185946732619602 ], [ 77.628844006453562, 28.185958467782935 ], [ 77.628848420826785, 28.186138818062862 ], [ 77.628644872714858, 28.186142729209131 ], [ 77.628649286787976, 28.186323079513102 ], [ 77.628445738294445, 28.186326990386661 ], [ 77.628450152067472, 28.18650734071468 ], [ 77.628043054276532, 28.186515161614228 ], [ 77.628038641185185, 28.186334811227351 ], [ 77.627835092569455, 28.186338721194481 ], [ 77.627839505319955, 28.186519071610775 ], [ 77.627635956322635, 28.186522981305188 ] ] ] } },
{ "type": "Feature", "properties": { "lat": 28.181815519427854, "lon": 77.583893841352449, "area": 50360.280550754142, "perimeter": 1519.4009750224529, "anomaly_score": null, "change_score": 0.85312694311141968, "confidence": 0.89716918901373688, "timestamp": "2024-10-30T05:41:04Z", "source_scene": "S2A_MSIL2A_20241030T052941_N0511_R105_T43RGM_20241030T093050.SAFE_stack", "class": "UNKNOWN", "roi_id": "S2A_MSIL2A_20241030T052941_N0511_R105_T43RGM_20241030T093050.SAFE_stack:change:0025", "source_branch": "change", "target_profile": "landcover", "linked_roi_ids": [ ], "confidence_components": [ "c_change", "c_clear", "c_shape" ], "georef": "real" }, "geometry": { "type": "Polygon", "coordinates": [ [ [ 77.58213078532772, 28.182698013892182 ], [ 77.582126449974723, 28.182517656802514 ], [ 77.581922901136721, 28.182521498029956 ], [ 77.581914231232389, 28.182160783776705 ], [ 77.582117779388739, 28.182156942607087 ], [ 77.58211344415578, 28.181976585501321 ], [ 77.58190989634025, 28.181980426642031 ], [ 77.581901226675996, 28.181619712356586 ], [ 77.582104773809903, 28.181615871273692 ], [ 77.582100438696997, 28.181435514151833 ], [ 77.582507532163092, 28.181427831137505 ], [ 77.582503196408581, 28.181247474068105 ], [ 77.583113835285161, 28.181235947367476 ], [ 77.583118172062086, 28.181416304350119 ], [ 77.583525265127932, 28.181408618314588 ], [ 77.583520927669397, 28.181228261389798 ], [ 77.583724473801453, 28.181224417947785 ], [ 77.583720136042146, 28.181044061046549 ], [ 77.584330773175665, 28.181032528994606 ], [ 77.584335111957373, 28.181212885809042 ], [ 77.584538657929244, 28.181209041158564 ], [ 77.584534318806732, 28.181028684373057 ], [ 77.584737864397752, 28.181024839449403 ], [ 77.584733524974496, 28.180844482687476 ], [ 77.585140615354774, 28.180836791991709 ], [ 77.58514495545964, 28.181017148695755 ], [ 77.585348500930479, 28.181013302865757 ], [ 77.585352841416181, 28.181193659535484 ], [ 77.585556387187765, 28.181189813374427 ], [ 77.585569409907734, 28.181730883264546 ], [ 77.585772956661657, 28.18172703671452 ], [ 77.585781639356938, 28.18208774988986 ], [ 77.585578091921391, 28.182091596497791 ], [ 77.585582432988332, 28.182271953106362 ], [ 77.585378885171878, 28.182275799441115 ], [ 77.58538322593806, 28.182456156073261 ], [ 77.58517967774074, 28.182460002134835 ], [ 77.585184018206149, 28.182640358790568 ], [ 77.584776921009663, 28.1826480500652 ], [ 77.584772581225877, 28.182467693351583 ], [ 77.584569032908362, 28.182471538506753 ], [ 77.584564693505456, 28.182291181758831 ], [ 77.584361145488714, 28.182295026582938 ], [ 77.584356806466687, 28.182114669800704 ], [ 77.584153258750717, 28.182118514293744 ], [ 77.584157597431911, 28.182298871104908 ], [ 77.583954049335063, 28.182302715324759 ], [ 77.583958387715498, 28.182483072159485 ], [ 77.58375483923777, 28.182486916106132 ], [ 77.583759177317418, 28.182667272964437 ], [ 77.583555628458825, 28.182671116637877 ], [ 77.58355129072001, 28.182490759750653 ], [ 77.583347742162189, 28.18249460309303 ], [ 77.583343404804239, 28.182314246171515 ], [ 77.583139856547234, 28.182318089182836 ], [ 77.583135519570135, 28.18213773222703 ], [ 77.582931971613903, 28.182141574907291 ], [ 77.582936308250183, 28.182321931892027 ], [ 77.5827327599131, 28.182325774299088 ], [ 77.582737096248579, 28.182506131307374 ], [ 77.582533547530645, 28.182509973441224 ], [ 77.582537883565323, 28.182690330473061 ], [ 77.58213078532772, 28.182698013892182 ] ] ] } },
{ "type": "Feature", "properties": { "lat": 28.179280957497923, "lon": 77.607820675338502, "area": 39567.615221036001, "perimeter": 1519.3782370257618, "anomaly_score": null, "change_score": 0.87363821268081665, "confidence": 0.90147557020535318, "timestamp": "2024-10-30T05:41:04Z", "source_scene": "S2A_MSIL2A_20241030T052941_N0511_R105_T43RGM_20241030T093050.SAFE_stack", "class": "UNKNOWN", "roi_id": "S2A_MSIL2A_20241030T052941_N0511_R105_T43RGM_20241030T093050.SAFE_stack:change:0032", "source_branch": "change", "target_profile": "landcover", "linked_roi_ids": [ ], "confidence_components": [ "c_change", "c_clear", "c_shape" ], "georef": "real" }, "geometry": { "type": "Polygon", "coordinates": [ [ [ 77.607123257260042, 28.180419699928677 ], [ 77.607118880391184, 28.180239346358587 ], [ 77.60691533990672, 28.180243224455019 ], [ 77.606910963419026, 28.180062870850364 ], [ 77.606300342745556, 28.180074503239602 ], [ 77.606295967320534, 28.179894149542012 ], [ 77.606092427356018, 28.179898026371752 ], [ 77.606088052312131, 28.179717672639608 ], [ 77.606291591935886, 28.179713795839053 ], [ 77.606287216591653, 28.179533442130715 ], [ 77.606490755834258, 28.179529565057258 ], [ 77.606486380189651, 28.179349211372728 ], [ 77.606689919051135, 28.179345334026372 ], [ 77.606685543106181, 28.179164980365648 ], [ 77.60688908158653, 28.179161102746423 ], [ 77.606884705341216, 28.178980749109503 ], [ 77.60708824344043, 28.17897687121738 ], [ 77.607083866894769, 28.178796517604269 ], [ 77.607490942290511, 28.178788760972232 ], [ 77.607486565103798, 28.178608407412124 ], [ 77.607690102400326, 28.178604528672192 ], [ 77.607685724913267, 28.178424175135909 ], [ 77.60788926182866, 28.178420296123111 ], [ 77.607884884041312, 28.178239942610645 ], [ 77.607681347466638, 28.17824382159424 ], [ 77.607676970060396, 28.178063468047199 ], [ 77.607880506294336, 28.178059589092797 ], [ 77.60787612858779, 28.17787923556957 ], [ 77.608283200252998, 28.177871476813007 ], [ 77.608287578640983, 28.178051830277838 ], [ 77.608491114753676, 28.17804795041727 ], [ 77.60849549352281, 28.178228303847508 ], [ 77.608291957069397, 28.178232183737279 ], [ 77.608296335538213, 28.178412537191342 ], [ 77.608499872332359, 28.178408657272367 ], [ 77.608504251182325, 28.178589010691852 ], [ 77.608707788276789, 28.178585130441601 ], [ 77.608712167507903, 28.178765483826506 ], [ 77.608915704902671, 28.178761603244997 ], [ 77.608924464167657, 28.17912230994024 ], [ 77.609128002203477, 28.179118428998237 ], [ 77.609132382237348, 28.179298782308578 ], [ 77.609335920573457, 28.179294901035295 ], [ 77.609340300988521, 28.179475254311047 ], [ 77.609543839624948, 28.179471372706477 ], [ 77.609548220421175, 28.179651725947636 ], [ 77.60975175935792, 28.179647844011772 ], [ 77.609756140535339, 28.179828197218331 ], [ 77.609552601257846, 28.179832079183413 ], [ 77.609556982134961, 28.180012432413804 ], [ 77.609353442476277, 28.180016314106027 ], [ 77.609349061939923, 28.179835960846415 ], [ 77.60894198318276, 28.179843723266188 ], [ 77.608937603368346, 28.179663369942766 ], [ 77.608734064269868, 28.179667250670324 ], [ 77.608729684836618, 28.179486897312319 ], [ 77.608526146038486, 28.179490777708601 ], [ 77.608521766986399, 28.179310424316 ], [ 77.608114689950327, 28.179318184143927 ], [ 77.608119068320903, 28.179498537594927 ], [ 77.607915529401495, 28.179502417084983 ], [ 77.607919907471754, 28.179682770559808 ], [ 77.607716368171182, 28.179686649776983 ], [ 77.607729501602151, 28.180227710256769 ], [ 77.607525961238892, 28.18023158925946 ], [ 77.607530338789275, 28.180411942771162 ], [ 77.607123257260042, 28.180419699928677 ] ] ] } },
{ "type": "Feature", "properties": { "lat": 28.177858231081196, "lon": 77.598289452606267, "area": 47161.950527949317, "perimeter": 1879.2422726403663, "anomaly_score": null, "change_score": 0.915244460105896, "confidence": 0.91981915206370868, "timestamp": "2024-10-30T05:41:04Z", "source_scene": "S2A_MSIL2A_20241030T052941_N0511_R105_T43RGM_20241030T093050.SAFE_stack", "class": "UNKNOWN", "roi_id": "S2A_MSIL2A_20241030T052941_N0511_R105_T43RGM_20241030T093050.SAFE_stack:change:0036", "source_branch": "change", "target_profile": "landcover", "linked_roi_ids": [ ], "confidence_components": [ "c_change", "c_clear", "c_shape" ], "georef": "real" }, "geometry": { "type": "Polygon", "coordinates": [ [ [ 77.598136890495297, 28.179327567600115 ], [ 77.598132528902113, 28.179147212710227 ], [ 77.597928989028446, 28.179151077311104 ], [ 77.597924627816283, 28.178970722386754 ], [ 77.598128167349188, 28.17896685781497 ], [ 77.598123805836551, 28.178786502914338 ], [ 77.59792026664438, 28.178790367457029 ], [ 77.597915905512735, 28.178610012521943 ], [ 77.597712366621039, 28.178613876733476 ], [ 77.597708005870402, 28.178433521763925 ], [ 77.597097389976071, 28.178445112498842 ], [ 77.597101749704493, 28.178625467555641 ], [ 77.596898210651801, 28.178629330558884 ], [ 77.596902570079735, 28.178809685639383 ], [ 77.596699030646064, 28.178813548369629 ], [ 77.596694671558893, 28.178633193260055 ], [ 77.596491132425726, 28.178637055659156 ], [ 77.596486773719533, 28.178456700515131 ], [ 77.596283234886883, 28.178460562583094 ], [ 77.596278876561655, 28.178280207404626 ], [ 77.596075338029522, 28.178284069141441 ], [ 77.596070980085273, 28.178103713928532 ], [ 77.596274518276672, 28.17809985222079 ], [ 77.596270160031921, 28.177919497031578 ], [ 77.596880773342534, 28.177907910183151 ], [ 77.596876414115812, 28.177727555075787 ], [ 77.597283488773556, 28.17771982905801 ], [ 77.597287848681745, 28.177900184107212 ], [ 77.597491386290983, 28.177896320616149 ], [ 77.597487026042074, 28.177715965596025 ], [ 77.597690563270334, 28.177712101831982 ], [ 77.597686202720951, 28.177531746835559 ], [ 77.597889739568231, 28.177527882798543 ], [ 77.597885378718388, 28.177347527825834 ], [ 77.598088915184675, 28.177343663515845 ], [ 77.598084554034358, 28.177163308566854 ], [ 77.597881017908776, 28.177167172847753 ], [ 77.597876657139437, 28.1769868178643 ], [ 77.597673121314315, 28.176990681814068 ], [ 77.597668760925941, 28.176810326796154 ], [ 77.597872296410344, 28.176806462875476 ], [ 77.59786793572151, 28.17662610788128 ], [ 77.598071470824948, 28.176622243687635 ], [ 77.598075831854501, 28.176802598652746 ], [ 77.598279367258399, 28.176798734127974 ], [ 77.598283728668918, 28.176979089058623 ], [ 77.598487264373276, 28.176975224202703 ], [ 77.598482902622038, 28.176794869301144 ], [ 77.598889973228509, 28.176787138741357 ], [ 77.598894335661171, 28.176967493584719 ], [ 77.599097871244709, 28.176963627822659 ], [ 77.59910223405835, 28.177143982631545 ], [ 77.599509305786057, 28.17713625014305 ], [ 77.599513669321396, 28.177316604888368 ], [ 77.599717205465552, 28.177312738161941 ], [ 77.599721569381899, 28.177493092872776 ], [ 77.600128642230786, 28.177485358455542 ], [ 77.600124277633, 28.177305003802921 ], [ 77.600327813656278, 28.177301136170328 ], [ 77.600332178594783, 28.177481490793838 ], [ 77.600535714918507, 28.177477622830075 ], [ 77.600540080238019, 28.177657977419095 ], [ 77.60033654357359, 28.177661845411965 ], [ 77.600340908592671, 28.177842200024717 ], [ 77.599933834461467, 28.177849935162513 ], [ 77.599938198839396, 28.178030289828115 ], [ 77.599531123865575, 28.178038023815887 ], [ 77.599535487602324, 28.178218378534336 ], [ 77.598517797759271, 28.178237708363149 ], [ 77.598522159832612, 28.178418063221716 ], [ 77.598318621402441, 28.178421928310371 ], [ 77.598322983175322, 28.17860228319266 ], [ 77.598119444364158, 28.178606148008338 ], [ 77.598123805836551, 28.178786502914338 ], [ 77.598327344988448, 28.178782638069567 ], [ 77.598331706841847, 28.178962992941113 ], [ 77.598535246294247, 28.178959127765179 ], [ 77.598539608528668, 28.179139482602249 ], [ 77.59833606873552, 28.17914334780728 ], [ 77.598340430669452, 28.179323702668075 ], [ 77.598136890495297, 28.179327567600115 ] ] ] } },
{ "type": "Feature", "properties": { "lat": 28.177045516119517, "lon": 77.628553432796039, "area": 44362.539864793944, "perimeter": 1559.3417907228213, "anomaly_score": null, "change_score": 0.84900963306427002, "confidence": 0.88735204802448109, "timestamp": "2024-10-30T05:41:04Z", "source_scene": "S2A_MSIL2A_20241030T052941_N0511_R105_T43RGM_20241030T093050.SAFE_stack", "class": "UNKNOWN", "roi_id": "S2A_MSIL2A_20241030T052941_N0511_R105_T43RGM_20241030T093050.SAFE_stack:change:0039", "source_branch": "change", "target_profile": "landcover", "linked_roi_ids": [ ], "confidence_components": [ "c_change", "c_clear", "c_shape" ], "georef": "real" }, "geometry": { "type": "Polygon", "coordinates": [ [ [ 77.627844505487317, 28.178399388870613 ], [ 77.627840094228659, 28.178219038241274 ], [ 77.627636560947764, 28.178222946884404 ], [ 77.627627739233972, 28.177862245550731 ], [ 77.627831271833458, 28.177858336966445 ], [ 77.627826860696942, 28.177677986320955 ], [ 77.627623328438148, 28.177681894875818 ], [ 77.627618917683037, 28.177501544195511 ], [ 77.62741538572422, 28.177505452418927 ], [ 77.627410975350514, 28.177325101703818 ], [ 77.627207443691688, 28.177329009595784 ], [ 77.627203033699388, 28.177148658845876 ], [ 77.626999502340524, 28.177152566406402 ], [ 77.626995092729615, 28.176972215621692 ], [ 77.627198623747802, 28.176968308090579 ], [ 77.627194213836901, 28.176787957329893 ], [ 77.627601275069765, 28.176780141420423 ], [ 77.627605685662004, 28.17696049212228 ], [ 77.627809216558063, 28.17695658368509 ], [ 77.627804805625118, 28.176776233012649 ], [ 77.628008336139771, 28.176772324302863 ], [ 77.628003924906878, 28.17659197365446 ], [ 77.62841098513266, 28.176584155387655 ], [ 77.628406573259142, 28.176403804792724 ], [ 77.628610102970271, 28.176399895235715 ], [ 77.628605690796803, 28.176219544664814 ], [ 77.628809220126541, 28.17621563483522 ], [ 77.62880480765314, 28.176035284288371 ], [ 77.628601278664078, 28.176039194088531 ], [ 77.628592454520799, 28.175678492919801 ], [ 77.628795982828549, 28.175674583178502 ], [ 77.628791570477333, 28.175494232615488 ], [ 77.628588042510259, 28.17549814232736 ], [ 77.628583630540433, 28.175317791729526 ], [ 77.628787158166872, 28.175313882047082 ], [ 77.628782745897112, 28.175133531473289 ], [ 77.629189800346495, 28.175125711261266 ], [ 77.629194213297538, 28.175306061776187 ], [ 77.62939774080175, 28.175302151187736 ], [ 77.629402154134198, 28.17548250166783 ], [ 77.629198626289309, 28.175486412285725 ], [ 77.629216278663804, 28.17620781426999 ], [ 77.629419807871315, 28.176203903534354 ], [ 77.629424221407461, 28.176384253987514 ], [ 77.629627750914906, 28.176380342920428 ], [ 77.629632164832458, 28.176560693338757 ], [ 77.629835694639837, 28.176556781940203 ], [ 77.629840108938808, 28.176737132323709 ], [ 77.629636578790752, 28.176741043751701 ], [ 77.629640992789788, 28.176921394159258 ], [ 77.629437462260313, 28.176925305314676 ], [ 77.629441875959415, 28.177105655746281 ], [ 77.629238345048506, 28.177109566629106 ], [ 77.629242758447674, 28.17728991708476 ], [ 77.629039227155346, 28.177293827694992 ], [ 77.629043640254565, 28.177474178174702 ], [ 77.62924717188757, 28.177470267535035 ], [ 77.629251585368209, 28.177650617979914 ], [ 77.629455117301177, 28.177646707008776 ], [ 77.629459531163249, 28.177827057418831 ], [ 77.629255998889576, 28.177830968419411 ], [ 77.6292604124517, 28.178011318853521 ], [ 77.629056879796622, 28.178015229581494 ], [ 77.629061293058768, 28.178195580039645 ], [ 77.628654226944988, 28.17820340064835 ], [ 77.628658639566467, 28.178383751159981 ], [ 77.627844505487317, 28.178399388870613 ] ] ] } },
{ "type": "Feature", "properties": { "lat": 28.176644474641648, "lon": 77.623867698835952, "area": 37568.502134889422, "perimeter": 1439.3965474108386, "anomaly_score": null, "change_score": 0.90022855997085571, "confidence": 0.92193040053340602, "timestamp": "2024-10-30T05:41:04Z", "source_scene": "S2A_MSIL2A_20241030T052941_N0511_R105_T43RGM_20241030T093050.SAFE_stack", "class": "UNKNOWN", "roi_id": "S2A_MSIL2A_20241030T052941_N0511_R105_T43RGM_20241030T093050.SAFE_stack:change:0042", "source_branch": "change", "target_profile": "landcover", "linked_roi_ids": [ ], "confidence_components": [ "c_change", "c_clear", "c_shape" ], "georef": "real" }, "geometry": { "type": "Polygon", "coordinates": [ [ [ 77.622942075254926, 28.177771708275738 ], [ 77.622937672335823, 28.177591356919407 ], [ 77.622734139441434, 28.177595258196014 ], [ 77.622729736903679, 28.177414906804938 ], [ 77.622933269457363, 28.177411005557687 ], [ 77.622924463822386, 28.177050302818103 ], [ 77.622720931950084, 28.17705420400662 ], [ 77.622716529534245, 28.176873852599375 ], [ 77.622512997961977, 28.176877753456498 ], [ 77.62250419393358, 28.176517050567153 ], [ 77.62270772482448, 28.176513149768756 ], [ 77.622698920277259, 28.176152446916582 ], [ 77.622902450446162, 28.176148545874891 ], [ 77.622898047892832, 28.175968194470105 ], [ 77.623508637133682, 28.175956489621029 ], [ 77.623504233599007, 28.17577613829895 ], [ 77.624318350655017, 28.175760527722794 ], [ 77.62432275555237, 28.175940878927364 ], [ 77.624526285055396, 28.17593697549891 ], [ 77.624530690334083, 28.176117326668706 ], [ 77.624734220137114, 28.176113422908852 ], [ 77.62472981451775, 28.175933071768434 ], [ 77.62493334393946, 28.175929167735951 ], [ 77.624937749899473, 28.176109518846975 ], [ 77.625344809302163, 28.176101709817182 ], [ 77.625349215984201, 28.17628206086404 ], [ 77.625552745965223, 28.176278155866722 ], [ 77.625557153028609, 28.176458506878806 ], [ 77.625353622706925, 28.176462411905515 ], [ 77.62535802947032, 28.176642762941604 ], [ 77.625154498767273, 28.176646667695682 ], [ 77.625158905230663, 28.176827018755777 ], [ 77.624955374146268, 28.176830923237226 ], [ 77.624959780309666, 28.17701127432133 ], [ 77.624756248843909, 28.177015178530134 ], [ 77.624760654707273, 28.17719552963824 ], [ 77.624964186513708, 28.177191625400042 ], [ 77.624968592758449, 28.177371976473367 ], [ 77.62476506061131, 28.177375880740946 ], [ 77.624769466556018, 28.177556231838278 ], [ 77.62456593402753, 28.177560135833215 ], [ 77.624561528423513, 28.177379784706499 ], [ 77.624357996195045, 28.177383688370018 ], [ 77.62435359097239, 28.177203337208542 ], [ 77.624557122860168, 28.177199433574401 ], [ 77.62455271733748, 28.177019082436917 ], [ 77.624349185790393, 28.177022986041671 ], [ 77.624344780649082, 28.176842634869416 ], [ 77.624141249402001, 28.176846538142758 ], [ 77.624136844642024, 28.176666186935741 ], [ 77.623933313694977, 28.176670089877675 ], [ 77.623937718114277, 28.17685044111407 ], [ 77.623734186785896, 28.176854343783358 ], [ 77.623738590905162, 28.177034695043755 ], [ 77.623535059195461, 28.177038597440387 ], [ 77.62353946301468, 28.177218948724761 ], [ 77.623742995065101, 28.177215046298759 ], [ 77.62375180350692, 28.177575748792602 ], [ 77.623548270775117, 28.177579651277359 ], [ 77.623552674716308, 28.177760002545586 ], [ 77.622942075254926, 28.177771708275738 ] ] ] } },
{ "type": "Feature", "properties": { "lat": 28.175294151026506, "lon": 77.637626673067899, "area": 32372.314229477804, "perimeter": 1159.5039482088632, "anomaly_score": null, "change_score": 0.91423958539962769, "confidence": 0.92993925410553202, "timestamp": "2024-10-30T05:41:04Z", "source_scene": "S2A_MSIL2A_20241030T052941_N0511_R105_T43RGM_20241030T093050.SAFE_stack", "class": "UNKNOWN", "roi_id": "S2A_MSIL2A_20241030T052941_N0511_R105_T43RGM_20241030T093050.SAFE_stack:change:0047", "source_branch": "change", "target_profile": "landcover", "linked_roi_ids": [ ], "confidence_components": [ "c_change", "c_clear", "c_shape" ], "georef": "real" }, "geometry": { "type": "Polygon", "coordinates": [ [ [ 77.637981281414014, 28.176580427549258 ], [ 77.637976853488311, 28.176400078345296 ], [ 77.637773325313304, 28.176404001824416 ], [ 77.637768897769149, 28.176223652585531 ], [ 77.63756536989392, 28.176227575733119 ], [ 77.637569797097413, 28.176407925001527 ], [ 77.637162740543047, 28.176415770449719 ], [ 77.637158314020866, 28.17623542112225 ], [ 77.63695478602304, 28.176239343363807 ], [ 77.636950359882391, 28.176058994001419 ], [ 77.637153887539554, 28.176055071789385 ], [ 77.637149461099099, 28.17587472245113 ], [ 77.637352988374758, 28.175870799966617 ], [ 77.63734413493512, 28.175510101332989 ], [ 77.637140608340772, 28.175514023758449 ], [ 77.6371361820229, 28.175333674404026 ], [ 77.636932655728344, 28.175337596497961 ], [ 77.636923803896437, 28.174976897713886 ], [ 77.636720278242308, 28.174980819446791 ], [ 77.636715852728287, 28.174800470017143 ], [ 77.636512327373921, 28.174804391418533 ], [ 77.636503477149688, 28.174443692484029 ], [ 77.636707001822771, 28.174439771141678 ], [ 77.636702576431304, 28.174259421695858 ], [ 77.638127245614569, 28.174231964050474 ], [ 77.638131673390433, 28.174412313289608 ], [ 77.638335197736623, 28.174408389531369 ], [ 77.638339625893963, 28.174588738735572 ], [ 77.638136101207152, 28.174592662523342 ], [ 77.638140529064742, 28.174773011751686 ], [ 77.638344054092201, 28.174769087934383 ], [ 77.638352910611275, 28.175129786315821 ], [ 77.638149384902562, 28.175133710192199 ], [ 77.638153812882777, 28.175314059404375 ], [ 77.637950286792545, 28.175317983008298 ], [ 77.637954714472997, 28.175498332244612 ], [ 77.638158240903863, 28.175494408611151 ], [ 77.638162668965833, 28.175674757812537 ], [ 77.638366195696477, 28.175670833847548 ], [ 77.638370624139981, 28.175851183014004 ], [ 77.638574151170403, 28.175847258717472 ], [ 77.638587437768123, 28.176388306095873 ], [ 77.638383909715728, 28.176392230481017 ], [ 77.638388338322741, 28.176572579625915 ], [ 77.637981281414014, 28.176580427549258 ] ] ] } },
{ "type": "Feature", "properties": { "lat": 28.173211351527478, "lon": 77.62286962769295, "area": 21981.597874557217, "perimeter": 799.66526805756007, "anomaly_score": null, "change_score": 0.96587413549423218, "confidence": 0.96846210025160762, "timestamp": "2024-10-30T05:41:04Z", "source_scene": "S2A_MSIL2A_20241030T052941_N0511_R105_T43RGM_20241030T093050.SAFE_stack", "class": "UNKNOWN", "roi_id": "S2A_MSIL2A_20241030T052941_N0511_R105_T43RGM_20241030T093050.SAFE_stack:change:0056", "source_branch": "change", "target_profile": "landcover", "linked_roi_ids": [ ], "confidence_components": [ "c_change", "c_clear", "c_shape" ], "georef": "real" }, "geometry": { "type": "Polygon", "coordinates": [ [ [ 77.622035517920423, 28.173999929607294 ], [ 77.622031117217304, 28.173819578020442 ], [ 77.621827591314371, 28.173823477472443 ], [ 77.621818790711245, 28.173462774223875 ], [ 77.622022315932924, 28.173458874830583 ], [ 77.622009114311012, 28.172917820005424 ], [ 77.622212638470202, 28.172913920398223 ], [ 77.622208237670208, 28.172733568808422 ], [ 77.622411761448149, 28.172729668928593 ], [ 77.622407360348149, 28.172549317362765 ], [ 77.623424976925349, 28.172529813580795 ], [ 77.623429379728378, 28.172710164999799 ], [ 77.623632903262504, 28.172706263308118 ], [ 77.623641709671773, 28.173066966071222 ], [ 77.623845233846481, 28.173063064018809 ], [ 77.623849637452707, 28.173243415362915 ], [ 77.624053161927378, 28.173239512979148 ], [ 77.624057565914882, 28.173419864288487 ], [ 77.623854041099577, 28.173423766701625 ], [ 77.623858444787103, 28.173604118034959 ], [ 77.623451394353296, 28.173611922014036 ], [ 77.623455797400212, 28.173792273400732 ], [ 77.623048746122564, 28.173800076230595 ], [ 77.623044343756902, 28.173619724785166 ], [ 77.622433767557538, 28.173631426676952 ], [ 77.622438168901297, 28.173811778210474 ], [ 77.622234643079622, 28.173815678266457 ], [ 77.622239044123376, 28.173996029823947 ], [ 77.622035517920423, 28.173999929607294 ] ] ] } },
{ "type": "Feature", "properties": { "lat": 28.171184693437688, "lon": 77.637999323896693, "area": 36768.513699584575, "perimeter": 1919.1784345826504, "anomaly_score": null, "change_score": 0.89841306209564209, "confidence": 0.89788573263888805, "timestamp": "2024-10-30T05:41:04Z", "source_scene": "S2A_MSIL2A_20241030T052941_N0511_R105_T43RGM_20241030T093050.SAFE_stack", "class": "UNKNOWN", "roi_id": "S2A_MSIL2A_20241030T052941_N0511_R105_T43RGM_20241030T093050.SAFE_stack:change:0059", "source_branch": "change", "target_profile": "landcover", "linked_roi_ids": [ ], "confidence_components": [ "c_change", "c_clear", "c_shape" ], "georef": "real" }, "geometry": { "type": "Polygon", "coordinates": [ [ [ 77.637888303557631, 28.17279309313378 ], [ 77.637883876490235, 28.172612743816597 ], [ 77.63768035546839, 28.172616666675548 ], [ 77.637675928782443, 28.172436317323438 ], [ 77.637879449463682, 28.172432394494017 ], [ 77.637875022478013, 28.172252045166044 ], [ 77.638282063036712, 28.17224419866039 ], [ 77.638286490703564, 28.172424547929293 ], [ 77.638490011262192, 28.172420624193986 ], [ 77.638485583254749, 28.172240274954621 ], [ 77.638689103431915, 28.1722363509469 ], [ 77.638684675124765, 28.172056001731683 ], [ 77.638888194920469, 28.172052077451553 ], [ 77.638874909222551, 28.171511029862167 ], [ 77.638671390448593, 28.171514954053681 ], [ 77.638666962304953, 28.171334604816899 ], [ 77.638463443830688, 28.171338528676923 ], [ 77.638454588347187, 28.170977830128098 ], [ 77.638251070513192, 28.170981753627103 ], [ 77.638246643173304, 28.170801404315068 ], [ 77.638043125639001, 28.170805327482597 ], [ 77.638038698680546, 28.170624978135635 ], [ 77.637428146854106, 28.170636745737998 ], [ 77.637432572790871, 28.170817095173557 ], [ 77.637025537354489, 28.170824938791156 ], [ 77.637029962650985, 28.171005288280362 ], [ 77.636826444530953, 28.171009209665776 ], [ 77.636830869527714, 28.171189559179115 ], [ 77.636627351026263, 28.171193480292104 ], [ 77.636636200461183, 28.171554179361642 ], [ 77.63643268123775, 28.171558100231721 ], [ 77.636437105675896, 28.17173844978792 ], [ 77.636233586071029, 28.171742370385562 ], [ 77.636229161973461, 28.17156202079984 ], [ 77.636025642668329, 28.171565941066021 ], [ 77.636016795276831, 28.171205241819397 ], [ 77.636220313900822, 28.171201321612244 ], [ 77.636207042098164, 28.170660272790414 ], [ 77.636410559659609, 28.170656352369853 ], [ 77.636406135466501, 28.170476002781314 ], [ 77.636813169785725, 28.170468161093421 ], [ 77.636808744952361, 28.17028781155852 ], [ 77.637622811738396, 28.170272124677602 ], [ 77.637618385583664, 28.170091775255408 ], [ 77.637821901837484, 28.170087852809871 ], [ 77.637826328332764, 28.170268202202539 ], [ 77.638029844886276, 28.170264279425545 ], [ 77.638025418050418, 28.170083930062408 ], [ 77.638228934222511, 28.170080007013016 ], [ 77.638224507086989, 28.169899657674019 ], [ 77.638428022877648, 28.169895734352231 ], [ 77.638432450353719, 28.170076083661694 ], [ 77.638635966444056, 28.170072160008441 ], [ 77.638640394301561, 28.170252509282964 ], [ 77.638843910691577, 28.170248585298239 ], [ 77.638852767210309, 28.170609283772034 ], [ 77.639056284240567, 28.170605359426293 ], [ 77.639069570346948, 28.171146407007921 ], [ 77.63927308835801, 28.171142482271613 ], [ 77.63928637585407, 28.171683529716066 ], [ 77.639489894845951, 28.171679604589162 ], [ 77.639503183731748, 28.172220651896449 ], [ 77.63929966371812, 28.172224577112001 ], [ 77.639304093087915, 28.172404926233195 ], [ 77.639100572692811, 28.172408851176332 ], [ 77.639105001762914, 28.172589200321674 ], [ 77.638697960168855, 28.172597049361165 ], [ 77.638693531779936, 28.172416700156727 ], [ 77.638490011262192, 28.172420624193986 ], [ 77.638494439310506, 28.172600973427961 ], [ 77.638290918411286, 28.172604897192798 ], [ 77.638295346159893, 28.172785246450921 ], [ 77.637888303557631, 28.17279309313378 ] ] ] } },
{ "type": "Feature", "properties": { "lat": 28.162083507920734, "lon": 77.637375617120355, "area": 21981.183334792855, "perimeter": 1039.5551648239787, "anomaly_score": null, "change_score": 0.88468253612518311, "confidence": 0.90554753823497525, "timestamp": "2024-10-30T05:41:04Z", "source_scene": "S2A_MSIL2A_20241030T052941_N0511_R105_T43RGM_20241030T093050.SAFE_stack", "class": "UNKNOWN", "roi_id": "S2A_MSIL2A_20241030T052941_N0511_R105_T43RGM_20241030T093050.SAFE_stack:change:0078", "source_branch": "change", "target_profile": "landcover", "linked_roi_ids": [ ], "confidence_components": [ "c_change", "c_clear", "c_shape" ], "georef": "real" }, "geometry": { "type": "Polygon", "coordinates": [ [ [ 77.637237870221142, 28.162881714909851 ], [ 77.637233446081851, 28.162701365237119 ], [ 77.636826441289884, 28.16270920619775 ], [ 77.636822017872277, 28.16252885646059 ], [ 77.636618515755472, 28.16253277645863 ], [ 77.636605246768937, 28.161991727126278 ], [ 77.63640174563254, 28.161995646733939 ], [ 77.6363973230591, 28.161815296916192 ], [ 77.63660082385509, 28.161811377338044 ], [ 77.636587555358574, 28.161270327941018 ], [ 77.63679105509253, 28.161266408149586 ], [ 77.636786632001616, 28.161086058369314 ], [ 77.636990131354338, 28.161082138305581 ], [ 77.636985707963888, 28.160901788549438 ], [ 77.637392705866006, 28.160893947575566 ], [ 77.637397129937256, 28.161074297272666 ], [ 77.637600629167451, 28.161070376303485 ], [ 77.637605053619936, 28.161250725965679 ], [ 77.637401554049347, 28.16125464696438 ], [ 77.637405978202281, 28.161434996650701 ], [ 77.637202478250444, 28.161438917377112 ], [ 77.637215749933119, 28.161979966492307 ], [ 77.637419250906177, 28.161976045677335 ], [ 77.637423675222507, 28.162156395342095 ], [ 77.637627176495116, 28.162152474195768 ], [ 77.637631601192695, 28.162332823825611 ], [ 77.638242105786674, 28.162321058487045 ], [ 77.638237680067832, 28.162140708945788 ], [ 77.638644682245371, 28.162132863936652 ], [ 77.638649108645012, 28.162313213418841 ], [ 77.63885261001289, 28.162309290431992 ], [ 77.638857036793823, 28.162489639879247 ], [ 77.638653535085538, 28.162493562895637 ], [ 77.638657961566921, 28.162673912367048 ], [ 77.638047455175595, 28.162685679693812 ], [ 77.638051880676599, 28.162866029248434 ], [ 77.637237870221142, 28.162881714909851 ] ] ] } },
{ "type": "Feature", "properties": { "lat": 28.160823221583186, "lon": 77.625753376118183, "area": 21182.178960545665, "perimeter": 719.69731438372673, "anomaly_score": null, "change_score": 0.92731279134750366, "confidence": 0.95421007787591972, "timestamp": "2024-10-30T05:41:04Z", "source_scene": "S2A_MSIL2A_20241030T052941_N0511_R105_T43RGM_20241030T093050.SAFE_stack", "class": "UNKNOWN", "roi_id": "S2A_MSIL2A_20241030T052941_N0511_R105_T43RGM_20241030T093050.SAFE_stack:change:0079", "source_branch": "change", "target_profile": "landcover", "linked_roi_ids": [ ], "confidence_components": [ "c_change", "c_clear", "c_shape" ], "georef": "real" }, "geometry": { "type": "Polygon", "coordinates": [ [ [ 77.625602913579471, 28.161661899864438 ], [ 77.62559850917016, 28.161481548469567 ], [ 77.625395007195038, 28.16148545166056 ], [ 77.625390603166792, 28.161305100230912 ], [ 77.625187101491434, 28.161309003090683 ], [ 77.625182697844252, 28.161128651626271 ], [ 77.624979196468644, 28.161132554154822 ], [ 77.624974793202526, 28.160952202655636 ], [ 77.624771292126681, 28.160956104852978 ], [ 77.624762486397231, 28.16059540177968 ], [ 77.62496598679229, 28.1605914996411 ], [ 77.62496158364813, 28.160411148125764 ], [ 77.625165083662154, 28.160407245714751 ], [ 77.625160680218244, 28.160226894223417 ], [ 77.625771178995137, 28.160215185267631 ], [ 77.625766774570735, 28.160034833859079 ], [ 77.626173772871226, 28.160027026438264 ], [ 77.626178177976399, 28.16020737778803 ], [ 77.62638167740603, 28.160203473595502 ], [ 77.626394893986813, 28.160744527524283 ], [ 77.62659839439695, 28.160740622941741 ], [ 77.626611612365025, 28.16128167673385 ], [ 77.626408110933667, 28.161285581404599 ], [ 77.626412516663962, 28.161465932687275 ], [ 77.625802011104611, 28.161477644976738 ], [ 77.625806415854342, 28.161657996342221 ], [ 77.625602913579471, 28.161661899864438 ] ] ] } },
{ "type": "Feature", "properties": { "lat": 28.160488330526764, "lon": 77.632086929889184, "area": 34370.802068553443, "perimeter": 1679.2871297620088, "anomaly_score": null, "change_score": 0.90918874740600586, "confidence": 0.90376980218761993, "timestamp": "2024-10-30T05:41:04Z", "source_scene": "S2A_MSIL2A_20241030T052941_N0511_R105_T43RGM_20241030T093050.SAFE_stack", "class": "UNKNOWN", "roi_id": "S2A_MSIL2A_20241030T052941_N0511_R105_T43RGM_20241030T093050.SAFE_stack:change:0082", "source_branch": "change", "target_profile": "landcover", "linked_roi_ids": [ ], "confidence_components": [ "c_change", "c_clear", "c_shape" ], "georef": "real" }, "geometry": { "type": "Polygon", "coordinates": [ [ [ 77.630681632445373, 28.161203519935093 ], [ 77.630677219607236, 28.161023169264958 ], [ 77.630473719330467, 28.161027079942794 ], [ 77.630456069746927, 28.160305677090587 ], [ 77.630659568662111, 28.160301766530544 ], [ 77.630655156027686, 28.160121415833476 ], [ 77.630858654561749, 28.160117505001061 ], [ 77.630854241627674, 28.159937154328052 ], [ 77.63105773978063, 28.159933243223282 ], [ 77.631053326546919, 28.159752892574339 ], [ 77.630849828734355, 28.159756803649657 ], [ 77.630845415881765, 28.159576452965879 ], [ 77.631048913353951, 28.15957254192001 ], [ 77.631044500201739, 28.159392191260295 ], [ 77.631247997292803, 28.159388279942078 ], [ 77.631243583840956, 28.159207929306426 ], [ 77.631447080550927, 28.159204017715865 ], [ 77.631442666799458, 28.159023667104286 ], [ 77.631239170429865, 28.159027578665391 ], [ 77.631234757059516, 28.158847228018967 ], [ 77.631438253088746, 28.158843316487317 ], [ 77.63143383941879, 28.158662965864963 ], [ 77.631637335066898, 28.158659054060973 ], [ 77.631641749077218, 28.158839404653868 ], [ 77.631845245024934, 28.158835492518627 ], [ 77.631849659416375, 28.159015843076677 ], [ 77.631646163128281, 28.159019755241378 ], [ 77.631650577220114, 28.159200105823501 ], [ 77.631447080550927, 28.159204017715865 ], [ 77.631451494343125, 28.159384368322055 ], [ 77.631247997292803, 28.159388279942078 ], [ 77.631252410785393, 28.159568630572338 ], [ 77.631455908176093, 28.159564718922859 ], [ 77.631460322049804, 28.159745069518284 ], [ 77.63125682431874, 28.159748981197215 ], [ 77.631261237892829, 28.159929331816706 ], [ 77.63105773978063, 28.159933243223282 ], [ 77.631062153055083, 28.160113593866843 ], [ 77.631265651507661, 28.160109682430807 ], [ 77.63127006516325, 28.160290033039516 ], [ 77.631473563915463, 28.160286121272222 ], [ 77.631477977952187, 28.160466471846096 ], [ 77.633309467951364, 28.160431252093694 ], [ 77.633305050851163, 28.16025090178503 ], [ 77.634322542166018, 28.160231324839891 ], [ 77.634326960968153, 28.160411675001139 ], [ 77.634530459449124, 28.160407758677195 ], [ 77.634534878632451, 28.160588108803569 ], [ 77.634331379811087, 28.160592025157005 ], [ 77.634335798694821, 28.160772375307477 ], [ 77.63372530096477, 28.160784122645367 ], [ 77.633729718868125, 28.160964472878902 ], [ 77.631898220412197, 28.160999698859687 ], [ 77.631902635292747, 28.161180049353092 ], [ 77.630681632445373, 28.161203519935093 ] ] ] } },
{ "type": "Feature", "properties": { "lat": 28.15701098490641, "lon": 77.582142694715259, "area": 22382.376262054164, "perimeter": 999.60654858126338, "anomaly_score": null, "change_score": 0.90865123271942139, "confidence": 0.92763595217729911, "timestamp": "2024-10-30T05:41:04Z", "source_scene": "S2A_MSIL2A_20241030T052941_N0511_R105_T43RGM_20241030T093050.SAFE_stack", "class": "UNKNOWN", "roi_id": "S2A_MSIL2A_20241030T052941_N0511_R105_T43RGM_20241030T093050.SAFE_stack:change:0089", "source_branch": "change", "target_profile": "landcover", "linked_roi_ids": [ ], "confidence_components": [ "c_change", "c_clear", "c_shape" ], "georef": "real" }, "geometry": { "type": "Polygon", "coordinates": [ [ [ 77.58255905823853, 28.158150209289946 ], [ 77.5825547266233, 28.157969851615206 ], [ 77.582351224308823, 28.157973690420782 ], [ 77.582346893074003, 28.157793332711773 ], [ 77.582143391059915, 28.157797171186616 ], [ 77.582139060205478, 28.15761681344333 ], [ 77.582342561879159, 28.157612974997392 ], [ 77.582338230724318, 28.157432617277649 ], [ 77.582134729391015, 28.157436455694679 ], [ 77.582130398616556, 28.157256097940664 ], [ 77.581926897583671, 28.157259936026982 ], [ 77.581922567189579, 28.157079578238697 ], [ 77.581719066457097, 28.157083415994293 ], [ 77.581714736443374, 28.15690305817175 ], [ 77.581104235027183, 28.156914569540941 ], [ 77.581099906074584, 28.156734211626343 ], [ 77.580896405862958, 28.156738048116893 ], [ 77.580892077290713, 28.156557690168043 ], [ 77.581095577161946, 28.156553853706388 ], [ 77.581086919456595, 28.15619313785038 ], [ 77.581290418607125, 28.1561893011447 ], [ 77.581286089474034, 28.156008943237548 ], [ 77.58169308697444, 28.156001268978585 ], [ 77.581697416788259, 28.156181626827944 ], [ 77.581900915818863, 28.156177789216866 ], [ 77.581905246013037, 28.156358147031952 ], [ 77.58210874534403, 28.156354309090169 ], [ 77.582113075918556, 28.156534666870996 ], [ 77.582520075141332, 28.15652699002419 ], [ 77.58252440643659, 28.156707347741836 ], [ 77.582727906328358, 28.156703508836813 ], [ 77.582732238004013, 28.156883866520189 ], [ 77.582935738196156, 28.156880027284448 ], [ 77.582948734484219, 28.157421100215643 ], [ 77.583152235657522, 28.157417260591345 ], [ 77.583156568173933, 28.157597618195435 ], [ 77.582953066660252, 28.157601457848656 ], [ 77.58295739887626, 28.157781815476302 ], [ 77.583160900730363, 28.157777975794165 ], [ 77.583165233326781, 28.15795833338753 ], [ 77.582961731132286, 28.157962173098579 ], [ 77.582966063428302, 28.158142530715494 ], [ 77.58255905823853, 28.158150209289946 ] ] ] } }
]
}
