{
"type": "FeatureCollection",
"name": "ang20170821t183707_100_demo",
"crs": { "type": "name", "properties": { "name": "urn:ogc:def:crs:OGC:1.3:CRS84" } },
"features": [
{ "type": "Feature", "properties": { "lat": 51.441401715234548, "lon": -114.50084320471882, "area": 26.451566787556672, "perimeter": 27.600817439619732, "anomaly_score": 0.91115033626556396, "change_score": null, "confidence": 0.59245277261028861, "timestamp": "2026-08-22T19:34:06Z", "source_scene": "ang20170821t183707_100", "class": "UNKNOWN", "roi_id": "ang20170821t183707_100:anomaly:0000", "source_branch": "anomaly", "target_profile": "object", "linked_roi_ids": [ ], "confidence_components": [ "c_anom", "c_seg", "c_shape" ], "georef": "real" }, "geometry": { "type": "Polygon", "coordinates": [ [ [ -114.500894636938753, 51.441395769470134 ], [ -114.500861874803277, 51.441392908449707 ], [ -114.500866452829712, 51.441372433854553 ], [ -114.500833690712923, 51.441369572826453 ], [ -114.500829112672207, 51.441390047420143 ], [ -114.500796350545528, 51.441387186381483 ], [ -114.500791772486124, 51.441407660973411 ], [ -114.500824534627071, 51.441410522013527 ], [ -114.50081995657753, 51.44143099660662 ], [ -114.500852718737178, 51.441433857639105 ], [ -114.500857296772438, 51.441413383044555 ], [ -114.500890058922209, 51.441416244066453 ], [ -114.500894636938753, 51.441395769470134 ] ] ] } },
{ "type": "Feature", "properties": { "lat": 51.441251595272234, "lon": -114.49984131597533, "area": 26.451550951445217, "perimeter": 27.600809174663784, "anomaly_score": 0.996570885181427, "change_score": null, "confidence": 0.98711952992847984, "timestamp": "2026-08-22T19:34:06Z", "source_scene": "ang20170821t183707_100", "class": "UNKNOWN", "roi_id": "ang20170821t183707_100:anomaly:0001", "source_branch": "anomaly", "target_profile": "object", "linked_roi_ids": [ ], "confidence_components": [ "c_anom", "c_seg", "c_shape" ], "georef": "real" }, "geometry": { "type": "Polygon", "coordinates": [ [ [ -114.499892748140695, 51.441245649947 ], [ -114.499859986184745, 51.441242788648623 ], [ -114.499864564640774, 51.44122231409802 ], [ -114.499831802703525, 51.441219452791998 ], [ -114.499827224233201, 51.441239927341144 ], [ -114.499794462286076, 51.441237066024549 ], [ -114.499789883797078, 51.441257540571925 ], [ -114.499822645758485, 51.441260401889977 ], [ -114.499818067279335, 51.441280876438491 ], [ -114.499850829259458, 51.441283737748925 ], [ -114.499855407724297, 51.441263263198927 ], [ -114.499888169694529, 51.441266124498775 ], [ -114.499892748140695, 51.441245649947 ] ] ] } },
{ "type": "Feature", "properties": { "lat": 51.441061601705727, "lon": -114.49981699835359, "area": 26.451550396290539, "perimeter": 27.600808890968565, "anomaly_score": 0.98408401012420654, "change_score": null, "confidence": 0.81412956544331139, "timestamp": "2026-08-22T19:34:06Z", "source_scene": "ang20170821t183707_100", "class": "UNKNOWN", "roi_id": "ang20170821t183707_100:anomaly:0002", "source_branch": "anomaly", "target_profile": "object", "linked_roi_ids": [ ], "confidence_components": [ "c_anom", "c_seg", "c_shape" ], "georef": "real" }, "geometry": { "type": "Polygon", "coordinates": [ [ [ -114.499868430307345, 51.441055656388137 ], [ -114.499835668488785, 51.441052795084737 ], [ -114.499840246933687, 51.441032320534376 ], [ -114.499807485133829, 51.441029459223337 ], [ -114.499802906674631, 51.441049933772234 ], [ -114.499770144864868, 51.44104707245063 ], [ -114.499765566386984, 51.441067546997772 ], [ -114.499798328211014, 51.441070408320833 ], [ -114.499793749742992, 51.441090882869133 ], [ -114.499826511585709, 51.44109374418457 ], [ -114.49983109003945, 51.441073269634806 ], [ -114.499863851872306, 51.44107613093967 ], [ -114.499868430307345, 51.441055656388137 ] ] ] } }
]
}
