{
"type": "FeatureCollection",
"name": "ENMAP01-____L2A-DT0000207637_20260724T054307Z_004_V010506_20260725T024614Z_CROP600x402-SPECTRAL_IMAGE_COG_rois",
"crs": { "type": "name", "properties": { "name": "urn:ogc:def:crs:OGC:1.3:CRS84" } },
"features": [
{ "type": "Feature", "properties": { "lat": 8.5638133978421962, "lon": 78.052981421263951, "area": 12574.879439838125, "perimeter": 539.4614303125237, "anomaly_score": 0.41487225890159607, "change_score": null, "confidence": 0.41487225890159607, "timestamp": "2026-07-24T05:43:07Z", "source_scene": "ENMAP01-____L2A-DT0000207637_20260724T054307Z_004_V010506_20260725T024614Z_CROP600x402-SPECTRAL_IMAGE_COG", "class": "UNKNOWN", "roi_id": "ENMAP01-____L2A-DT0000207637_20260724T054307Z_004_V010506_20260725T024614Z_CROP600x402-SPECTRAL_IMAGE_COG:anomaly:0000", "source_branch": "anomaly", "target_profile": "object", "linked_roi_ids": [ ], "confidence_components": [ "c_anom" ], "georef": "real" }, "geometry": { "type": "Polygon", "coordinates": [ [ [ 78.052753947747988, 8.56455073612204 ], [ 78.052751785598659, 8.564279764714982 ], [ 78.05247955261774, 8.564281916713917 ], [ 78.052473067171718, 8.563469002259522 ], [ 78.052745299576458, 8.563466850467808 ], [ 78.052743137710962, 8.56319587904342 ], [ 78.053287601923415, 8.5631915750246 ], [ 78.053289764173016, 8.563462546310825 ], [ 78.053561996364849, 8.56346039394556 ], [ 78.053566321461091, 8.56400233636683 ], [ 78.053294088885139, 8.564004488870278 ], [ 78.053296251347646, 8.564275460143506 ], [ 78.053024018508637, 8.564277612524844 ], [ 78.05302618085004, 8.564548583862825 ], [ 78.052753947747988, 8.56455073612204 ] ] ] } },
{ "type": "Feature", "properties": { "lat": 8.5639527988801838, "lon": 78.054791048619208, "area": 15269.445895537227, "perimeter": 719.28070564205973, "anomaly_score": 0.41100659966468811, "change_score": null, "confidence": 0.41100659966468811, "timestamp": "2026-07-24T05:43:07Z", "source_scene": "ENMAP01-____L2A-DT0000207637_20260724T054307Z_004_V010506_20260725T024614Z_CROP600x402-SPECTRAL_IMAGE_COG", "class": "UNKNOWN", "roi_id": "ENMAP01-____L2A-DT0000207637_20260724T054307Z_004_V010506_20260725T024614Z_CROP600x402-SPECTRAL_IMAGE_COG:anomaly:0001", "source_branch": "anomaly", "target_profile": "object", "linked_roi_ids": [ ], "confidence_components": [ "c_anom" ], "georef": "real" }, "geometry": { "type": "Polygon", "coordinates": [ [ [ 78.054659577971876, 8.564535666292183 ], [ 78.054657414478001, 8.564264695368809 ], [ 78.054112949438817, 8.564269001852287 ], [ 78.054110786400074, 8.563998030786353 ], [ 78.053838553966074, 8.564000183672189 ], [ 78.053836391190401, 8.563729212532817 ], [ 78.054108623432327, 8.563727059716086 ], [ 78.054106460535579, 8.563456088641486 ], [ 78.054650924422333, 8.563451782572686 ], [ 78.054653087703215, 8.56372275350906 ], [ 78.0551975516901, 8.563718446537285 ], [ 78.055195388025098, 8.563447475739164 ], [ 78.055467619719963, 8.56344532203563 ], [ 78.055469783577038, 8.563716292764621 ], [ 78.055742015392937, 8.563714138800764 ], [ 78.055744179513084, 8.563985109456283 ], [ 78.055471947505126, 8.563987263489274 ], [ 78.055474111504225, 8.564258234209595 ], [ 78.055201879233152, 8.564260388120532 ], [ 78.055204043111203, 8.564531358905656 ], [ 78.054659577971876, 8.564535666292183 ] ] ] } },
{ "type": "Feature", "properties": { "lat": 8.5577603160808025, "lon": 78.05474162578524, "area": 7185.621589652188, "perimeter": 419.58042012027022, "anomaly_score": 0.37731438875198364, "change_score": null, "confidence": 0.37731438875198364, "timestamp": "2026-07-24T05:43:07Z", "source_scene": "ENMAP01-____L2A-DT0000207637_20260724T054307Z_004_V010506_20260725T024614Z_CROP600x402-SPECTRAL_IMAGE_COG", "class": "UNKNOWN", "roi_id": "ENMAP01-____L2A-DT0000207637_20260724T054307Z_004_V010506_20260725T024614Z_CROP600x402-SPECTRAL_IMAGE_COG:anomaly:0002", "source_branch": "anomaly", "target_profile": "object", "linked_roi_ids": [ ], "confidence_components": [ "c_anom" ], "georef": "real" }, "geometry": { "type": "Polygon", "coordinates": [ [ [ 78.054609835575548, 8.558303333958564 ], [ 78.054607673714656, 8.558032362935567 ], [ 78.054335445646672, 8.558034514683253 ], [ 78.054331122521717, 8.557492572486041 ], [ 78.054603350205852, 8.557490420876579 ], [ 78.054601188557939, 8.557219449840593 ], [ 78.054873415979145, 8.557217298109206 ], [ 78.05487557781899, 8.557488269076073 ], [ 78.055147805361116, 8.557486117084522 ], [ 78.055152129637619, 8.558028058867015 ], [ 78.054879901711644, 8.558030210996817 ], [ 78.054882063764481, 8.558301181950698 ], [ 78.054609835575548, 8.558303333958564 ] ] ] } },
{ "type": "Feature", "properties": { "lat": 8.542872876901729, "lon": 78.069731863975392, "area": 7185.4220143982266, "perimeter": 419.57459330747213, "anomaly_score": 0.36191660165786743, "change_score": null, "confidence": 0.36191660165786743, "timestamp": "2026-07-24T05:43:07Z", "source_scene": "ENMAP01-____L2A-DT0000207637_20260724T054307Z_004_V010506_20260725T024614Z_CROP600x402-SPECTRAL_IMAGE_COG", "class": "UNKNOWN", "roi_id": "ENMAP01-____L2A-DT0000207637_20260724T054307Z_004_V010506_20260725T024614Z_CROP600x402-SPECTRAL_IMAGE_COG:anomaly:0003", "source_branch": "anomaly", "target_profile": "object", "linked_roi_ids": [ ], "confidence_components": [ "c_anom" ], "georef": "real" }, "geometry": { "type": "Polygon", "coordinates": [ [ [ 78.069462903365704, 8.543281486693209 ], [ 78.069460734872237, 8.543010519242712 ], [ 78.069188521264437, 8.543012677678552 ], [ 78.069186353033871, 8.542741710154287 ], [ 78.069458566450109, 8.542739551787895 ], [ 78.069456398099305, 8.542468584328745 ], [ 78.070000824334656, 8.542464267162769 ], [ 78.070002993068584, 8.542735234483008 ], [ 78.070275206270807, 8.542733075544513 ], [ 78.070277375267665, 8.543004042790955 ], [ 78.070005161873851, 8.543006201798915 ], [ 78.070007330750485, 8.5432771691105 ], [ 78.069462903365704, 8.543281486693209 ] ] ] } },
{ "type": "Feature", "properties": { "lat": 8.5383524671706716, "lon": 78.069096795384084, "area": 8981.7876178147308, "perimeter": 479.5140762554031, "anomaly_score": 0.36890292167663574, "change_score": null, "confidence": 0.36890292167663574, "timestamp": "2026-07-24T05:43:07Z", "source_scene": "ENMAP01-____L2A-DT0000207637_20260724T054307Z_004_V010506_20260725T024614Z_CROP600x402-SPECTRAL_IMAGE_COG", "class": "UNKNOWN", "roi_id": "ENMAP01-____L2A-DT0000207637_20260724T054307Z_004_V010506_20260725T024614Z_CROP600x402-SPECTRAL_IMAGE_COG:anomaly:0004", "source_branch": "anomaly", "target_profile": "object", "linked_roi_ids": [ ], "confidence_components": [ "c_anom" ], "georef": "real" }, "geometry": { "type": "Polygon", "coordinates": [ [ [ 78.068883794488514, 8.538950321563755 ], [ 78.068881627519247, 8.538679353905156 ], [ 78.068609416833155, 8.538681510848642 ], [ 78.068605083491477, 8.538139575379592 ], [ 78.068877293794628, 8.538137418574969 ], [ 78.068875127039306, 8.537866450903392 ], [ 78.069419547048767, 8.537862136861239 ], [ 78.069421714187001, 8.538133104393935 ], [ 78.069693924276208, 8.538130947017523 ], [ 78.06969609167723, 8.538401914476443 ], [ 78.069423881396574, 8.538404071922306 ], [ 78.069426048677471, 8.538675039446353 ], [ 78.069153838134014, 8.538677196771058 ], [ 78.069156005294758, 8.538948164360221 ], [ 78.068883794488514, 8.538950321563755 ] ] ] } },
{ "type": "Feature", "properties": { "lat": 8.518294284168519, "lon": 78.076612970849666, "area": 10777.99223716873, "perimeter": 479.51068919845972, "anomaly_score": 0.72961187362670898, "change_score": null, "confidence": 0.72961187362670898, "timestamp": "2026-07-24T05:43:07Z", "source_scene": "ENMAP01-____L2A-DT0000207637_20260724T054307Z_004_V010506_20260725T024614Z_CROP600x402-SPECTRAL_IMAGE_COG", "class": "UNKNOWN", "roi_id": "ENMAP01-____L2A-DT0000207637_20260724T054307Z_004_V010506_20260725T024614Z_CROP600x402-SPECTRAL_IMAGE_COG:anomaly:0005", "source_branch": "anomaly", "target_profile": "object", "linked_roi_ids": [ ], "confidence_components": [ "c_anom" ], "georef": "real" }, "geometry": { "type": "Polygon", "coordinates": [ [ [ 78.076345110706072, 8.518838373444199 ], [ 78.076342943665139, 8.518567407412302 ], [ 78.076070749129386, 8.5185695645423 ], [ 78.07606641564395, 8.51802763232636 ], [ 78.07633860979773, 8.518025475335557 ], [ 78.076336442971225, 8.517754509290707 ], [ 78.076880830682413, 8.517750194877905 ], [ 78.076882997890877, 8.51802116078354 ], [ 78.077155191830229, 8.51801900322233 ], [ 78.077159526843602, 8.518560934881419 ], [ 78.076887332522276, 8.518563092581861 ], [ 78.076889499945196, 8.518834058474543 ], [ 78.076345110706072, 8.518838373444199 ] ] ] } },
{ "type": "Feature", "properties": { "lat": 8.5130420084954554, "lon": 78.106649526500107, "area": 4490.579383866132, "perimeter": 359.62297792433912, "anomaly_score": 0.60729146003723145, "change_score": null, "confidence": 0.60729146003723145, "timestamp": "2026-07-24T05:43:07Z", "source_scene": "ENMAP01-____L2A-DT0000207637_20260724T054307Z_004_V010506_20260725T024614Z_CROP600x402-SPECTRAL_IMAGE_COG", "class": "UNKNOWN", "roi_id": "ENMAP01-____L2A-DT0000207637_20260724T054307Z_004_V010506_20260725T024614Z_CROP600x402-SPECTRAL_IMAGE_COG:anomaly:0006", "source_branch": "anomaly", "target_profile": "object", "linked_roi_ids": [ ], "confidence_components": [ "c_anom" ], "georef": "real" }, "geometry": { "type": "Polygon", "coordinates": [ [ [ 78.106516715444542, 8.513449534498706 ], [ 78.106514528575104, 8.513178576148055 ], [ 78.106242345638421, 8.513180753047857 ], [ 78.106240159032012, 8.512909794622603 ], [ 78.106512341777858, 8.512907617793076 ], [ 78.10651015505276, 8.512636659433776 ], [ 78.106782337535591, 8.512634482484533 ], [ 78.106784524451527, 8.512905440773549 ], [ 78.107056707053033, 8.512903263564022 ], [ 78.107058894231997, 8.51317422177843 ], [ 78.106786711439639, 8.513176399058244 ], [ 78.106788898499914, 8.513447357338617 ], [ 78.106516715444542, 8.513449534498706 ] ] ] } },
{ "type": "Feature", "properties": { "lat": 8.505521104342872, "lon": 78.113074174511496, "area": 20656.414809669841, "perimeter": 958.98885752109118, "anomaly_score": 0.35759425163269043, "change_score": null, "confidence": 0.35759425163269037, "timestamp": "2026-07-24T05:43:07Z", "source_scene": "ENMAP01-____L2A-DT0000207637_20260724T054307Z_004_V010506_20260725T024614Z_CROP600x402-SPECTRAL_IMAGE_COG", "class": "UNKNOWN", "roi_id": "ENMAP01-____L2A-DT0000207637_20260724T054307Z_004_V010506_20260725T024614Z_CROP600x402-SPECTRAL_IMAGE_COG:anomaly:0007", "source_branch": "anomaly", "target_profile": "object", "linked_roi_ids": [ ], "confidence_components": [ "c_anom" ], "georef": "real" }, "geometry": { "type": "Polygon", "coordinates": [ [ [ 78.112177794198558, 8.506629851100989 ], [ 78.112175605128598, 8.506358894119407 ], [ 78.111903428477902, 8.506361073249176 ], [ 78.111901239670928, 8.506090116192867 ], [ 78.112173416130929, 8.506087937133504 ], [ 78.11217122720555, 8.505816980143274 ], [ 78.112443403402594, 8.505814800964478 ], [ 78.112441214358839, 8.505543844040334 ], [ 78.112713390292896, 8.505541664742118 ], [ 78.112711201130764, 8.505270707884065 ], [ 78.112983376801864, 8.505268528466443 ], [ 78.11298118752137, 8.504997571674483 ], [ 78.113253362929498, 8.504995392137465 ], [ 78.113251173530671, 8.504724435411614 ], [ 78.113523348675827, 8.504722255755212 ], [ 78.113521159158665, 8.504451299095468 ], [ 78.113793334040864, 8.504449119319698 ], [ 78.113795523748664, 8.504720075909002 ], [ 78.114067698749167, 8.504717895872982 ], [ 78.114072078763073, 8.505259808897732 ], [ 78.113799903381249, 8.505261989074642 ], [ 78.113802093306049, 8.505532945650973 ], [ 78.113529917661225, 8.505535125708501 ], [ 78.113532107467677, 8.505806082350947 ], [ 78.112987755579752, 8.505810442037383 ], [ 78.112989945077175, 8.506081398816365 ], [ 78.112717768834045, 8.506083578445253 ], [ 78.112719958213091, 8.506354535290331 ], [ 78.11244778170699, 8.506356714799796 ], [ 78.112449970967646, 8.506627671710964 ], [ 78.112177794198558, 8.506629851100989 ] ] ] } },
{ "type": "Feature", "properties": { "lat": 8.4998923883023263, "lon": 78.056258001370594, "area": 20658.586942557082, "perimeter": 839.15933909182741, "anomaly_score": 0.719085693359375, "change_score": null, "confidence": 0.719085693359375, "timestamp": "2026-07-24T05:43:07Z", "source_scene": "ENMAP01-____L2A-DT0000207637_20260724T054307Z_004_V010506_20260725T024614Z_CROP600x402-SPECTRAL_IMAGE_COG", "class": "UNKNOWN", "roi_id": "ENMAP01-____L2A-DT0000207637_20260724T054307Z_004_V010506_20260725T024614Z_CROP600x402-SPECTRAL_IMAGE_COG:anomaly:0008", "source_branch": "anomaly", "target_profile": "object", "linked_roi_ids": [ ], "confidence_components": [ "c_anom" ], "georef": "real" }, "geometry": { "type": "Polygon", "coordinates": [ [ [ 78.056332756131553, 8.50111124766733 ], [ 78.056330607720682, 8.500840276286686 ], [ 78.056058420577898, 8.500842414971466 ], [ 78.056051976343014, 8.500029500596288 ], [ 78.055779789701035, 8.500031638883891 ], [ 78.055773346676759, 8.49921872426259 ], [ 78.055501160535513, 8.499220862153056 ], [ 78.05549901319327, 8.49894989053489 ], [ 78.055771199143948, 8.498947752713551 ], [ 78.055769051682134, 8.498676781160215 ], [ 78.056041237371289, 8.498674643218296 ], [ 78.056043385023642, 8.498945614702492 ], [ 78.056315570832354, 8.49894347650172 ], [ 78.056317718746286, 8.499214447912479 ], [ 78.056589904674553, 8.499212309452835 ], [ 78.056596349413994, 8.500025223451846 ], [ 78.056868535842995, 8.500023084595012 ], [ 78.056874981793229, 8.500835998347844 ], [ 78.056602794792454, 8.500838137412144 ], [ 78.056604943393921, 8.501109108723639 ], [ 78.056332756131553, 8.50111124766733 ] ] ] } },
{ "type": "Feature", "properties": { "lat": 8.4945537570383269, "lon": 78.114393878645402, "area": 4490.5131685704582, "perimeter": 359.62032652773689, "anomaly_score": 0.35873153805732727, "change_score": null, "confidence": 0.35873153805732727, "timestamp": "2026-07-24T05:43:07Z", "source_scene": "ENMAP01-____L2A-DT0000207637_20260724T054307Z_004_V010506_20260725T024614Z_CROP600x402-SPECTRAL_IMAGE_COG", "class": "UNKNOWN", "roi_id": "ENMAP01-____L2A-DT0000207637_20260724T054307Z_004_V010506_20260725T024614Z_CROP600x402-SPECTRAL_IMAGE_COG:anomaly:0009", "source_branch": "anomaly", "target_profile": "object", "linked_roi_ids": [ ], "confidence_components": [ "c_anom" ], "georef": "real" }, "geometry": { "type": "Polygon", "coordinates": [ [ [ 78.114261076042339, 8.494961280781144 ], [ 78.11425888855733, 8.494690324177146 ], [ 78.113986720678881, 8.494692501796331 ], [ 78.11398453345663, 8.494421545117566 ], [ 78.114256701144654, 8.494419367568828 ], [ 78.114254513804312, 8.494148410956196 ], [ 78.114526681229606, 8.494146233288335 ], [ 78.11452886876036, 8.494417189830518 ], [ 78.114801036303717, 8.494415011902626 ], [ 78.11480322409723, 8.494685968370028 ], [ 78.114531056363447, 8.494688146368377 ], [ 78.114533244038867, 8.49495910290192 ], [ 78.114261076042339, 8.494961280781144 ] ] ] } },
{ "type": "Feature", "properties": { "lat": 8.4851222485470466, "lon": 78.09077407526182, "area": 7185.1361948682816, "perimeter": 479.50428384364363, "anomaly_score": 0.36901578307151794, "change_score": null, "confidence": 0.36901578307151794, "timestamp": "2026-07-24T05:43:07Z", "source_scene": "ENMAP01-____L2A-DT0000207637_20260724T054307Z_004_V010506_20260725T024614Z_CROP600x402-SPECTRAL_IMAGE_COG", "class": "UNKNOWN", "roi_id": "ENMAP01-____L2A-DT0000207637_20260724T054307Z_004_V010506_20260725T024614Z_CROP600x402-SPECTRAL_IMAGE_COG:anomaly:0010", "source_branch": "anomaly", "target_profile": "object", "linked_roi_ids": [ ], "confidence_components": [ "c_anom" ], "georef": "real" }, "geometry": { "type": "Polygon", "coordinates": [ [ [ 78.09077841234874, 8.485664174152387 ], [ 78.09077624375324, 8.485393211361458 ], [ 78.090504076339315, 8.485395370228551 ], [ 78.090501908005805, 8.485124407363397 ], [ 78.090229740710342, 8.485126565971193 ], [ 78.09022757263881, 8.484855603031823 ], [ 78.090499739744075, 8.484853444493941 ], [ 78.090497571554124, 8.484582481620178 ], [ 78.090769738397412, 8.484580322962829 ], [ 78.090771906777576, 8.484851285766679 ], [ 78.091044073739283, 8.484849126850044 ], [ 78.091046242381438, 8.485120089579661 ], [ 78.091318409461564, 8.485117930403723 ], [ 78.091320578365725, 8.485388893059103 ], [ 78.091048411095372, 8.485391052304973 ], [ 78.091050579881085, 8.485662015025978 ], [ 78.09077841234874, 8.485664174152387 ] ] ] } },
{ "type": "Feature", "properties": { "lat": 8.480402067096426, "lon": 78.084741828744498, "area": 18861.192750350376, "perimeter": 659.3220575114151, "anomaly_score": 0.92249935865402222, "change_score": null, "confidence": 0.92249935865402222, "timestamp": "2026-07-24T05:43:07Z", "source_scene": "ENMAP01-____L2A-DT0000207637_20260724T054307Z_004_V010506_20260725T024614Z_CROP600x402-SPECTRAL_IMAGE_COG", "class": "UNKNOWN", "roi_id": "ENMAP01-____L2A-DT0000207637_20260724T054307Z_004_V010506_20260725T024614Z_CROP600x402-SPECTRAL_IMAGE_COG:anomaly:0011", "source_branch": "anomaly", "target_profile": "object", "linked_roi_ids": [ ], "confidence_components": [ "c_anom" ], "georef": "real" }, "geometry": { "type": "Polygon", "coordinates": [ [ [ 78.084209591281436, 8.481109539838801 ], [ 78.084207428468972, 8.480838575298394 ], [ 78.083935262567081, 8.48084072843403 ], [ 78.083930937537261, 8.480298799200773 ], [ 78.08420310305894, 8.480296646204673 ], [ 78.084200940461358, 8.480025681651359 ], [ 78.084473105721301, 8.48002352853576 ], [ 78.084470943005243, 8.479752564047919 ], [ 78.085287437784984, 8.47974610377485 ], [ 78.08528960107131, 8.48001706805333 ], [ 78.085561766044691, 8.48001491418065 ], [ 78.085566093212506, 8.480556842585106 ], [ 78.085293927858928, 8.480558996597386 ], [ 78.085296091360206, 8.480829960862959 ], [ 78.084751760057856, 8.480834268459255 ], [ 78.08475392325056, 8.481105232860106 ], [ 78.084209591281436, 8.481109539838801 ] ] ] } },
{ "type": "Feature", "properties": { "lat": 8.4740343939912286, "lon": 78.091673519188475, "area": 20657.234719736607, "perimeter": 719.25577390635499, "anomaly_score": 0.41841369867324829, "change_score": null, "confidence": 0.41841369867324829, "timestamp": "2026-07-24T05:43:07Z", "source_scene": "ENMAP01-____L2A-DT0000207637_20260724T054307Z_004_V010506_20260725T024614Z_CROP600x402-SPECTRAL_IMAGE_COG", "class": "UNKNOWN", "roi_id": "ENMAP01-____L2A-DT0000207637_20260724T054307Z_004_V010506_20260725T024614Z_CROP600x402-SPECTRAL_IMAGE_COG:anomaly:0012", "source_branch": "anomaly", "target_profile": "object", "linked_roi_ids": [ ], "confidence_components": [ "c_anom" ], "georef": "real" }, "geometry": { "type": "Polygon", "coordinates": [ [ [ 78.091508204085613, 8.474819189601401 ], [ 78.091506037791262, 8.474548226848095 ], [ 78.091233878196348, 8.474550383485997 ], [ 78.091231712163761, 8.474279420658458 ], [ 78.090959552687011, 8.474281577037296 ], [ 78.090957386916159, 8.474010614135524 ], [ 78.0906852275576, 8.474012770255307 ], [ 78.09068306204847, 8.473741807279319 ], [ 78.090955221217087, 8.473739651229456 ], [ 78.090953055589779, 8.473468688319089 ], [ 78.092313849406338, 8.473457905582617 ], [ 78.092316015983357, 8.473728868143301 ], [ 78.092588174721215, 8.473726710958697 ], [ 78.092590341559969, 8.473997673445119 ], [ 78.092318182632184, 8.473999830699675 ], [ 78.092322516145245, 8.474541755799532 ], [ 78.092050356765725, 8.47454391300486 ], [ 78.092052523440003, 8.474814875618286 ], [ 78.091508204085613, 8.474819189601401 ] ] ] } },
{ "type": "Feature", "properties": { "lat": 8.4687157575844889, "lon": 78.083550564951906, "area": 38620.613827899288, "perimeter": 1078.8917891355541, "anomaly_score": 0.4978848397731781, "change_score": null, "confidence": 0.4978848397731781, "timestamp": "2026-07-24T05:43:07Z", "source_scene": "ENMAP01-____L2A-DT0000207637_20260724T054307Z_004_V010506_20260725T024614Z_CROP600x402-SPECTRAL_IMAGE_COG", "class": "UNKNOWN", "roi_id": "ENMAP01-____L2A-DT0000207637_20260724T054307Z_004_V010506_20260725T024614Z_CROP600x402-SPECTRAL_IMAGE_COG:anomaly:0013", "source_branch": "anomaly", "target_profile": "object", "linked_roi_ids": [ ], "confidence_components": [ "c_anom" ], "georef": "real" }, "geometry": { "type": "Polygon", "coordinates": [ [ [ 78.083032341062705, 8.470008590401504 ], [ 78.083030181946143, 8.469737625405804 ], [ 78.082758023547342, 8.469739774924856 ], [ 78.082751547196821, 8.468926879702753 ], [ 78.083023705026079, 8.468924730392921 ], [ 78.08302154619588, 8.468653765380036 ], [ 78.082749388556465, 8.468655914620127 ], [ 78.082747229987703, 8.46838494953321 ], [ 78.082475072466522, 8.468387098514551 ], [ 78.082472914159183, 8.4681161333536 ], [ 78.082745071490535, 8.46811398444199 ], [ 78.082742913064934, 8.467843019346484 ], [ 78.083287227133226, 8.467838721095742 ], [ 78.083285068399604, 8.467567756135422 ], [ 78.083829381801891, 8.467563457268209 ], [ 78.083831540915156, 8.46783442208902 ], [ 78.084103697698708, 8.467832272302166 ], [ 78.084105857073396, 8.468103237048918 ], [ 78.084378013975154, 8.468101087003301 ], [ 78.084382333319013, 8.468643016344375 ], [ 78.084654490528806, 8.468640865970201 ], [ 78.084658810538826, 8.46918279515454 ], [ 78.084386652949377, 8.469184945668264 ], [ 78.084388812871964, 8.469455910323767 ], [ 78.083572339104322, 8.469462360940087 ], [ 78.083574498528989, 8.469733325800586 ], [ 78.083302340273363, 8.469735475697711 ], [ 78.083304499579782, 8.470006440623667 ], [ 78.083032341062705, 8.470008590401504 ] ] ] } },
{ "type": "Feature", "properties": { "lat": 8.4686150426730542, "lon": 78.081061577930782, "area": 8981.5798599433674, "perimeter": 479.5085304422102, "anomaly_score": 0.49126419425010681, "change_score": null, "confidence": 0.49126419425010681, "timestamp": "2026-07-24T05:43:07Z", "source_scene": "ENMAP01-____L2A-DT0000207637_20260724T054307Z_004_V010506_20260725T024614Z_CROP600x402-SPECTRAL_IMAGE_COG", "class": "UNKNOWN", "roi_id": "ENMAP01-____L2A-DT0000207637_20260724T054307Z_004_V010506_20260725T024614Z_CROP600x402-SPECTRAL_IMAGE_COG:anomaly:0014", "source_branch": "anomaly", "target_profile": "object", "linked_roi_ids": [ ], "confidence_components": [ "c_anom" ], "georef": "real" }, "geometry": { "type": "Polygon", "coordinates": [ [ [ 78.080848597771023, 8.469212885145309 ], [ 78.080846440388015, 8.46894191957897 ], [ 78.080574281986273, 8.468944067376627 ], [ 78.080569967814526, 8.46840213609169 ], [ 78.080842125836597, 8.468399988433411 ], [ 78.080839968668201, 8.468129022854189 ], [ 78.081384284118087, 8.468124727110006 ], [ 78.08138644166614, 8.46839569254983 ], [ 78.08165859947357, 8.468393544324524 ], [ 78.081660757283018, 8.46866450969034 ], [ 78.081388599285745, 8.468666657985358 ], [ 78.081390756976887, 8.468937623416588 ], [ 78.081118598718234, 8.468939771592291 ], [ 78.081120756291085, 8.469210737088929 ], [ 78.080848597771023, 8.469212885145309 ] ] ] } },
{ "type": "Feature", "properties": { "lat": 8.4549939394528586, "lon": 78.076053221847673, "area": 72751.454921957731, "perimeter": 2337.6151825045799, "anomaly_score": 0.43103626370429993, "change_score": null, "confidence": 0.43103626370429998, "timestamp": "2026-07-24T05:43:07Z", "source_scene": "ENMAP01-____L2A-DT0000207637_20260724T054307Z_004_V010506_20260725T024614Z_CROP600x402-SPECTRAL_IMAGE_COG", "class": "UNKNOWN", "roi_id": "ENMAP01-____L2A-DT0000207637_20260724T054307Z_004_V010506_20260725T024614Z_CROP600x402-SPECTRAL_IMAGE_COG:anomaly:0015", "source_branch": "anomaly", "target_profile": "object", "linked_roi_ids": [ ], "confidence_components": [ "c_anom" ], "georef": "real" }, "geometry": { "type": "Polygon", "coordinates": [ [ [ 78.077487932940386, 8.457316121319559 ], [ 78.077485780979742, 8.457045154728533 ], [ 78.077213630067092, 8.457047297194837 ], [ 78.07721147836746, 8.456776330529909 ], [ 78.076939327572944, 8.456778472737851 ], [ 78.076937176134308, 8.456507505999031 ], [ 78.076665025457913, 8.45650964794862 ], [ 78.076662874280274, 8.456238681135911 ], [ 78.076390723721985, 8.456240822827164 ], [ 78.076384271186299, 8.455427922154533 ], [ 78.07611212112522, 8.455430063448279 ], [ 78.076109970612364, 8.455159096479242 ], [ 78.075837820669392, 8.455161237514689 ], [ 78.07583567041749, 8.454890270471786 ], [ 78.075563520592624, 8.45489241124894 ], [ 78.075565670654996, 8.455163378361419 ], [ 78.075293520569218, 8.455165519019436 ], [ 78.075295670513469, 8.455436486197202 ], [ 78.075023520166752, 8.455438626736067 ], [ 78.075021370412017, 8.455167659488739 ], [ 78.074749220183421, 8.455169799769326 ], [ 78.074747070689611, 8.454898832448158 ], [ 78.074474920579149, 8.45490097247048 ], [ 78.074468473094569, 8.454088070272597 ], [ 78.074196323481274, 8.454090209897576 ], [ 78.074194174652007, 8.453819242420165 ], [ 78.073922025156818, 8.453821381786915 ], [ 78.07391987658842, 8.453550414235682 ], [ 78.073647727211366, 8.453552553344215 ], [ 78.073643430667644, 8.453010618089829 ], [ 78.073915579665737, 8.453008479120362 ], [ 78.073913431311439, 8.452737511556272 ], [ 78.074185580048692, 8.452735372467675 ], [ 78.074183431576301, 8.452464404968842 ], [ 78.0744555800527, 8.452462265761129 ], [ 78.074457728714563, 8.452733233190418 ], [ 78.074729877309053, 8.452731093724504 ], [ 78.074734175225871, 8.453273028431131 ], [ 78.074462026252419, 8.453275168036145 ], [ 78.074464175128426, 8.453546135452582 ], [ 78.074736324291351, 8.453543995778013 ], [ 78.074738473428241, 8.45381496312061 ], [ 78.075010622709272, 8.453812823187809 ], [ 78.07501277210703, 8.454083790456568 ], [ 78.075284921506167, 8.454081650265518 ], [ 78.075287071164823, 8.454352617460426 ], [ 78.075559220682081, 8.454350477011117 ], [ 78.075561370601648, 8.454621444132172 ], [ 78.076105669800924, 8.454617162528308 ], [ 78.07610351950234, 8.454346195546414 ], [ 78.076375668805341, 8.454344054531015 ], [ 78.076373518388678, 8.45407308761442 ], [ 78.076645667430739, 8.454070946479925 ], [ 78.076647818036918, 8.454341913326926 ], [ 78.076919967197071, 8.454339771934141 ], [ 78.076922118064189, 8.454610738707254 ], [ 78.077194267342406, 8.454608597056168 ], [ 78.077198569669989, 8.455150530450325 ], [ 78.0774707192558, 8.455148388471317 ], [ 78.077472870716292, 8.455419355092349 ], [ 78.077745020420167, 8.455417212855007 ], [ 78.077749323934597, 8.455959145944982 ], [ 78.07802147394608, 8.45595700337967 ], [ 78.078030082590629, 8.457040869229665 ], [ 78.077757931820912, 8.457043012073477 ], [ 78.077760083971143, 8.457313978594884 ], [ 78.077487932940386, 8.457316121319559 ] ] ] } },
{ "type": "Feature", "properties": { "lat": 8.4549984735305515, "lon": 78.07930264903095, "area": 15268.732010745078, "perimeter": 779.20253590326536, "anomaly_score": 0.48387068510055542, "change_score": null, "confidence": 0.48387068510055542, "timestamp": "2026-07-24T05:43:07Z", "source_scene": "ENMAP01-____L2A-DT0000207637_20260724T054307Z_004_V010506_20260725T024614Z_CROP600x402-SPECTRAL_IMAGE_COG", "class": "UNKNOWN", "roi_id": "ENMAP01-____L2A-DT0000207637_20260724T054307Z_004_V010506_20260725T024614Z_CROP600x402-SPECTRAL_IMAGE_COG:anomaly:0016", "source_branch": "anomaly", "target_profile": "object", "linked_roi_ids": [ ], "confidence_components": [ "c_anom" ], "georef": "real" }, "geometry": { "type": "Polygon", "coordinates": [ [ [ 78.079654372514099, 8.455944144024471 ], [ 78.07965221939439, 8.455673177969134 ], [ 78.079380070001307, 8.455675321597159 ], [ 78.079377917142651, 8.455404355467872 ], [ 78.079105767867603, 8.455406498837521 ], [ 78.079103615269958, 8.455135532634289 ], [ 78.078831466112945, 8.45513767574557 ], [ 78.078829313776296, 8.454866709468405 ], [ 78.078557164737333, 8.454868852321333 ], [ 78.078552860657524, 8.454326919614847 ], [ 78.07882500931747, 8.454324776901204 ], [ 78.078822857195277, 8.454053810611175 ], [ 78.07909500559424, 8.454051667778486 ], [ 78.079097157905935, 8.454322633998867 ], [ 78.079369306422905, 8.45432049090784 ], [ 78.079373611639781, 8.454862423196433 ], [ 78.079645760464274, 8.454860279777387 ], [ 78.07964791336947, 8.455131245845587 ], [ 78.079920062311999, 8.455129102168174 ], [ 78.079922215478234, 8.455400068162421 ], [ 78.080194364538755, 8.45539792422662 ], [ 78.08019651796603, 8.455668890146905 ], [ 78.079924368715965, 8.455671034152379 ], [ 78.079926522025204, 8.455942000138053 ], [ 78.079654372514099, 8.455944144024471 ] ] ] } },
{ "type": "Feature", "properties": { "lat": 8.4554786722008952, "lon": 78.087135220462514, "area": 4490.7384356190141, "perimeter": 359.62934661342655, "anomaly_score": 0.34307560324668884, "change_score": null, "confidence": 0.34307560324668879, "timestamp": "2026-07-24T05:43:07Z", "source_scene": "ENMAP01-____L2A-DT0000207637_20260724T054307Z_004_V010506_20260725T024614Z_CROP600x402-SPECTRAL_IMAGE_COG", "class": "UNKNOWN", "roi_id": "ENMAP01-____L2A-DT0000207637_20260724T054307Z_004_V010506_20260725T024614Z_CROP600x402-SPECTRAL_IMAGE_COG:anomaly:0017", "source_branch": "anomaly", "target_profile": "object", "linked_roi_ids": [ ], "confidence_components": [ "c_anom" ], "georef": "real" }, "geometry": { "type": "Polygon", "coordinates": [ [ [ 78.087002384195998, 8.455886192848039 ], [ 78.08700022595886, 8.455615228675887 ], [ 78.086728078498552, 8.455617377399353 ], [ 78.086725920522596, 8.455346413153078 ], [ 78.086998067793374, 8.455344264499443 ], [ 78.086995909699581, 8.455073300318711 ], [ 78.087268056709149, 8.455071151546198 ], [ 78.087270214992472, 8.455342115657096 ], [ 78.087542362119891, 8.455339966626044 ], [ 78.087544520664423, 8.455610930662813 ], [ 78.087272373347474, 8.455613079763708 ], [ 78.087274531774156, 8.455884043866028 ], [ 78.087002384195998, 8.455886192848039 ] ] ] } },
{ "type": "Feature", "properties": { "lat": 8.4509406928766708, "lon": 78.065870305878164, "area": 9880.012059546023, "perimeter": 539.4545914065643, "anomaly_score": 0.39106503129005432, "change_score": null, "confidence": 0.39106503129005432, "timestamp": "2026-07-24T05:43:07Z", "source_scene": "ENMAP01-____L2A-DT0000207637_20260724T054307Z_004_V010506_20260725T024614Z_CROP600x402-SPECTRAL_IMAGE_COG", "class": "UNKNOWN", "roi_id": "ENMAP01-____L2A-DT0000207637_20260724T054307Z_004_V010506_20260725T024614Z_CROP600x402-SPECTRAL_IMAGE_COG:anomaly:0018", "source_branch": "anomaly", "target_profile": "object", "linked_roi_ids": [ ], "confidence_components": [ "c_anom" ], "georef": "real" }, "geometry": { "type": "Polygon", "coordinates": [ [ [ 78.065466073754735, 8.451448881078115 ], [ 78.065463931701288, 8.451177911335698 ], [ 78.065191781820147, 8.451180043970993 ], [ 78.065189640027313, 8.450909074154955 ], [ 78.065461789718995, 8.450906941589004 ], [ 78.065459647807899, 8.450635971838029 ], [ 78.066003946598912, 8.450631706278951 ], [ 78.066001804380122, 8.450360736662391 ], [ 78.066273953479438, 8.450358603669285 ], [ 78.066276095887659, 8.450629573216483 ], [ 78.066548245105196, 8.450627439965398 ], [ 78.066550387774029, 8.450898409438949 ], [ 78.066278238367047, 8.450900542759401 ], [ 78.066280380917647, 8.451171512298034 ], [ 78.066008231250038, 8.451173645499219 ], [ 78.066010373682374, 8.451444615102934 ], [ 78.065466073754735, 8.451448881078115 ] ] ] } },
{ "type": "Feature", "properties": { "lat": 8.4503668996182935, "lon": 78.068416063494311, "area": 24250.826021850884, "perimeter": 839.14966010359194, "anomaly_score": 0.39389804005622864, "change_score": null, "confidence": 0.39389804005622864, "timestamp": "2026-07-24T05:43:07Z", "source_scene": "ENMAP01-____L2A-DT0000207637_20260724T054307Z_004_V010506_20260725T024614Z_CROP600x402-SPECTRAL_IMAGE_COG", "class": "UNKNOWN", "roi_id": "ENMAP01-____L2A-DT0000207637_20260724T054307Z_004_V010506_20260725T024614Z_CROP600x402-SPECTRAL_IMAGE_COG:anomaly:0019", "source_branch": "anomaly", "target_profile": "object", "linked_roi_ids": [ ], "confidence_components": [ "c_anom" ], "georef": "real" }, "geometry": { "type": "Polygon", "coordinates": [ [ [ 78.068187570545078, 8.451427543656761 ], [ 78.068185426597196, 8.451156574608095 ], [ 78.067913277428048, 8.45115870912969 ], [ 78.067908990124863, 8.450616770880712 ], [ 78.067636841263365, 8.450618905074883 ], [ 78.067634697908034, 8.450347935874571 ], [ 78.067906846580115, 8.450345801749798 ], [ 78.067904703106592, 8.450074832614604 ], [ 78.067632554623927, 8.450076966669982 ], [ 78.067630411411045, 8.449805997461112 ], [ 78.067902559704294, 8.449803863475127 ], [ 78.067900416373234, 8.449532894331373 ], [ 78.068716860257396, 8.44952649145006 ], [ 78.068719004156677, 8.449797460385589 ], [ 78.068991152164998, 8.449795325645216 ], [ 78.068993296324933, 8.450066294507044 ], [ 78.069265444451403, 8.450064159508646 ], [ 78.069269733363868, 8.450606097080607 ], [ 78.06899758485855, 8.45060823221786 ], [ 78.068999729232246, 8.450879201066844 ], [ 78.068727580466259, 8.450881336084901 ], [ 78.068729724721777, 8.451152304999024 ], [ 78.068457575695106, 8.451154439897874 ], [ 78.068459719832433, 8.45142540887713 ], [ 78.068187570545078, 8.451427543656761 ] ] ] } },
{ "type": "Feature", "properties": { "lat": 8.4477430445671473, "lon": 78.059675958116202, "area": 194009.7140756647, "perimeter": 3716.263360369669, "anomaly_score": 0.65189123153686523, "change_score": null, "confidence": 0.65189123153686523, "timestamp": "2026-07-24T05:43:07Z", "source_scene": "ENMAP01-____L2A-DT0000207637_20260724T054307Z_004_V010506_20260725T024614Z_CROP600x402-SPECTRAL_IMAGE_COG", "class": "UNKNOWN", "roi_id": "ENMAP01-____L2A-DT0000207637_20260724T054307Z_004_V010506_20260725T024614Z_CROP600x402-SPECTRAL_IMAGE_COG:anomaly:0020", "source_branch": "anomaly", "target_profile": "object", "linked_roi_ids": [ ], "confidence_components": [ "c_anom" ], "georef": "real" }, "geometry": { "type": "Polygon", "coordinates": [ [ [ 78.059200191262264, 8.450684971539035 ], [ 78.059198053779156, 8.450414000190483 ], [ 78.058925902831135, 8.450416128279597 ], [ 78.058923765608469, 8.450145156857568 ], [ 78.058651614778853, 8.450147284688869 ], [ 78.058647340925432, 8.449605341693591 ], [ 78.058375190403623, 8.449607469197904 ], [ 78.05837305377284, 8.449336497624662 ], [ 78.05810090336945, 8.449338624871192 ], [ 78.058098766999066, 8.449067653224489 ], [ 78.057826616714067, 8.449069780213252 ], [ 78.057824480604083, 8.448798808493097 ], [ 78.057552330437474, 8.448800935224101 ], [ 78.057550194587876, 8.4485299634305 ], [ 78.057278044539672, 8.448532089903759 ], [ 78.05727590895043, 8.44826111803672 ], [ 78.057003759020631, 8.448263244252248 ], [ 78.056999488433846, 8.447721300367025 ], [ 78.057271637984897, 8.447719174289812 ], [ 78.057269502608605, 8.447448202409946 ], [ 78.057541651899314, 8.447446076213335 ], [ 78.057539516404645, 8.447175104398351 ], [ 78.057811665435011, 8.44717297808236 ], [ 78.057813801119053, 8.447443949828171 ], [ 78.058085950267781, 8.44744182325446 ], [ 78.058083814394394, 8.447170851577818 ], [ 78.059172409521878, 8.447162343674211 ], [ 78.059170272962092, 8.446891372270056 ], [ 78.059442421377071, 8.446889244891995 ], [ 78.059440284698965, 8.446618273552767 ], [ 78.059712432853573, 8.44661614605538 ], [ 78.059710296057162, 8.446345174781083 ], [ 78.059982443951398, 8.446343047164381 ], [ 78.059980307036696, 8.446072075955028 ], [ 78.059708159331791, 8.44607420350251 ], [ 78.059706022677446, 8.445803232219664 ], [ 78.059433875090818, 8.44580535950942 ], [ 78.05943173869683, 8.445534388153085 ], [ 78.059159591228507, 8.44553651518512 ], [ 78.059157455094848, 8.445265543755305 ], [ 78.058885307744788, 8.445267670529635 ], [ 78.058883171871472, 8.444996699026346 ], [ 78.058611024639717, 8.444998825542982 ], [ 78.058608889026701, 8.444727853966224 ], [ 78.058336741913251, 8.444729980225176 ], [ 78.058334606560521, 8.444459008574961 ], [ 78.058606753484696, 8.444456882385193 ], [ 78.058604618013703, 8.444185910799888 ], [ 78.058876764677564, 8.444183784490825 ], [ 78.058874629088308, 8.443912812970437 ], [ 78.059146775491882, 8.443910686542093 ], [ 78.059148911270441, 8.444181657993289 ], [ 78.059421057792278, 8.444179531307272 ], [ 78.059423193831137, 8.444450502684985 ], [ 78.059695340471237, 8.444448375741285 ], [ 78.059693204243104, 8.444177404432782 ], [ 78.06023749693162, 8.444173150118369 ], [ 78.06023963353833, 8.444444121288429 ], [ 78.06051177996531, 8.444441993779279 ], [ 78.060516053770471, 8.444983935968127 ], [ 78.060788200504987, 8.444981808132026 ], [ 78.060790337703438, 8.445252779150797 ], [ 78.061062484556203, 8.445250651056963 ], [ 78.061064622015024, 8.445521622002216 ], [ 78.061336768986038, 8.445519493650636 ], [ 78.061341044495521, 8.446061435389822 ], [ 78.061068897145873, 8.4460635638799 ], [ 78.061071034817886, 8.446334534812326 ], [ 78.060798887207852, 8.446336663183127 ], [ 78.060803162386406, 8.44687860517363 ], [ 78.061075310375131, 8.446876476664345 ], [ 78.061077448260349, 8.447147447583937 ], [ 78.06134959636735, 8.447145318816869 ], [ 78.061351734512982, 8.447416289662939 ], [ 78.061079586216636, 8.447418418499256 ], [ 78.061081724243991, 8.447689389410296 ], [ 78.060809575687216, 8.447691518127307 ], [ 78.06081171359628, 8.447962489103311 ], [ 78.060539564779063, 8.447964617701004 ], [ 78.060541702569822, 8.448235588741968 ], [ 78.060269553492191, 8.448237717220325 ], [ 78.060271691164616, 8.448508688326237 ], [ 78.06054384043162, 8.448506559778648 ], [ 78.060545978364473, 8.448777530811055 ], [ 78.060818127749812, 8.448775402005657 ], [ 78.060820265943107, 8.449046372964551 ], [ 78.061092415446765, 8.449044243901328 ], [ 78.061094553900531, 8.449315214786701 ], [ 78.061911002553288, 8.449308826257758 ], [ 78.061908863531343, 8.449037855580153 ], [ 78.062181012750699, 8.44903572576259 ], [ 78.062183151962046, 8.449306696370929 ], [ 78.062455301299707, 8.449304566295508 ], [ 78.062457440771553, 8.449575536830293 ], [ 78.062185291244475, 8.449577666974989 ], [ 78.062187430598016, 8.449848637574775 ], [ 78.061915280810453, 8.449850767600138 ], [ 78.061917420045674, 8.45012173826491 ], [ 78.061645269997612, 8.450123868170932 ], [ 78.061647409114499, 8.450394838900683 ], [ 78.061103108426281, 8.450399098285404 ], [ 78.061100969688241, 8.450128127417145 ], [ 78.060828819426945, 8.450130256757337 ], [ 78.06082668094939, 8.449859285815558 ], [ 78.060554530806456, 8.449861414897901 ], [ 78.060556669094595, 8.450132385908919 ], [ 78.060284518691176, 8.450134514871888 ], [ 78.060286656860953, 8.450405485947856 ], [ 78.060014506197064, 8.450407614791438 ], [ 78.060016644248449, 8.450678585932355 ], [ 78.059200191262264, 8.450684971539035 ] ] ] } },
{ "type": "Feature", "properties": { "lat": 8.4488642964144187, "lon": 78.066769356079575, "area": 9879.9953998472665, "perimeter": 539.45413317494013, "anomaly_score": 0.4741438627243042, "change_score": null, "confidence": 0.4741438627243042, "timestamp": "2026-07-24T05:43:07Z", "source_scene": "ENMAP01-____L2A-DT0000207637_20260724T054307Z_004_V010506_20260725T024614Z_CROP600x402-SPECTRAL_IMAGE_COG", "class": "UNKNOWN", "roi_id": "ENMAP01-____L2A-DT0000207637_20260724T054307Z_004_V010506_20260725T024614Z_CROP600x402-SPECTRAL_IMAGE_COG:anomaly:0021", "source_branch": "anomaly", "target_profile": "object", "linked_roi_ids": [ ], "confidence_components": [ "c_anom" ], "georef": "real" }, "geometry": { "type": "Polygon", "coordinates": [ [ [ 78.06653967514184, 8.449543562028385 ], [ 78.066537532828974, 8.449272592533429 ], [ 78.066265384558477, 8.449274725437688 ], [ 78.066261100525139, 8.448732786296206 ], [ 78.066533248416846, 8.448730653530678 ], [ 78.066531106317584, 8.448459684022882 ], [ 78.066803253948706, 8.448457551138151 ], [ 78.066801111731266, 8.448186581695449 ], [ 78.067073259101832, 8.448184448691526 ], [ 78.06707540150866, 8.448455418064851 ], [ 78.06734754899739, 8.448453284802984 ], [ 78.067349691664802, 8.448724254102647 ], [ 78.067077543986684, 8.448726387433899 ], [ 78.067081829156365, 8.449268326159153 ], [ 78.066809681028275, 8.449270459440585 ], [ 78.066811823530529, 8.449541428866171 ], [ 78.06653967514184, 8.449543562028385 ] ] ] } },
{ "type": "Feature", "properties": { "lat": 8.443925720994482, "lon": 78.074524004909222, "area": 4490.8424496857688, "perimeter": 359.63351144090382, "anomaly_score": 0.36257109045982361, "change_score": null, "confidence": 0.36257109045982355, "timestamp": "2026-07-24T05:43:07Z", "source_scene": "ENMAP01-____L2A-DT0000207637_20260724T054307Z_004_V010506_20260725T024614Z_CROP600x402-SPECTRAL_IMAGE_COG", "class": "UNKNOWN", "roi_id": "ENMAP01-____L2A-DT0000207637_20260724T054307Z_004_V010506_20260725T024614Z_CROP600x402-SPECTRAL_IMAGE_COG:anomaly:0022", "source_branch": "anomaly", "target_profile": "object", "linked_roi_ids": [ ], "confidence_components": [ "c_anom" ], "georef": "real" }, "geometry": { "type": "Polygon", "coordinates": [ [ [ 78.074391153387566, 8.4443332408907 ], [ 78.074389006938389, 8.444062273328649 ], [ 78.074116864332339, 8.444064410380539 ], [ 78.07411471814379, 8.443793442744669 ], [ 78.074386860560566, 8.443791305762318 ], [ 78.074384714254123, 8.443520338191707 ], [ 78.074656856410272, 8.443518201090448 ], [ 78.07465900290596, 8.443789168591511 ], [ 78.074931145179988, 8.443787031232249 ], [ 78.074933291936333, 8.444057998659479 ], [ 78.074661149473059, 8.444060136088295 ], [ 78.074663296111524, 8.444331103580796 ], [ 78.074391153387566, 8.4443332408907 ] ] ] } },
{ "type": "Feature", "properties": { "lat": 8.4412016932644942, "lon": 78.065740678230199, "area": 55687.343124824954, "perimeter": 1498.4849729288476, "anomaly_score": 0.71736329793930054, "change_score": null, "confidence": 0.71736329793930054, "timestamp": "2026-07-24T05:43:07Z", "source_scene": "ENMAP01-____L2A-DT0000207637_20260724T054307Z_004_V010506_20260725T024614Z_CROP600x402-SPECTRAL_IMAGE_COG", "class": "UNKNOWN", "roi_id": "ENMAP01-____L2A-DT0000207637_20260724T054307Z_004_V010506_20260725T024614Z_CROP600x402-SPECTRAL_IMAGE_COG:anomaly:0023", "source_branch": "anomaly", "target_profile": "object", "linked_roi_ids": [ ], "confidence_components": [ "c_anom" ], "georef": "real" }, "geometry": { "type": "Polygon", "coordinates": [ [ [ 78.064581131096077, 8.442784238090136 ], [ 78.064578991887714, 8.442513268002802 ], [ 78.064306847851995, 8.442515397853917 ], [ 78.064300431221469, 8.441702487358301 ], [ 78.064572574689478, 8.441700357715145 ], [ 78.064570435765688, 8.441429387610709 ], [ 78.064842578973355, 8.441427257848465 ], [ 78.064840439931487, 8.441156287809077 ], [ 78.065384725754924, 8.441152027858022 ], [ 78.065382586405818, 8.440881057953028 ], [ 78.065654729021588, 8.440878927764238 ], [ 78.065652589554432, 8.440607957924312 ], [ 78.065924731909845, 8.440605827616475 ], [ 78.065918313367831, 8.439792918279098 ], [ 78.065646171579985, 8.439795048378885 ], [ 78.0656440323975, 8.439524078521858 ], [ 78.065916173996186, 8.439521948491418 ], [ 78.065914034695709, 8.439250978699468 ], [ 78.066458317301198, 8.439246718212205 ], [ 78.06646045698001, 8.439517687865441 ], [ 78.066732598365149, 8.439515557269903 ], [ 78.066736878314671, 8.44005749642481 ], [ 78.067009020006978, 8.440055365502159 ], [ 78.067011160277715, 8.440326335003823 ], [ 78.067283302088001, 8.440324203823412 ], [ 78.067285442619124, 8.44059517325142 ], [ 78.067013300619649, 8.440597304501212 ], [ 78.067015441032794, 8.440868273994328 ], [ 78.06674329877292, 8.440870405125104 ], [ 78.066745439068058, 8.441141374683317 ], [ 78.066473296547798, 8.441143505695063 ], [ 78.066475436724915, 8.441414475318368 ], [ 78.066203293944255, 8.441416606211076 ], [ 78.066205434003351, 8.441687575899467 ], [ 78.065933290962292, 8.441689706673122 ], [ 78.065939710998961, 8.442502615920704 ], [ 78.065667567319039, 8.442504746713995 ], [ 78.065669707284371, 8.442775716523984 ], [ 78.064581131096077, 8.442784238090136 ] ] ] } },
{ "type": "Feature", "properties": { "lat": 8.4407167999394446, "lon": 78.069055434947686, "area": 9879.9525961704257, "perimeter": 599.39219504864707, "anomaly_score": 0.59355616569519043, "change_score": null, "confidence": 0.59355616569519043, "timestamp": "2026-07-24T05:43:07Z", "source_scene": "ENMAP01-____L2A-DT0000207637_20260724T054307Z_004_V010506_20260725T024614Z_CROP600x402-SPECTRAL_IMAGE_COG", "class": "UNKNOWN", "roi_id": "ENMAP01-____L2A-DT0000207637_20260724T054307Z_004_V010506_20260725T024614Z_CROP600x402-SPECTRAL_IMAGE_COG:anomaly:0024", "source_branch": "anomaly", "target_profile": "object", "linked_roi_ids": [ ], "confidence_components": [ "c_anom" ], "georef": "real" }, "geometry": { "type": "Polygon", "coordinates": [ [ [ 78.069196860615179, 8.44139315602882 ], [ 78.069194718545972, 8.441122187099479 ], [ 78.068922576666679, 8.441124319806843 ], [ 78.06892043485793, 8.440853350803801 ], [ 78.068648293096587, 8.440855483253349 ], [ 78.068646151548265, 8.440584514176608 ], [ 78.0683740099049, 8.440586646368349 ], [ 78.068371868617007, 8.440315677217923 ], [ 78.068644010071182, 8.440313545095593 ], [ 78.068641868665352, 8.440042576010304 ], [ 78.068914009859114, 8.440040443769009 ], [ 78.068916151454133, 8.440311412784881 ], [ 78.069188292765858, 8.440309280285783 ], [ 78.069190434621305, 8.440580249227958 ], [ 78.069462576050952, 8.44057811647105 ], [ 78.069464718166856, 8.44084908533952 ], [ 78.069736859714439, 8.440846952324787 ], [ 78.069739002090799, 8.441117921119544 ], [ 78.069466860354012, 8.44112005420371 ], [ 78.069469002612422, 8.441391023063623 ], [ 78.069196860615179, 8.44139315602882 ] ] ] } },
{ "type": "Feature", "properties": { "lat": 8.4373172179181637, "lon": 78.060105701360598, "area": 50298.766941013477, "perimeter": 1258.7339527109511, "anomaly_score": 0.58600836992263794, "change_score": null, "confidence": 0.58600836992263794, "timestamp": "2026-07-24T05:43:07Z", "source_scene": "ENMAP01-____L2A-DT0000207637_20260724T054307Z_004_V010506_20260725T024614Z_CROP600x402-SPECTRAL_IMAGE_COG", "class": "UNKNOWN", "roi_id": "ENMAP01-____L2A-DT0000207637_20260724T054307Z_004_V010506_20260725T024614Z_CROP600x402-SPECTRAL_IMAGE_COG:anomaly:0025", "source_branch": "anomaly", "target_profile": "object", "linked_roi_ids": [ ], "confidence_components": [ "c_anom" ], "georef": "real" }, "geometry": { "type": "Polygon", "coordinates": [ [ [ 78.060194779716582, 8.438753725819378 ], [ 78.060192644601784, 8.438482754559557 ], [ 78.059920502266564, 8.438484880357352 ], [ 78.059918367411939, 8.438213909024032 ], [ 78.05964622519484, 8.438216034564268 ], [ 78.059644090600386, 8.437945063157464 ], [ 78.059099806331389, 8.437949313534496 ], [ 78.05909767218624, 8.437678341985009 ], [ 78.058825530134342, 8.437680466821829 ], [ 78.058823396249338, 8.437409495198876 ], [ 78.058551254315574, 8.437411619778173 ], [ 78.058549120690699, 8.437140648081758 ], [ 78.058821262435345, 8.437138523571651 ], [ 78.058819128692349, 8.436867551940153 ], [ 78.059363411590368, 8.43686330249338 ], [ 78.059361277540177, 8.436592330996008 ], [ 78.059633418693551, 8.436590206059364 ], [ 78.059631284525253, 8.436319234626929 ], [ 78.059903425418497, 8.436317109571192 ], [ 78.059901291132149, 8.4360461382037 ], [ 78.060445572327367, 8.436041887665773 ], [ 78.060447706991923, 8.436312858894821 ], [ 78.060719847672047, 8.43631073327419 ], [ 78.060721982596746, 8.436581704429734 ], [ 78.060994123394934, 8.436579578551566 ], [ 78.060996258579792, 8.436850549633602 ], [ 78.061268399496029, 8.436848423497885 ], [ 78.061270534941059, 8.437119394506402 ], [ 78.061542675975346, 8.437117268113123 ], [ 78.061544811680562, 8.43738823904812 ], [ 78.061272670457157, 8.437390365510646 ], [ 78.06127480604431, 8.437661336510619 ], [ 78.061002664560718, 8.437663462854067 ], [ 78.061004800029806, 8.437934433919013 ], [ 78.060732658286014, 8.437936560143374 ], [ 78.060736929059075, 8.438478502398921 ], [ 78.06046478686595, 8.438480628573412 ], [ 78.060466922169908, 8.438751599764009 ], [ 78.060194779716582, 8.438753725819378 ] ] ] } },
{ "type": "Feature", "properties": { "lat": 8.4347576125998884, "lon": 78.068736194191317, "area": 4490.8897914433364, "perimeter": 359.63540703719855, "anomaly_score": 0.66474425792694092, "change_score": null, "confidence": 0.66474425792694092, "timestamp": "2026-07-24T05:43:07Z", "source_scene": "ENMAP01-____L2A-DT0000207637_20260724T054307Z_004_V010506_20260725T024614Z_CROP600x402-SPECTRAL_IMAGE_COG", "class": "UNKNOWN", "roi_id": "ENMAP01-____L2A-DT0000207637_20260724T054307Z_004_V010506_20260725T024614Z_CROP600x402-SPECTRAL_IMAGE_COG:anomaly:0026", "source_branch": "anomaly", "target_profile": "object", "linked_roi_ids": [ ], "confidence_components": [ "c_anom" ], "georef": "real" }, "geometry": { "type": "Polygon", "coordinates": [ [ [ 78.068603335541454, 8.435165131743915 ], [ 78.06860119548908, 8.434894162577395 ], [ 78.068329057817351, 8.434896293311519 ], [ 78.068326918025249, 8.434625324071318 ], [ 78.068599055507931, 8.434623193406601 ], [ 78.068596915598008, 8.434352224231533 ], [ 78.068869052820403, 8.43435009344798 ], [ 78.06887119291936, 8.43462106255363 ], [ 78.069143330259564, 8.434618931512407 ], [ 78.069145470618835, 8.434889900544361 ], [ 78.06887333308957, 8.434892031655007 ], [ 78.068875473331019, 8.435163000752114 ], [ 78.068603335541454, 8.435165131743915 ] ] ] } },
{ "type": "Feature", "properties": { "lat": 8.4334708479507281, "lon": 78.060017088023983, "area": 15269.270030870088, "perimeter": 599.39714871208116, "anomaly_score": 0.75402384996414185, "change_score": null, "confidence": 0.75402384996414185, "timestamp": "2026-07-24T05:43:07Z", "source_scene": "ENMAP01-____L2A-DT0000207637_20260724T054307Z_004_V010506_20260725T024614Z_CROP600x402-SPECTRAL_IMAGE_COG", "class": "UNKNOWN", "roi_id": "ENMAP01-____L2A-DT0000207637_20260724T054307Z_004_V010506_20260725T024614Z_CROP600x402-SPECTRAL_IMAGE_COG:anomaly:0027", "source_branch": "anomaly", "target_profile": "object", "linked_roi_ids": [ ], "confidence_components": [ "c_anom" ], "georef": "real" }, "geometry": { "type": "Polygon", "coordinates": [ [ [ 78.059614213735856, 8.434151463013682 ], [ 78.059612080206776, 8.433880491542807 ], [ 78.059339940944156, 8.433882615787383 ], [ 78.059335674477168, 8.43334067269441 ], [ 78.059607813361708, 8.433338548588251 ], [ 78.059605680045721, 8.433067577104564 ], [ 78.05987781867023, 8.433065452879381 ], [ 78.059875685236236, 8.432794481460641 ], [ 78.060419961894127, 8.432790232584047 ], [ 78.060422095706173, 8.433061203864346 ], [ 78.060694234117562, 8.433059079074489 ], [ 78.060698502332812, 8.433601021483815 ], [ 78.060426363543357, 8.433603146412134 ], [ 78.060428497568523, 8.433874117679618 ], [ 78.060156358518981, 8.433876242488926 ], [ 78.060158492426126, 8.434147213821369 ], [ 78.059614213735856, 8.434151463013682 ] ] ] } },
{ "type": "Feature", "properties": { "lat": 8.4324209260102982, "lon": 78.055654335825039, "area": 4490.9976885857295, "perimeter": 359.63972727413835, "anomaly_score": 0.37604963779449463, "change_score": null, "confidence": 0.37604963779449468, "timestamp": "2026-07-24T05:43:07Z", "source_scene": "ENMAP01-____L2A-DT0000207637_20260724T054307Z_004_V010506_20260725T024614Z_CROP600x402-SPECTRAL_IMAGE_COG", "class": "UNKNOWN", "roi_id": "ENMAP01-____L2A-DT0000207637_20260724T054307Z_004_V010506_20260725T024614Z_CROP600x402-SPECTRAL_IMAGE_COG:anomaly:0028", "source_branch": "anomaly", "target_profile": "object", "linked_roi_ids": [ ], "confidence_components": [ "c_anom" ], "georef": "real" }, "geometry": { "type": "Polygon", "coordinates": [ [ [ 78.055521461749208, 8.432828445369719 ], [ 78.055519331410494, 8.432557472840045 ], [ 78.055247192028418, 8.432559593915368 ], [ 78.055245061949648, 8.43228862131231 ], [ 78.05551720114272, 8.432286500306104 ], [ 78.055515070945873, 8.432015527767897 ], [ 78.055787209879014, 8.432013406642602 ], [ 78.055789340264852, 8.432284379111687 ], [ 78.056061479316071, 8.43228225772906 ], [ 78.056063609961868, 8.432553230124755 ], [ 78.055791470721644, 8.432555351576507 ], [ 78.055793601249377, 8.432826324037064 ], [ 78.055521461749208, 8.432828445369719 ] ] ] } },
{ "type": "Feature", "properties": { "lat": 8.4316970884325695, "lon": 78.058125256256915, "area": 17963.909307750742, "perimeter": 659.33801739185049, "anomaly_score": 0.75492250919342041, "change_score": null, "confidence": 0.75492250919342041, "timestamp": "2026-07-24T05:43:07Z", "source_scene": "ENMAP01-____L2A-DT0000207637_20260724T054307Z_004_V010506_20260725T024614Z_CROP600x402-SPECTRAL_IMAGE_COG", "class": "UNKNOWN", "roi_id": "ENMAP01-____L2A-DT0000207637_20260724T054307Z_004_V010506_20260725T024614Z_CROP600x402-SPECTRAL_IMAGE_COG:anomaly:0029", "source_branch": "anomaly", "target_profile": "object", "linked_roi_ids": [ ], "confidence_components": [ "c_anom" ], "georef": "real" }, "geometry": { "type": "Polygon", "coordinates": [ [ [ 78.057696443913187, 8.432540497461703 ], [ 78.057694312133322, 8.432269525480898 ], [ 78.057422173507859, 8.432271647992783 ], [ 78.057417910539058, 8.431729703880034 ], [ 78.05769004878654, 8.431727581506475 ], [ 78.057685785723649, 8.431185637514977 ], [ 78.057957923522153, 8.431183515091565 ], [ 78.057955791908199, 8.430912543158582 ], [ 78.05850006691432, 8.430908297885557 ], [ 78.058502198906226, 8.431179269680184 ], [ 78.05877433649178, 8.431177146692217 ], [ 78.058780733460452, 8.431990061842921 ], [ 78.058508595307941, 8.43199218503845 ], [ 78.058510727583837, 8.432263156815996 ], [ 78.057966450687815, 8.432267402780806 ], [ 78.057968582656684, 8.432538374692445 ], [ 78.057696443913187, 8.432540497461703 ] ] ] } },
{ "type": "Feature", "properties": { "lat": 8.4286847776566081, "lon": 78.060144136242926, "area": 34131.298488076493, "perimeter": 1018.9749948844941, "anomaly_score": 0.37192219495773315, "change_score": null, "confidence": 0.37192219495773315, "timestamp": "2026-07-24T05:43:07Z", "source_scene": "ENMAP01-____L2A-DT0000207637_20260724T054307Z_004_V010506_20260725T024614Z_CROP600x402-SPECTRAL_IMAGE_COG", "class": "UNKNOWN", "roi_id": "ENMAP01-____L2A-DT0000207637_20260724T054307Z_004_V010506_20260725T024614Z_CROP600x402-SPECTRAL_IMAGE_COG:anomaly:0030", "source_branch": "anomaly", "target_profile": "object", "linked_roi_ids": [ ], "confidence_components": [ "c_anom" ], "georef": "real" }, "geometry": { "type": "Polygon", "coordinates": [ [ [ 78.060122225665197, 8.429540700589154 ], [ 78.060120092965604, 8.429269729184131 ], [ 78.059303685029249, 8.42927609895278 ], [ 78.059301552967497, 8.429005127335857 ], [ 78.059029417035603, 8.429007250146595 ], [ 78.059027285233796, 8.428736278456203 ], [ 78.058755149419824, 8.428738401009616 ], [ 78.058753017877947, 8.428467429245764 ], [ 78.059025153503001, 8.428465306761545 ], [ 78.059023021843203, 8.428194335062619 ], [ 78.059839427725549, 8.428187966688848 ], [ 78.059837295570034, 8.427916995193272 ], [ 78.060109430533203, 8.427914872095 ], [ 78.060107298259823, 8.42764390066437 ], [ 78.06037943296306, 8.427641777447214 ], [ 78.060381565425345, 8.427912748808621 ], [ 78.060653700246448, 8.427910625334134 ], [ 78.060655832968664, 8.428181596622045 ], [ 78.060927967907645, 8.428179472890212 ], [ 78.06093010088982, 8.42845044410462 ], [ 78.061202235946652, 8.428448320115436 ], [ 78.0612043691888, 8.428719291256332 ], [ 78.061476504363497, 8.428717167009781 ], [ 78.061478637865633, 8.428988138077163 ], [ 78.061206502502017, 8.428990262392963 ], [ 78.061208635886302, 8.429261233525322 ], [ 78.060664364568055, 8.429265481731004 ], [ 78.060666497645499, 8.429536452997574 ], [ 78.060122225665197, 8.429540700589154 ] ] ] } },
{ "type": "Feature", "properties": { "lat": 8.4230914342822896, "lon": 78.053131683379533, "area": 7185.6285773019208, "perimeter": 419.58062413012954, "anomaly_score": 0.50956284999847412, "change_score": null, "confidence": 0.50956284999847412, "timestamp": "2026-07-24T05:43:07Z", "source_scene": "ENMAP01-____L2A-DT0000207637_20260724T054307Z_004_V010506_20260725T024614Z_CROP600x402-SPECTRAL_IMAGE_COG", "class": "UNKNOWN", "roi_id": "ENMAP01-____L2A-DT0000207637_20260724T054307Z_004_V010506_20260725T024614Z_CROP600x402-SPECTRAL_IMAGE_COG:anomaly:0031", "source_branch": "anomaly", "target_profile": "object", "linked_roi_ids": [ ], "confidence_components": [ "c_anom" ], "georef": "real" }, "geometry": { "type": "Polygon", "coordinates": [ [ [ 78.052999869138048, 8.423634439350071 ], [ 78.052997742910009, 8.423363466053573 ], [ 78.052725609312816, 8.423365583086984 ], [ 78.052721357446913, 8.422823636343093 ], [ 78.052993490666523, 8.422821519447792 ], [ 78.052991364651064, 8.422550546138508 ], [ 78.053263497611013, 8.422548429124273 ], [ 78.053265623815264, 8.422819402364496 ], [ 78.053537756893121, 8.422817285093203 ], [ 78.0535420098918, 8.423359231422722 ], [ 78.053269876436332, 8.423361348832154 ], [ 78.053272002853177, 8.423632322059584 ], [ 78.052999869138048, 8.423634439350071 ] ] ] } },
{ "type": "Feature", "properties": { "lat": 8.4144836512711638, "lon": 78.04489982990988, "area": 7185.7360077354078, "perimeter": 419.58376063402898, "anomaly_score": 0.37339931726455688, "change_score": null, "confidence": 0.37339931726455683, "timestamp": "2026-07-24T05:43:07Z", "source_scene": "ENMAP01-____L2A-DT0000207637_20260724T054307Z_004_V010506_20260725T024614Z_CROP600x402-SPECTRAL_IMAGE_COG", "class": "UNKNOWN", "roi_id": "ENMAP01-____L2A-DT0000207637_20260724T054307Z_004_V010506_20260725T024614Z_CROP600x402-SPECTRAL_IMAGE_COG:anomaly:0032", "source_branch": "anomaly", "target_profile": "object", "linked_roi_ids": [ ], "confidence_components": [ "c_anom" ], "georef": "real" }, "geometry": { "type": "Polygon", "coordinates": [ [ [ 78.044768001774642, 8.415026656827434 ], [ 78.04476588347238, 8.414755681325676 ], [ 78.044493753790931, 8.41475779051482 ], [ 78.044489517775602, 8.414215839360793 ], [ 78.044761647079838, 8.414213730309386 ], [ 78.044759528989559, 8.41394275479486 ], [ 78.045031658034532, 8.413940645624519 ], [ 78.045033776313389, 8.414211621070171 ], [ 78.045305905476283, 8.414209511643149 ], [ 78.045310142623251, 8.414751462383926 ], [ 78.045038013083143, 8.414753571948712 ], [ 78.045040131574027, 8.415024547381595 ], [ 78.044768001774642, 8.415026656827434 ] ] ] } }
]
}
