{
"type": "FeatureCollection",
"name": "2020-10-16_to_2022-03-30_change_rois",
"crs": { "type": "name", "properties": { "name": "urn:ogc:def:crs:OGC:1.3:CRS84" } },
"features": [
{ "type": "Feature", "properties": { "lat": 28.192178122251825, "lon": 77.591205911102236, "area": 40767.489838230009, "perimeter": 1719.3145089094323, "anomaly_score": null, "change_score": 0.87523996829986572, "confidence": 0.8986869634691379, "timestamp": "2022-03-30T05:41:00Z", "source_scene": "S2B_MSIL2A_20220330T052639_N0510_R105_T43RGM_20240522T115955.SAFE_stack", "class": "UNKNOWN", "roi_id": "S2B_MSIL2A_20220330T052639_N0510_R105_T43RGM_20240522T115955.SAFE_stack:change:0012", "source_branch": "change", "target_profile": "landcover", "linked_roi_ids": [ ], "confidence_components": [ "c_change", "c_clear", "c_shape" ], "georef": "real" }, "geometry": { "type": "Polygon", "coordinates": [ [ [ 77.591573337917268, 28.194247959237615 ], [ 77.591568984616245, 28.194067603800445 ], [ 77.591365415422544, 28.194071460509775 ], [ 77.591352356783588, 28.193530394078969 ], [ 77.591148788572752, 28.193534250398976 ], [ 77.591144436114448, 28.193353894882279 ], [ 77.590940868204456, 28.193357750871005 ], [ 77.590936516127343, 28.193177395319921 ], [ 77.59073294851818, 28.193181250977368 ], [ 77.590737300254276, 28.19336160655746 ], [ 77.59053373226395, 28.193365461941653 ], [ 77.590529380868858, 28.193185106332553 ], [ 77.590325813179362, 28.193188961385474 ], [ 77.590317111191638, 28.192828250093143 ], [ 77.590113544144003, 28.19283210478579 ], [ 77.590096142014403, 28.192110682020644 ], [ 77.59029970769808, 28.192106827444004 ], [ 77.590295356925083, 28.191926471768287 ], [ 77.59049892222761, 28.191922616918418 ], [ 77.590490220120103, 28.191561905608893 ], [ 77.59069378470052, 28.191558050514793 ], [ 77.590689433366038, 28.191377694880977 ], [ 77.590892997565319, 28.191373839513645 ], [ 77.590888645930022, 28.191193483903472 ], [ 77.591092209748155, 28.191189628262915 ], [ 77.591087857812056, 28.191009272676379 ], [ 77.590884294334884, 28.191013128287924 ], [ 77.590879942779921, 28.190832772667015 ], [ 77.591083505916117, 28.190828917084485 ], [ 77.591079154060353, 28.190648561487208 ], [ 77.591282716815428, 28.190644705631456 ], [ 77.591278364658876, 28.190464350057823 ], [ 77.591889051660189, 28.190452780764254 ], [ 77.591893404839638, 28.190633136250835 ], [ 77.592096967434017, 28.190629279186165 ], [ 77.592105674595345, 28.190989990085143 ], [ 77.59190211131903, 28.19099384720786 ], [ 77.591906464619001, 28.191174202678319 ], [ 77.592110028236263, 28.191170345526579 ], [ 77.592114381917384, 28.191350700962641 ], [ 77.59191081795916, 28.191354558143402 ], [ 77.591919524759987, 28.19171526905745 ], [ 77.591715960079625, 28.191719125994023 ], [ 77.591724666359212, 28.192079836944625 ], [ 77.591928231721553, 28.192075979950015 ], [ 77.591932585262597, 28.192256335388237 ], [ 77.591729019559281, 28.192260192411872 ], [ 77.591733372799524, 28.192440547873748 ], [ 77.59152980671503, 28.192444404624162 ], [ 77.591525453815791, 28.192264049133264 ], [ 77.591321888032112, 28.192267905552406 ], [ 77.591326240590377, 28.192448261072315 ], [ 77.591122674425549, 28.192452117218224 ], [ 77.591127026682983, 28.192632472761776 ], [ 77.590923460136977, 28.192636328634439 ], [ 77.59093216409039, 28.192997039763465 ], [ 77.591135731318374, 28.192993183832769 ], [ 77.591140083696331, 28.19317353936021 ], [ 77.591343651225159, 28.19316968309824 ], [ 77.591348003984294, 28.193350038591294 ], [ 77.591551571813952, 28.193346181998042 ], [ 77.591547218713814, 28.193165826534006 ], [ 77.591750786162294, 28.193161969667518 ], [ 77.591755139603421, 28.193342325102527 ], [ 77.591958707352731, 28.193338467904756 ], [ 77.591971768940255, 28.193879534090485 ], [ 77.592175337672401, 28.193875676503371 ], [ 77.592179691956304, 28.194056031858835 ], [ 77.591976122883125, 28.194059889474978 ], [ 77.591980476866183, 28.1942402448541 ], [ 77.591573337917268, 28.194247959237615 ] ] ] } },
{ "type": "Feature", "properties": { "lat": 28.187063106648878, "lon": 77.596281914097545, "area": 36370.759531115793, "perimeter": 1479.4053841969076, "anomaly_score": null, "change_score": 0.87990075349807739, "confidence": 0.90292138753848017, "timestamp": "2022-03-30T05:41:00Z", "source_scene": "S2B_MSIL2A_20220330T052639_N0510_R105_T43RGM_20240522T115955.SAFE_stack", "class": "UNKNOWN", "roi_id": "S2B_MSIL2A_20220330T052639_N0510_R105_T43RGM_20240522T115955.SAFE_stack:change:0027", "source_branch": "change", "target_profile": "landcover", "linked_roi_ids": [ ], "confidence_components": [ "c_change", "c_clear", "c_shape" ], "georef": "real" }, "geometry": { "type": "Polygon", "coordinates": [ [ [ 77.594890184853412, 28.188230632465189 ], [ 77.594885827082564, 28.188050277344363 ], [ 77.594682269824077, 28.188054138233433 ], [ 77.594677912434349, 28.187873783078182 ], [ 77.594881469351932, 28.187869922218166 ], [ 77.594855323812794, 28.186787791348131 ], [ 77.59505887864475, 28.186783930360267 ], [ 77.595054520854774, 28.186603575225512 ], [ 77.595258075305637, 28.186599713964526 ], [ 77.595262433436503, 28.18678006907022 ], [ 77.595465988188025, 28.186776207478001 ], [ 77.595470346699997, 28.186956562549266 ], [ 77.595673901752178, 28.186952700625799 ], [ 77.595669542899316, 28.186772345583602 ], [ 77.595873097570376, 28.186768483387031 ], [ 77.595868738416854, 28.186588128368523 ], [ 77.596072292706793, 28.186584265898841 ], [ 77.596067933252613, 28.186403910904026 ], [ 77.596271487161445, 28.186400048161239 ], [ 77.596267127406634, 28.186219693190118 ], [ 77.596470680934331, 28.18621583017423 ], [ 77.596475041030018, 28.18639618511628 ], [ 77.596678594858361, 28.186392321769151 ], [ 77.596682955335154, 28.186572676676747 ], [ 77.597090063552841, 28.186564949017818 ], [ 77.597085702394267, 28.186384594168381 ], [ 77.597289256101845, 28.186380729914731 ], [ 77.597284894642641, 28.186200375088994 ], [ 77.597488447969084, 28.186196510562265 ], [ 77.597484086209278, 28.186016155760239 ], [ 77.5976876391546, 28.186012290960427 ], [ 77.597692001255282, 28.186192645733364 ], [ 77.597895554501207, 28.186188780602301 ], [ 77.597899916983025, 28.186369135340783 ], [ 77.598103470529566, 28.186365269878458 ], [ 77.598107833392547, 28.186545624582475 ], [ 77.59831138723969, 28.186541758788888 ], [ 77.598315750483806, 28.186722113458433 ], [ 77.598112196295787, 28.18672597928111 ], [ 77.598116559239315, 28.18690633397437 ], [ 77.597709450060677, 28.186914064771386 ], [ 77.597713812362684, 28.187094419517457 ], [ 77.597510257372065, 28.187098284491785 ], [ 77.597514619373456, 28.18727863926156 ], [ 77.597311064001701, 28.187282503962798 ], [ 77.597306702341214, 28.18710214916393 ], [ 77.59710314727009, 28.187106013533903 ], [ 77.597098785990752, 28.186925658700574 ], [ 77.596895231220259, 28.186929522739288 ], [ 77.596899592158707, 28.187109877601685 ], [ 77.596696037007092, 28.187113741367295 ], [ 77.596700397644895, 28.1872940962534 ], [ 77.596496842112131, 28.187297959745901 ], [ 77.596505562826678, 28.187658669560129 ], [ 77.596302006571875, 28.187662532808591 ], [ 77.596306366648619, 28.187842887736725 ], [ 77.596102810012653, 28.187846750712072 ], [ 77.596098450276799, 28.187666395754874 ], [ 77.595691337565981, 28.187674120740862 ], [ 77.595695696619998, 28.1878544757562 ], [ 77.595492139863339, 28.187858337824977 ], [ 77.595496498616683, 28.188038692864001 ], [ 77.595292941478874, 28.188042554659646 ], [ 77.595297299931545, 28.188222909722359 ], [ 77.594890184853412, 28.188230632465189 ] ] ] } },
{ "type": "Feature", "properties": { "lat": 28.165000824194045, "lon": 77.584058869964807, "area": 27578.253224280976, "perimeter": 879.65281304524945, "anomaly_score": null, "change_score": 0.90198016166687012, "confidence": 0.93404522973482207, "timestamp": "2022-03-30T05:41:00Z", "source_scene": "S2B_MSIL2A_20220330T052639_N0510_R105_T43RGM_20240522T115955.SAFE_stack", "class": "UNKNOWN", "roi_id": "S2B_MSIL2A_20220330T052639_N0510_R105_T43RGM_20240522T115955.SAFE_stack:change:0049", "source_branch": "change", "target_profile": "landcover", "linked_roi_ids": [ ], "confidence_components": [ "c_change", "c_clear", "c_shape" ], "georef": "real" }, "geometry": { "type": "Polygon", "coordinates": [ [ [ 77.58355508961499, 28.165709863571379 ], [ 77.583550754957599, 28.165529506237597 ], [ 77.58294020547558, 28.165541029014427 ], [ 77.582935871879798, 28.16536067158852 ], [ 77.5827323556463, 28.165364511881378 ], [ 77.582723689255815, 28.165003796955641 ], [ 77.582927204808271, 28.164999956720621 ], [ 77.582922871332514, 28.164819599278612 ], [ 77.583126386504446, 28.164815758770597 ], [ 77.583122052728186, 28.164635401352147 ], [ 77.58332556751958, 28.164631560571138 ], [ 77.583321233442817, 28.164451203176249 ], [ 77.584949347609097, 28.164420466290931 ], [ 77.584945010848273, 28.164240109122119 ], [ 77.585148524598409, 28.164236265681822 ], [ 77.585152861699726, 28.164416622821697 ], [ 77.585356375750322, 28.164412779050561 ], [ 77.585365050754135, 28.164773493256334 ], [ 77.585161536022511, 28.164777337085361 ], [ 77.585170210505467, 28.165138051327556 ], [ 77.584966695052756, 28.165141894912551 ], [ 77.584971032013783, 28.165322252054541 ], [ 77.58476751618052, 28.165326095366563 ], [ 77.584771852841044, 28.165506452532124 ], [ 77.584568336627214, 28.165510295571167 ], [ 77.584572672987264, 28.165690652760308 ], [ 77.584369156392867, 28.165694495526363 ], [ 77.584364820373352, 28.165514138308293 ], [ 77.584161304079458, 28.165517980743495 ], [ 77.584165639758439, 28.165698337990499 ], [ 77.58355508961499, 28.165709863571379 ] ] ] } },
{ "type": "Feature", "properties": { "lat": 28.157847895202984, "lon": 77.619599643246303, "area": 135087.36695007735, "perimeter": 3518.5327586317535, "anomaly_score": null, "change_score": 0.92311996221542358, "confidence": 0.91597200161543002, "timestamp": "2022-03-30T05:41:00Z", "source_scene": "S2B_MSIL2A_20220330T052639_N0510_R105_T43RGM_20240522T115955.SAFE_stack", "class": "UNKNOWN", "roi_id": "S2B_MSIL2A_20220330T052639_N0510_R105_T43RGM_20240522T115955.SAFE_stack:change:0053", "source_branch": "change", "target_profile": "landcover", "linked_roi_ids": [ ], "confidence_components": [ "c_change", "c_clear", "c_shape" ], "georef": "real" }, "geometry": { "type": "Polygon", "coordinates": [ [ [ 77.620480177445756, 28.160316572640774 ], [ 77.62047578187159, 28.160136220468765 ], [ 77.620272281604159, 28.160140115879216 ], [ 77.620267886410971, 28.159959763672486 ], [ 77.620064386443374, 28.159963658751785 ], [ 77.620059991631166, 28.159783306510338 ], [ 77.619856491963375, 28.159787201258496 ], [ 77.619852097532117, 28.159606848982346 ], [ 77.619648598164162, 28.159610743399355 ], [ 77.619644204113868, 28.159430391088495 ], [ 77.619440705045719, 28.15943428517437 ], [ 77.619445098755605, 28.159614637514551 ], [ 77.618427601104457, 28.15963410356332 ], [ 77.618423209096505, 28.159453751076555 ], [ 77.618219709784981, 28.159457643351551 ], [ 77.618215318157965, 28.159277290830097 ], [ 77.618011819146304, 28.159281182773981 ], [ 77.618003036694645, 28.158920477656309 ], [ 77.617799538323197, 28.158924369239763 ], [ 77.617795147498555, 28.158744016643556 ], [ 77.617591649426956, 28.158747907895908 ], [ 77.617582868580044, 28.158387202628742 ], [ 77.617786365970915, 28.158383311435003 ], [ 77.61777758460542, 28.15802260620492 ], [ 77.617574087895278, 28.158026497340057 ], [ 77.617569697613703, 28.15784614468765 ], [ 77.617366201203382, 28.157850035491688 ], [ 77.617361811302715, 28.157669682804599 ], [ 77.617158315192228, 28.157673573277545 ], [ 77.617136367998526, 28.156771809614902 ], [ 77.61693287354926, 28.156775699639585 ], [ 77.616928484572441, 28.156595346861618 ], [ 77.617131978681371, 28.156591456866234 ], [ 77.617127589404745, 28.156411104112191 ], [ 77.617534576820333, 28.156403323274677 ], [ 77.617530186903579, 28.156222970573857 ], [ 77.617733680210236, 28.156219079731734 ], [ 77.617729289993676, 28.156038727054831 ], [ 77.617932782919482, 28.156034835940243 ], [ 77.617919611492027, 28.155493777965155 ], [ 77.618123103356325, 28.155489886636719 ], [ 77.618118712621254, 28.155309533996906 ], [ 77.618729186949963, 28.155297858288939 ], [ 77.618733578705957, 28.15547821084083 ], [ 77.61893707040808, 28.155474318305348 ], [ 77.618941462544953, 28.155654670822525 ], [ 77.619348446508155, 28.155646884787632 ], [ 77.619344053690639, 28.155466532329083 ], [ 77.619751036810968, 28.155458745145769 ], [ 77.61974664335338, 28.155278392740477 ], [ 77.619950134512393, 28.155274498725507 ], [ 77.619945740755071, 28.155094146344162 ], [ 77.62014923153319, 28.155090252056763 ], [ 77.620144837476133, 28.154909899699373 ], [ 77.620348327873373, 28.154906005139541 ], [ 77.620352722270738, 28.155086357467606 ], [ 77.620556212967713, 28.155082462576697 ], [ 77.620560607745986, 28.155262814870046 ], [ 77.620764098742683, 28.155258919648041 ], [ 77.620768493901821, 28.155439271906683 ], [ 77.620565002564817, 28.155443167158019 ], [ 77.620569397424219, 28.155623519440603 ], [ 77.620365905706308, 28.155627414419524 ], [ 77.620374694866229, 28.155988119027228 ], [ 77.620578187264783, 28.155984223989645 ], [ 77.62058258224593, 28.156164576256096 ], [ 77.62037908950704, 28.156168471323006 ], [ 77.620383484188451, 28.156348823613403 ], [ 77.620179991068667, 28.15635271840787 ], [ 77.620184385450315, 28.156533070722226 ], [ 77.619980891949623, 28.156536965244253 ], [ 77.619985286031508, 28.156717317582554 ], [ 77.619374804264993, 28.156728999425969 ], [ 77.619379197366428, 28.15690935184686 ], [ 77.619175703022805, 28.156913245220434 ], [ 77.619180095824447, 28.157093597665266 ], [ 77.618976601099916, 28.157097490766372 ], [ 77.618980993601795, 28.157277843235136 ], [ 77.618777498496343, 28.157281736063773 ], [ 77.618786282941059, 28.157642441043805 ], [ 77.618582787114363, 28.157646333629287 ], [ 77.618595963064493, 28.158187391146921 ], [ 77.618799459912267, 28.158183498473495 ], [ 77.618803852317114, 28.158363850939296 ], [ 77.619007349464695, 28.15835995793476 ], [ 77.619011742250464, 28.158540310365868 ], [ 77.619215239697866, 28.158536417030213 ], [ 77.619210846571718, 28.158356064628425 ], [ 77.619617840664091, 28.15834827711036 ], [ 77.619622234470981, 28.1585286294535 ], [ 77.619825731796681, 28.158524735212445 ], [ 77.619830125984492, 28.158705087520879 ], [ 77.620033623609999, 28.158701192948701 ], [ 77.620038018178747, 28.158881545222425 ], [ 77.620241516104045, 28.158877650319109 ], [ 77.620237121194918, 28.158697298074717 ], [ 77.620440618739266, 28.158693402898926 ], [ 77.620436223530348, 28.158513050678479 ], [ 77.620639720693745, 28.158509155230231 ], [ 77.620644116243042, 28.158689507421339 ], [ 77.620847613706232, 28.15868561164195 ], [ 77.620852009636479, 28.158865963798345 ], [ 77.621055507399447, 28.158862067687814 ], [ 77.621059903710659, 28.159042419809484 ], [ 77.621466899795578, 28.159034626624337 ], [ 77.62146250280361, 28.158854274561346 ], [ 77.621666000444804, 28.158850377545413 ], [ 77.621661603153072, 28.158670025506392 ], [ 77.621865100413288, 28.158666128217995 ], [ 77.621860702821778, 28.158485776202937 ], [ 77.622878186811946, 28.158466285380761 ], [ 77.622882586105277, 28.158646637249046 ], [ 77.623086083121848, 28.158642738149858 ], [ 77.623090482796158, 28.158823089983393 ], [ 77.623293980112464, 28.158819190553046 ], [ 77.623298380167796, 28.158999542351832 ], [ 77.623501877783838, 28.158995642590316 ], [ 77.623510678697102, 28.159356346113007 ], [ 77.623714176953285, 28.159352445990951 ], [ 77.623718577811246, 28.159532797714856 ], [ 77.623515079214684, 28.159536697866287 ], [ 77.623519479772881, 28.159717049614173 ], [ 77.622705483618859, 28.159732647319238 ], [ 77.622701084422204, 28.159552295453899 ], [ 77.622497585622526, 28.159556194096275 ], [ 77.62249318680685, 28.159375842196187 ], [ 77.62228968830695, 28.159379740507401 ], [ 77.622285289872295, 28.159199388572578 ], [ 77.621878293431408, 28.159207184230869 ], [ 77.621882691185334, 28.159387536224401 ], [ 77.621679192563604, 28.15939143363018 ], [ 77.621683590017753, 28.159571785647675 ], [ 77.621480091015044, 28.159575682781 ], [ 77.621484488169386, 28.159756034822458 ], [ 77.621280988785699, 28.159759931683315 ], [ 77.621285385640263, 28.159940283748735 ], [ 77.621081885875583, 28.159944180337117 ], [ 77.62108628243034, 28.160124532426504 ], [ 77.620882782284667, 28.160128428742411 ], [ 77.620887178539618, 28.16030878085575 ], [ 77.620480177445756, 28.160316572640774 ] ] ] } },
{ "type": "Feature", "properties": { "lat": 28.15757158978742, "lon": 77.624056899298537, "area": 25178.867718283182, "perimeter": 1039.5638260436704, "anomaly_score": null, "change_score": 0.94097942113876343, "confidence": 0.94668591132629687, "timestamp": "2022-03-30T05:41:00Z", "source_scene": "S2B_MSIL2A_20220330T052639_N0510_R105_T43RGM_20240522T115955.SAFE_stack", "class": "UNKNOWN", "roi_id": "S2B_MSIL2A_20220330T052639_N0510_R105_T43RGM_20240522T115955.SAFE_stack:change:0057", "source_branch": "change", "target_profile": "landcover", "linked_roi_ids": [ ], "confidence_components": [ "c_change", "c_clear", "c_shape" ], "georef": "real" }, "geometry": { "type": "Polygon", "coordinates": [ [ [ 77.624311466084549, 28.158799688874289 ], [ 77.624307064368026, 28.158619337216972 ], [ 77.624103567595242, 28.15862323812695 ], [ 77.624099166259711, 28.158442886434873 ], [ 77.623895669786663, 28.158446787013681 ], [ 77.623886867918245, 28.158086083554636 ], [ 77.623683372085253, 28.1580899837729 ], [ 77.623678971552351, 28.157909632005932 ], [ 77.623475476019109, 28.15791353189304 ], [ 77.623471075867187, 28.157733180091324 ], [ 77.623267580633666, 28.157737079647276 ], [ 77.623258781132392, 28.157376375968962 ], [ 77.623055286538943, 28.1573802751644 ], [ 77.623050887189592, 28.157199923287806 ], [ 77.622847392895864, 28.157203822152091 ], [ 77.622838594999678, 28.156843118324044 ], [ 77.623042088612721, 28.156839219518467 ], [ 77.623037689385214, 28.156658867625723 ], [ 77.623241182617306, 28.156654968547738 ], [ 77.623245582185135, 28.156835320411119 ], [ 77.623652569208119, 28.156827521291095 ], [ 77.623656969497247, 28.157007873090357 ], [ 77.623860463288139, 28.157003973048315 ], [ 77.623864863958232, 28.157184324812821 ], [ 77.624271852098772, 28.157176523764651 ], [ 77.624267450748007, 28.156996172058893 ], [ 77.624674438045318, 28.156988369862368 ], [ 77.624670036054496, 28.156808018209979 ], [ 77.624873529301851, 28.156804116688431 ], [ 77.624877931633009, 28.156984468311443 ], [ 77.625081425180056, 28.156980566458731 ], [ 77.625094633438408, 28.157521621207305 ], [ 77.624891138870339, 28.157525523148163 ], [ 77.624895541364083, 28.157705874749638 ], [ 77.624692046415021, 28.157709776418091 ], [ 77.624696448609058, 28.157890128043565 ], [ 77.624492953278988, 28.157894029439611 ], [ 77.624501757108291, 28.15825473273317 ], [ 77.62470525311906, 28.158250831278366 ], [ 77.624714057791664, 28.158611534491627 ], [ 77.624510561100166, 28.158615436005199 ], [ 77.624514963157068, 28.158795787633139 ], [ 77.624311466084549, 28.158799688874289 ] ] ] } },
{ "type": "Feature", "properties": { "lat": 28.154247026063629, "lon": 77.622439912397752, "area": 51556.8224763342, "perimeter": 2478.9621417839776, "anomaly_score": null, "change_score": 0.90541255474090576, "confidence": 0.90522987680673006, "timestamp": "2022-03-30T05:41:00Z", "source_scene": "S2B_MSIL2A_20220330T052639_N0510_R105_T43RGM_20240522T115955.SAFE_stack", "class": "UNKNOWN", "roi_id": "S2B_MSIL2A_20220330T052639_N0510_R105_T43RGM_20240522T115955.SAFE_stack:change:0062", "source_branch": "change", "target_profile": "landcover", "linked_roi_ids": [ ], "confidence_components": [ "c_change", "c_clear", "c_shape" ], "georef": "real" }, "geometry": { "type": "Polygon", "coordinates": [ [ [ 77.621400949178678, 28.156329345114457 ], [ 77.62139655279563, 28.156148992970756 ], [ 77.621193060219085, 28.156152889244744 ], [ 77.621188664216973, 28.155972537066308 ], [ 77.621392156453197, 28.155968640821669 ], [ 77.621387760151336, 28.155788288667189 ], [ 77.621591252006638, 28.155784392150125 ], [ 77.621586855405056, 28.155604040019615 ], [ 77.62179034687945, 28.155600143230131 ], [ 77.621781553117444, 28.155239439011662 ], [ 77.621578062323664, 28.155243335742448 ], [ 77.621573665843869, 28.155062983595794 ], [ 77.62137017534981, 28.155066879995484 ], [ 77.621361383192593, 28.154706175627343 ], [ 77.621157893338562, 28.154710071666592 ], [ 77.621149102024319, 28.154349367218245 ], [ 77.621352591197748, 28.154345471237679 ], [ 77.621348195261206, 28.154165119034779 ], [ 77.621144706428069, 28.154169014986007 ], [ 77.621140310872406, 28.153988662748372 ], [ 77.620936822338962, 28.153992558368518 ], [ 77.620932427164163, 28.153812206096177 ], [ 77.621135915357314, 28.153808310505372 ], [ 77.621131519882837, 28.15362795825698 ], [ 77.621335007695109, 28.153624062393785 ], [ 77.621330611920939, 28.153443710169352 ], [ 77.621534099352345, 28.153439814033757 ], [ 77.621529703278469, 28.153259461833287 ], [ 77.621733190329024, 28.153255565425301 ], [ 77.621728793955469, 28.153075213248801 ], [ 77.62193228062516, 28.153071316568433 ], [ 77.621927883951926, 28.152890964415903 ], [ 77.622131370240737, 28.152887067463148 ], [ 77.622126973267839, 28.152706715334581 ], [ 77.622330459175785, 28.152702818109457 ], [ 77.622326061903223, 28.152522466004857 ], [ 77.622529547430304, 28.152518568507364 ], [ 77.622525149858077, 28.152338216426742 ], [ 77.622728635004293, 28.152334318656884 ], [ 77.622724237132431, 28.152153966600235 ], [ 77.622927721897781, 28.152150068558019 ], [ 77.622932120109922, 28.152330420585304 ], [ 77.623135605174909, 28.152326522212007 ], [ 77.623140003767915, 28.152506874204555 ], [ 77.622936518362664, 28.152510772607215 ], [ 77.622949713364576, 28.153051828640653 ], [ 77.623153199790636, 28.15304793014991 ], [ 77.62316199734218, 28.153408634086567 ], [ 77.623365484408168, 28.15340473523537 ], [ 77.623369883585141, 28.153585087166263 ], [ 77.623573370950794, 28.153581187983967 ], [ 77.62357777050866, 28.153761539880115 ], [ 77.623781258173963, 28.153757640366717 ], [ 77.623785658112752, 28.153937992228109 ], [ 77.624192634002043, 28.153930192237361 ], [ 77.624188233382696, 28.153749840434713 ], [ 77.624391720926099, 28.153745940016108 ], [ 77.624387320007116, 28.153565588237448 ], [ 77.624590807169611, 28.153561687546482 ], [ 77.6245952084289, 28.153742039295768 ], [ 77.62479869589103, 28.153738138273688 ], [ 77.624803097531228, 28.1539184899882 ], [ 77.624599609728804, 28.153922391039661 ], [ 77.624604011069351, 28.154102742778178 ], [ 77.624400522886006, 28.154106643557277 ], [ 77.624404923926903, 28.154286995319783 ], [ 77.623997946757726, 28.154294796031508 ], [ 77.62400234715868, 28.154475147847382 ], [ 77.623798858172862, 28.154479047780004 ], [ 77.623794458112201, 28.154298695934752 ], [ 77.623590969426033, 28.154302595536251 ], [ 77.62358656974628, 28.154122243656253 ], [ 77.62338308135979, 28.154126142926653 ], [ 77.623378682060945, 28.1539457910119 ], [ 77.622768217678612, 28.153957486924551 ], [ 77.622763819441246, 28.153777134916336 ], [ 77.62256033157287, 28.153781032921049 ], [ 77.622555933716384, 28.153600680878096 ], [ 77.622352446147687, 28.153604578551715 ], [ 77.622348048672094, 28.153424226474026 ], [ 77.621941074093428, 28.153432020857359 ], [ 77.621945470888448, 28.153612372993749 ], [ 77.621741983197936, 28.153616269762164 ], [ 77.621746379693278, 28.15379662192252 ], [ 77.621542891621871, 28.153800518418539 ], [ 77.62155168405377, 28.154161222781809 ], [ 77.621755172805749, 28.154157326227093 ], [ 77.621759569422863, 28.154337678371306 ], [ 77.621963058474535, 28.154333781485505 ], [ 77.621967455472557, 28.154514133594986 ], [ 77.622170944823907, 28.154510236378091 ], [ 77.622175342202837, 28.154690588452837 ], [ 77.622378831853879, 28.154686690904835 ], [ 77.622383229613703, 28.154867042944854 ], [ 77.622586719564453, 28.15486314506575 ], [ 77.62259111770517, 28.155043497071034 ], [ 77.62279460795564, 28.155039598860817 ], [ 77.622799006477265, 28.155219950831356 ], [ 77.623002497027414, 28.155216052290026 ], [ 77.623011294873166, 28.155576756156247 ], [ 77.622807803642402, 28.155580654756292 ], [ 77.622812202285886, 28.155761006710687 ], [ 77.6226087106742, 28.155764905038339 ], [ 77.622613109017976, 28.155945257016707 ], [ 77.622002632918282, 28.155956950277126 ], [ 77.622007030281708, 28.156137302338184 ], [ 77.62160004533159, 28.156145096395001 ], [ 77.621604442054945, 28.15632544850936 ], [ 77.621400949178678, 28.156329345114457 ] ] ] } },
{ "type": "Feature", "properties": { "lat": 28.15225674368607, "lon": 77.58469590147844, "area": 32374.404343813978, "perimeter": 1759.3045280219337, "anomaly_score": null, "change_score": 0.87925636768341064, "confidence": 0.88732164502118249, "timestamp": "2022-03-30T05:41:00Z", "source_scene": "S2B_MSIL2A_20220330T052639_N0510_R105_T43RGM_20240522T115955.SAFE_stack", "class": "UNKNOWN", "roi_id": "S2B_MSIL2A_20220330T052639_N0510_R105_T43RGM_20240522T115955.SAFE_stack:change:0075", "source_branch": "change", "target_profile": "landcover", "linked_roi_ids": [ ], "confidence_components": [ "c_change", "c_clear", "c_shape" ], "georef": "real" }, "geometry": { "type": "Polygon", "coordinates": [ [ [ 77.583269088055758, 28.153806268035417 ], [ 77.583264756039014, 28.153625910347611 ], [ 77.583061262053192, 28.153629749666468 ], [ 77.583056930416788, 28.153449391944385 ], [ 77.582853436731298, 28.153453230932559 ], [ 77.582849105475191, 28.153272873176199 ], [ 77.583052598820373, 28.15326903421693 ], [ 77.583048267263976, 28.153088676484124 ], [ 77.583251760228833, 28.15308483725201 ], [ 77.583247428372104, 28.152904479542759 ], [ 77.583450920956665, 28.152900640037799 ], [ 77.583442256682588, 28.152539924661031 ], [ 77.583238764778642, 28.152543764108145 ], [ 77.583234433041923, 28.152363406382804 ], [ 77.583437924605548, 28.152359566964599 ], [ 77.583433592568525, 28.152179209262815 ], [ 77.583637083751867, 28.152175369571772 ], [ 77.583632751414541, 28.151995011893533 ], [ 77.584039732980614, 28.151987331664056 ], [ 77.584035400002705, 28.151806974038305 ], [ 77.584442380728149, 28.151799292659692 ], [ 77.58444671438663, 28.151979650227588 ], [ 77.584650205029632, 28.151975809056733 ], [ 77.584645871030844, 28.151795451517771 ], [ 77.584849361293521, 28.151791610074103 ], [ 77.584845026994486, 28.151611252558705 ], [ 77.585048516876853, 28.151607410842225 ], [ 77.585044182277528, 28.151427053350403 ], [ 77.585247671779584, 28.15142321136112 ], [ 77.585243336880026, 28.151242853892867 ], [ 77.585446826001771, 28.151239011630789 ], [ 77.585451161241622, 28.151419369070098 ], [ 77.585654650663628, 28.151415526477333 ], [ 77.585658986283789, 28.15159588388234 ], [ 77.586065965688249, 28.151588197733705 ], [ 77.586061629387515, 28.151407840386597 ], [ 77.586265118689411, 28.151403996888611 ], [ 77.586260782088445, 28.151223639565082 ], [ 77.586464271010001, 28.151219795794319 ], [ 77.586459934108802, 28.151039438494379 ], [ 77.586663422650034, 28.151035594450825 ], [ 77.586667759891512, 28.151215951721813 ], [ 77.58687124873299, 28.151212107347579 ], [ 77.586875586354807, 28.151392464584241 ], [ 77.58667209717305, 28.15139630898744 ], [ 77.586676434494635, 28.151576666247699 ], [ 77.586472944932552, 28.151580510378114 ], [ 77.58647728195389, 28.15176086766196 ], [ 77.586273792011482, 28.151764711519576 ], [ 77.586278128732587, 28.151945068827015 ], [ 77.586481619015288, 28.151941224940437 ], [ 77.586485956116732, 28.152121582213564 ], [ 77.586282465493738, 28.152125426129082 ], [ 77.586286802294936, 28.152305783425788 ], [ 77.585879820248223, 28.152313470409489 ], [ 77.585875484127612, 28.152133113054891 ], [ 77.585671993384508, 28.152136956065171 ], [ 77.585667657644237, 28.151956598676254 ], [ 77.585464167201366, 28.151960441355843 ], [ 77.585468502601344, 28.152140798773701 ], [ 77.585265011778148, 28.152144641180485 ], [ 77.585260676718477, 28.15196428373368 ], [ 77.585057186195556, 28.15196812580978 ], [ 77.585061520914948, 28.152148483285519 ], [ 77.584858030011702, 28.152152325088803 ], [ 77.584862364430819, 28.152332682588103 ], [ 77.584658873147262, 28.152336524118574 ], [ 77.584667541424963, 28.152697239158957 ], [ 77.584464049420774, 28.152701080445539 ], [ 77.584468383279344, 28.152881437986622 ], [ 77.584264890894843, 28.15288527900038 ], [ 77.584260557376567, 28.152704921430367 ], [ 77.584057065292342, 28.152708762113438 ], [ 77.584061398470311, 28.152889119712373 ], [ 77.583857906005761, 28.152892960122607 ], [ 77.583862238883441, 28.1530733177451 ], [ 77.583658746038566, 28.1530771578825 ], [ 77.583671743890662, 28.153618230804579 ], [ 77.583468249984847, 28.153622070726978 ], [ 77.583472582341898, 28.153802428385866 ], [ 77.583269088055758, 28.153806268035417 ] ] ] } },
{ "type": "Feature", "properties": { "lat": 28.150322560844355, "lon": 77.620806668186148, "area": 59949.908642803901, "perimeter": 2239.0653195155155, "anomaly_score": null, "change_score": 0.87901955842971802, "confidence": 0.88931387934205308, "timestamp": "2022-03-30T05:41:00Z", "source_scene": "S2B_MSIL2A_20220330T052639_N0510_R105_T43RGM_20240522T115955.SAFE_stack", "class": "UNKNOWN", "roi_id": "S2B_MSIL2A_20220330T052639_N0510_R105_T43RGM_20240522T115955.SAFE_stack:change:0089", "source_branch": "change", "target_profile": "landcover", "linked_roi_ids": [ ], "confidence_components": [ "c_change", "c_clear", "c_shape" ], "georef": "real" }, "geometry": { "type": "Polygon", "coordinates": [ [ [ 77.617619547752824, 28.151529908383843 ], [ 77.617615158590084, 28.151349555567066 ], [ 77.617411674471214, 28.151353445618078 ], [ 77.617402896947809, 28.150992739909807 ], [ 77.617606380386192, 28.150988849917393 ], [ 77.61760199134504, 28.150808497084487 ], [ 77.617805474402658, 28.150804606819676 ], [ 77.617801085061799, 28.15062425401069 ], [ 77.618004567738652, 28.150620363473472 ], [ 77.6180001780981, 28.15044001068841 ], [ 77.618203660394173, 28.150436119878798 ], [ 77.618199270453928, 28.150255767117667 ], [ 77.618402752369249, 28.150251876035657 ], [ 77.618398362129298, 28.15007152329845 ], [ 77.618601843663868, 28.150067631944058 ], [ 77.618597453124238, 28.149887279230782 ], [ 77.619004415391288, 28.149879495675545 ], [ 77.619008806611362, 28.150059848330191 ], [ 77.619212288024301, 28.150055956070712 ], [ 77.61921667962514, 28.150236308690669 ], [ 77.619420161337729, 28.150232416100177 ], [ 77.619424553319362, 28.150412768685435 ], [ 77.619831517303354, 28.150404982540731 ], [ 77.619827124641276, 28.150224630014119 ], [ 77.620437569292363, 28.150212948622311 ], [ 77.620433175650177, 28.15003259617831 ], [ 77.620636656779183, 28.150028701806981 ], [ 77.620632262837361, 28.149848349386925 ], [ 77.620835743585573, 28.149844454743246 ], [ 77.620831349344115, 28.149664102347149 ], [ 77.621034829711533, 28.149660207431111 ], [ 77.621030435170425, 28.149479855058971 ], [ 77.621233915157049, 28.149475959870589 ], [ 77.621229520316305, 28.149295607522404 ], [ 77.621432999922149, 28.149291712061675 ], [ 77.621428604781798, 28.149111359737454 ], [ 77.621632084006862, 28.149107464004381 ], [ 77.621627688566875, 28.148927111704129 ], [ 77.621831167411131, 28.14892321569873 ], [ 77.621835563191325, 28.14910356796964 ], [ 77.622039042335189, 28.149099671633216 ], [ 77.622047834697725, 28.149460376100208 ], [ 77.622251314481431, 28.149456479403412 ], [ 77.622255711063801, 28.14963683159948 ], [ 77.622459191147115, 28.149632934571642 ], [ 77.622463588110278, 28.149813286732982 ], [ 77.622667068493215, 28.149809389374106 ], [ 77.622662671189815, 28.149629037242114 ], [ 77.622866151191914, 28.149625139610905 ], [ 77.622861753588921, 28.149444787502894 ], [ 77.623065233210198, 28.149440889599362 ], [ 77.623069631153413, 28.149621241678009 ], [ 77.623273111074298, 28.149617343443431 ], [ 77.623277509398321, 28.149797695487337 ], [ 77.623074029137229, 28.149801593751278 ], [ 77.623078427161659, 28.149981945819164 ], [ 77.622874946519744, 28.149985843810786 ], [ 77.622879344244552, 28.150166195902653 ], [ 77.622675863221815, 28.150170093621931 ], [ 77.622680260647016, 28.150350445737772 ], [ 77.622883742009989, 28.150346547989134 ], [ 77.622892537662665, 28.15070725214596 ], [ 77.622689055619247, 28.150711149953317 ], [ 77.622693453166278, 28.150891502053014 ], [ 77.622286488277155, 28.15089929682134 ], [ 77.622290885184313, 28.151079648974363 ], [ 77.62188391945233, 28.151087442594584 ], [ 77.621888315719602, 28.151267794800923 ], [ 77.621684832452473, 28.151271691187823 ], [ 77.621680436525438, 28.151091338952135 ], [ 77.621476953557959, 28.151095235007979 ], [ 77.621472558011746, 28.150914882737563 ], [ 77.621269075343918, 28.150918778462362 ], [ 77.621264680178513, 28.150738426157222 ], [ 77.621061197810334, 28.150742321550979 ], [ 77.621065592635489, 28.150922673885457 ], [ 77.620862109886502, 28.150926569006856 ], [ 77.620866504412007, 28.15110692136529 ], [ 77.620663021282212, 28.151110816214317 ], [ 77.620658627096944, 28.150930463826548 ], [ 77.620455144266785, 28.150934358344536 ], [ 77.620450750462325, 28.150754005922053 ], [ 77.620043785360792, 28.150761793994256 ], [ 77.620048178484794, 28.150942146475401 ], [ 77.619437729507567, 28.150953826408919 ], [ 77.619433337404274, 28.150773473839802 ], [ 77.619229854670976, 28.150777366518248 ], [ 77.619225462948478, 28.150597013914435 ], [ 77.618411532970754, 28.150612581493931 ], [ 77.618415923332321, 28.150792934214998 ], [ 77.618212440396306, 28.150796825384926 ], [ 77.618216830458167, 28.150977178129921 ], [ 77.618013347141385, 28.150981069027448 ], [ 77.618022126706251, 28.151341774559921 ], [ 77.617818642668425, 28.151345665214347 ], [ 77.617823032171415, 28.151526018001817 ], [ 77.617619547752824, 28.151529908383843 ] ] ] } },
{ "type": "Feature", "properties": { "lat": 28.145213829508069, "lon": 77.588489631466032, "area": 32773.932063492728, "perimeter": 2039.1891133230695, "anomaly_score": null, "change_score": 0.87160652875900269, "confidence": 0.88394874058879558, "timestamp": "2022-03-30T05:41:00Z", "source_scene": "S2B_MSIL2A_20220330T052639_N0510_R105_T43RGM_20240522T115955.SAFE_stack", "class": "UNKNOWN", "roi_id": "S2B_MSIL2A_20220330T052639_N0510_R105_T43RGM_20240522T115955.SAFE_stack:change:0115", "source_branch": "change", "target_profile": "landcover", "linked_roi_ids": [ ], "confidence_components": [ "c_change", "c_clear", "c_shape" ], "georef": "real" }, "geometry": { "type": "Polygon", "coordinates": [ [ [ 77.58900978301682, 28.147021588721547 ], [ 77.589005442613981, 28.146841231674774 ], [ 77.588801962378952, 28.146845078672584 ], [ 77.588797622356395, 28.146664721591478 ], [ 77.589001102251231, 28.14666087462264 ], [ 77.588996761928556, 28.146480517565141 ], [ 77.588793282373928, 28.146484364504992 ], [ 77.58878894243152, 28.146304007413157 ], [ 77.588585463176983, 28.146307854022357 ], [ 77.588581123614858, 28.146127496896181 ], [ 77.588784602529202, 28.146123650315946 ], [ 77.588780262666958, 28.145943293213378 ], [ 77.588983741201019, 28.145939446360465 ], [ 77.588975060916397, 28.145578732197183 ], [ 77.588771583062695, 28.145582578992144 ], [ 77.588767243320675, 28.145402221873479 ], [ 77.588563765767049, 28.145406068337799 ], [ 77.588559426405268, 28.145225711184793 ], [ 77.588355949151762, 28.145229557318487 ], [ 77.588360288173348, 28.145409914500462 ], [ 77.588156810539601, 28.145413760361464 ], [ 77.588161149261097, 28.145594117567047 ], [ 77.587957671247082, 28.145597963155357 ], [ 77.587962009668473, 28.14577832038454 ], [ 77.587758531274218, 28.145782165700151 ], [ 77.587754193193021, 28.145601808442002 ], [ 77.587550715098899, 28.14560565342698 ], [ 77.587546377397942, 28.145425296134494 ], [ 77.587139421769862, 28.145432985141543 ], [ 77.587143758790475, 28.145613342491941 ], [ 77.586940280576187, 28.145617186571929 ], [ 77.586935943895753, 28.145436829192569 ], [ 77.586732465981598, 28.145440672941934 ], [ 77.586723793421243, 28.145079958109203 ], [ 77.586927270655039, 28.145076114417755 ], [ 77.586922934094758, 28.144895757022297 ], [ 77.587533364535389, 28.14488422422486 ], [ 77.58753770211618, 28.145064581533436 ], [ 77.587741179189791, 28.145060736635347 ], [ 77.587745517150793, 28.1452410939096 ], [ 77.58794899452451, 28.145237248680886 ], [ 77.587953332865766, 28.145417605920802 ], [ 77.588156810539601, 28.145413760361464 ], [ 77.588152471858166, 28.145233403150513 ], [ 77.588355949151762, 28.145229557318487 ], [ 77.588351610170236, 28.14504920013114 ], [ 77.588555087083577, 28.145045354026422 ], [ 77.588550747801946, 28.144864996862694 ], [ 77.58834727122877, 28.144868842938429 ], [ 77.588342932327379, 28.144688485740367 ], [ 77.588139456054293, 28.144692331485484 ], [ 77.588135117533128, 28.144511974253078 ], [ 77.587931641560132, 28.144515819667578 ], [ 77.587922965318299, 28.144155105128739 ], [ 77.58771948998556, 28.144158950183648 ], [ 77.587715152264906, 28.143978592877218 ], [ 77.587511677232257, 28.143982437601522 ], [ 77.587507339891786, 28.143802080260762 ], [ 77.588321238421429, 28.143786699669544 ], [ 77.588329915863596, 28.144147414113963 ], [ 77.588533391076155, 28.14414356815411 ], [ 77.588537730197487, 28.144323925339304 ], [ 77.588741205710122, 28.144320079048835 ], [ 77.588745545211694, 28.144500436199692 ], [ 77.588949021024405, 28.144496589578594 ], [ 77.588953360906217, 28.1446769466951 ], [ 77.589156837019004, 28.144673099743375 ], [ 77.589161177281056, 28.14485345682554 ], [ 77.589568130066723, 28.144845761959175 ], [ 77.589572471049181, 28.145026118978006 ], [ 77.589775947722046, 28.145022271063354 ], [ 77.589780289084771, 28.145202628047841 ], [ 77.589576812071726, 28.145206475991476 ], [ 77.58958549423707, 28.145567190002321 ], [ 77.58978897193046, 28.14556334200071 ], [ 77.589793313413438, 28.145743698969092 ], [ 77.589589835379883, 28.145747546999694 ], [ 77.58959417656277, 28.145927903991709 ], [ 77.589390698148947, 28.145931751749625 ], [ 77.589395039031743, 28.146112108765255 ], [ 77.589191560237651, 28.14611595625049 ], [ 77.589195900820343, 28.146296313289739 ], [ 77.588992421645969, 28.146300160502282 ], [ 77.588996761928556, 28.146480517565141 ], [ 77.589200241443123, 28.146476670323619 ], [ 77.589204582105992, 28.146657027352134 ], [ 77.589408061920665, 28.146653179779953 ], [ 77.589412402963802, 28.146833536774125 ], [ 77.589208922808936, 28.146837384375289 ], [ 77.589213263551969, 28.147017741393082 ], [ 77.58900978301682, 28.147021588721547 ] ] ] } }
]
}
