{
"type": "FeatureCollection",
"name": "2022-03-30_to_2026-06-17_change_rois",
"crs": { "type": "name", "properties": { "name": "urn:ogc:def:crs:OGC:1.3:CRS84" } },
"features": [
{ "type": "Feature", "properties": { "lat": 28.192636347398935, "lon": 77.586866983628013, "area": 26778.787325182566, "perimeter": 1439.4301202137397, "anomaly_score": null, "change_score": 0.82835513353347778, "confidence": 0.86537896599736375, "timestamp": "2026-06-17T05:41:01Z", "source_scene": "S2B_MSIL2A_20260617T052649_N0512_R105_T43RGM_20260617T104156.SAFE_stack", "class": "UNKNOWN", "roi_id": "S2B_MSIL2A_20260617T052649_N0512_R105_T43RGM_20260617T104156.SAFE_stack:change:0011", "source_branch": "change", "target_profile": "landcover", "linked_roi_ids": [ ], "confidence_components": [ "c_change", "c_clear", "c_shape" ], "georef": "real" }, "geometry": { "type": "Polygon", "coordinates": [ [ [ 77.587692469546127, 28.193780117596422 ], [ 77.587688122844924, 28.193599761592164 ], [ 77.58748455391148, 28.19360361247135 ], [ 77.587480207591398, 28.193423256432741 ], [ 77.587276638958869, 28.193427106980682 ], [ 77.587272293019907, 28.193246750907733 ], [ 77.587068724688265, 28.193250601124433 ], [ 77.587064379130425, 28.193070245017143 ], [ 77.586657243028881, 28.193077944485815 ], [ 77.586652898193151, 28.192897588315219 ], [ 77.586245762613189, 28.192905286516908 ], [ 77.586250106766897, 28.193085642745427 ], [ 77.586046538575772, 28.193089491421841 ], [ 77.586042194763067, 28.192909135164356 ], [ 77.585838626872871, 28.192912983509547 ], [ 77.585834283441244, 28.19273262721774 ], [ 77.585427148222578, 28.192740322943422 ], [ 77.585431490972184, 28.192920679293131 ], [ 77.585227922961721, 28.192924526731534 ], [ 77.585223580553105, 28.192744170352871 ], [ 77.585020012843572, 28.192748017460055 ], [ 77.585011328828614, 28.192387304628724 ], [ 77.585214895856154, 28.192383457579428 ], [ 77.585210553567777, 28.192203101184656 ], [ 77.585414120214253, 28.192199253862057 ], [ 77.585418462843606, 28.192379610227878 ], [ 77.585622029790997, 28.192375762574073 ], [ 77.585626372801428, 28.192556118905575 ], [ 77.58582994004972, 28.192552270920558 ], [ 77.585834283441244, 28.19273262721774 ], [ 77.586037850990451, 28.192728778901508 ], [ 77.586033507257937, 28.192548422633283 ], [ 77.586237074426052, 28.192544574043751 ], [ 77.586232730392624, 28.192364217799128 ], [ 77.586436297179645, 28.192360368936296 ], [ 77.586431952845302, 28.192180012715259 ], [ 77.586635519251246, 28.192176163579138 ], [ 77.58662683002089, 28.191815451178876 ], [ 77.586830395704766, 28.191811601798438 ], [ 77.586826050808753, 28.191631245619217 ], [ 77.587029616111522, 28.191627395965497 ], [ 77.58703396134851, 28.191807752115743 ], [ 77.58723752695218, 28.191803902130811 ], [ 77.58724187257026, 28.191984258246723 ], [ 77.587445438474788, 28.191980407930572 ], [ 77.587449784473975, 28.192160764012137 ], [ 77.587653350679375, 28.192156913364759 ], [ 77.587649004339198, 28.191976557312163 ], [ 77.587852570163506, 28.191972706391507 ], [ 77.587856916844672, 28.192153062415123 ], [ 77.588060482969851, 28.192149211163237 ], [ 77.58806483003211, 28.192329567152502 ], [ 77.587861263565955, 28.192333418433368 ], [ 77.587865610327356, 28.192513774446244 ], [ 77.587662043480066, 28.192517625453828 ], [ 77.587666389940594, 28.192697981490312 ], [ 77.587462822712197, 28.192701832224614 ], [ 77.587467168871825, 28.192882188284702 ], [ 77.587670736441225, 28.192878337521424 ], [ 77.587675082981974, 28.193058693547165 ], [ 77.587878650852247, 28.193054842452643 ], [ 77.587887344736117, 28.193415554430061 ], [ 77.588090913248308, 28.193411702975318 ], [ 77.58809526059143, 28.193592058926988 ], [ 77.587891691738236, 28.193595910410711 ], [ 77.587896038780457, 28.193776266385992 ], [ 77.587692469546127, 28.193780117596422 ] ] ] } },
{ "type": "Feature", "properties": { "lat": 28.190604515590849, "lon": 77.589282946379925, "area": 35571.715257019845, "perimeter": 1719.3162974317027, "anomaly_score": null, "change_score": 0.86445701122283936, "confidence": 0.88412872575553458, "timestamp": "2026-06-17T05:41:01Z", "source_scene": "S2B_MSIL2A_20260617T052649_N0512_R105_T43RGM_20260617T104156.SAFE_stack", "class": "UNKNOWN", "roi_id": "S2B_MSIL2A_20260617T052649_N0512_R105_T43RGM_20260617T104156.SAFE_stack:change:0017", "source_branch": "change", "target_profile": "landcover", "linked_roi_ids": [ ], "confidence_components": [ "c_change", "c_clear", "c_shape" ], "georef": "real" }, "geometry": { "type": "Polygon", "coordinates": [ [ [ 77.589680311066672, 28.191757678736344 ], [ 77.589675961396921, 28.191577322962885 ], [ 77.589472396615761, 28.191581176545778 ], [ 77.589468047327131, 28.191400820737947 ], [ 77.589264482846787, 28.191404673989606 ], [ 77.589260133939277, 28.191224318147409 ], [ 77.588853005540145, 28.191232023686016 ], [ 77.588857353765704, 28.19141237958619 ], [ 77.588653789164965, 28.191416231931125 ], [ 77.588649441280367, 28.191235876001958 ], [ 77.588445876980472, 28.191239728015663 ], [ 77.588441529476995, 28.191059372052134 ], [ 77.588237965477944, 28.191063223734616 ], [ 77.588233618355545, 28.190882867736743 ], [ 77.588030054657338, 28.190886719088009 ], [ 77.588025707916032, 28.190706363055778 ], [ 77.587822144518682, 28.190710214075825 ], [ 77.58781779815844, 28.190529858009238 ], [ 77.587614235061935, 28.190533708698084 ], [ 77.587609889082785, 28.19035335259716 ], [ 77.587813451838343, 28.190349501937291 ], [ 77.58780910555835, 28.190169145859976 ], [ 77.588012667932816, 28.19016529492686 ], [ 77.588003974811272, 28.18980458281407 ], [ 77.588207536463727, 28.189800731636691 ], [ 77.588203189622178, 28.189620375601219 ], [ 77.588406750893569, 28.189616524150601 ], [ 77.588402403751203, 28.189436168138744 ], [ 77.58860596464153, 28.189432316414891 ], [ 77.588601617198336, 28.189251960426649 ], [ 77.588805177707599, 28.189248108429574 ], [ 77.588809525491726, 28.189428464388829 ], [ 77.589013086301776, 28.189424612060542 ], [ 77.589017434466982, 28.189604967985439 ], [ 77.588813873315971, 28.189608820342709 ], [ 77.588826917029522, 28.190149888172144 ], [ 77.589030479203373, 28.190146035727903 ], [ 77.589034827529105, 28.19032639163132 ], [ 77.589238390003786, 28.19032253885586 ], [ 77.589247087457565, 28.190683250588595 ], [ 77.589450650574022, 28.190679397452918 ], [ 77.589454999702085, 28.190859753282233 ], [ 77.589658563119372, 28.190855899815329 ], [ 77.58966291262854, 28.191036255610268 ], [ 77.589866476346643, 28.191032401812137 ], [ 77.589862126496513, 28.190852046046189 ], [ 77.590065689833494, 28.190848191974819 ], [ 77.590061339682535, 28.190667836232507 ], [ 77.59026490263841, 28.190663981887905 ], [ 77.590260552186649, 28.190483626169215 ], [ 77.590464114761417, 28.190479771551399 ], [ 77.590459764008841, 28.190299415856344 ], [ 77.590663326202488, 28.190295560965303 ], [ 77.590667677296025, 28.190475916631335 ], [ 77.590871239790474, 28.190472061409064 ], [ 77.59086688835599, 28.190291705772033 ], [ 77.591070450469317, 28.190287850276537 ], [ 77.591066098734046, 28.190107494663145 ], [ 77.591473222158299, 28.190099782823516 ], [ 77.591477574575464, 28.190280138378871 ], [ 77.591681136568297, 28.190276281976704 ], [ 77.591685489366597, 28.190456637497675 ], [ 77.591481927032831, 28.190460493928857 ], [ 77.591486279530329, 28.190640849473478 ], [ 77.591079154060353, 28.190648561487208 ], [ 77.591083505916117, 28.190828917084485 ], [ 77.590879942779921, 28.190832772667015 ], [ 77.590875591265103, 28.190652417040724 ], [ 77.590672028429694, 28.190656272292014 ], [ 77.590676379603551, 28.190836627947316 ], [ 77.59047281638702, 28.190840482925381 ], [ 77.590477167260048, 28.191020838604313 ], [ 77.590273603662396, 28.191024693309153 ], [ 77.590282304847008, 28.191385404708928 ], [ 77.590078740527261, 28.19138925916954 ], [ 77.590083090838817, 28.191569614890373 ], [ 77.589879526137949, 28.191573469077756 ], [ 77.589883876148676, 28.191753824822211 ], [ 77.589680311066672, 28.191757678736344 ] ] ] } },
{ "type": "Feature", "properties": { "lat": 28.181799069445919, "lon": 77.624080542164066, "area": 20382.906602673469, "perimeter": 959.5977261924487, "anomaly_score": null, "change_score": 0.91347849369049072, "confidence": 0.92810244109016127, "timestamp": "2026-06-17T05:41:01Z", "source_scene": "S2B_MSIL2A_20260617T052649_N0512_R105_T43RGM_20260617T104156.SAFE_stack", "class": "UNKNOWN", "roi_id": "S2B_MSIL2A_20260617T052649_N0512_R105_T43RGM_20260617T104156.SAFE_stack:change:0035", "source_branch": "change", "target_profile": "landcover", "linked_roi_ids": [ ], "confidence_components": [ "c_change", "c_clear", "c_shape" ], "georef": "real" }, "geometry": { "type": "Polygon", "coordinates": [ [ [ 77.623472458921597, 28.1828137389038 ], [ 77.623468054182808, 28.182633387757001 ], [ 77.62326451182895, 28.182637290460075 ], [ 77.623260107471609, 28.182456939278516 ], [ 77.623056565417883, 28.182460841650123 ], [ 77.623052161441976, 28.182280490433808 ], [ 77.622848619688398, 28.182284392473946 ], [ 77.62284421609391, 28.182104041222882 ], [ 77.62304775750674, 28.18210013921211 ], [ 77.623043353612132, 28.181919787985031 ], [ 77.623246894643529, 28.181915885701546 ], [ 77.623242490448803, 28.18173553449844 ], [ 77.623853112276734, 28.181723825923537 ], [ 77.623848707100365, 28.181543474803178 ], [ 77.624052247287594, 28.18153957137007 ], [ 77.624047841811119, 28.181359220273706 ], [ 77.624251381616901, 28.181355316567895 ], [ 77.624242570104428, 28.180994614417763 ], [ 77.624446109188042, 28.180990710468645 ], [ 77.624441703152044, 28.180810359414878 ], [ 77.624848780515748, 28.180802550669167 ], [ 77.624853187233256, 28.180982901664155 ], [ 77.625056726194856, 28.1809789968088 ], [ 77.625061133293784, 28.181159347769015 ], [ 77.62526467255546, 28.181155442582181 ], [ 77.625273487556882, 28.181516144427668 ], [ 77.625069947613696, 28.181520049673285 ], [ 77.625074354834666, 28.181700400617334 ], [ 77.624463733738722, 28.181712114629839 ], [ 77.624468139978077, 28.181892465656667 ], [ 77.624264599190639, 28.18189636975271 ], [ 77.624269005129875, 28.182076720803536 ], [ 77.624065463961003, 28.182080624626867 ], [ 77.624069869600149, 28.182260975701695 ], [ 77.623866328049843, 28.182264879252305 ], [ 77.62387073338887, 28.182445230351124 ], [ 77.624074275279952, 28.18244132677113 ], [ 77.624078681000427, 28.182621677835183 ], [ 77.623875138768554, 28.182625581444558 ], [ 77.623879544188895, 28.182805932532602 ], [ 77.623472458921597, 28.1828137389038 ] ] ] } },
{ "type": "Feature", "properties": { "lat": 28.176857874254488, "lon": 77.617473476248691, "area": 27577.108131012679, "perimeter": 1159.518629070061, "anomaly_score": null, "change_score": 0.89156913757324219, "confidence": 0.91028024673045538, "timestamp": "2026-06-17T05:41:01Z", "source_scene": "S2B_MSIL2A_20260617T052649_N0512_R105_T43RGM_20260617T104156.SAFE_stack", "class": "UNKNOWN", "roi_id": "S2B_MSIL2A_20260617T052649_N0512_R105_T43RGM_20260617T104156.SAFE_stack:change:0046", "source_branch": "change", "target_profile": "landcover", "linked_roi_ids": [ ], "confidence_components": [ "c_change", "c_clear", "c_shape" ], "georef": "real" }, "geometry": { "type": "Polygon", "coordinates": [ [ [ 77.616017531146767, 28.177723830879469 ], [ 77.616013139852143, 28.177543478520608 ], [ 77.615809605918486, 28.177547369498516 ], [ 77.615800824132279, 28.177186664706081 ], [ 77.61600435738454, 28.17718277378675 ], [ 77.615999966211518, 28.17700242141175 ], [ 77.616203499082545, 28.176998530219674 ], [ 77.61619910760939, 28.176818177868572 ], [ 77.616809704957149, 28.176806502568006 ], [ 77.616814097452377, 28.176986854831213 ], [ 77.617017630161229, 28.176982962430994 ], [ 77.617013237325295, 28.176802610197079 ], [ 77.617216769652913, 28.176798717524125 ], [ 77.617212376516832, 28.176618365314134 ], [ 77.617415908463215, 28.176614472368453 ], [ 77.617407121631345, 28.176253767990925 ], [ 77.617610652855788, 28.176249874801819 ], [ 77.617606259160013, 28.17606952263429 ], [ 77.618827443610783, 28.176046157333019 ], [ 77.618831839350634, 28.176226509324675 ], [ 77.619035370291101, 28.176222614021395 ], [ 77.619044162573886, 28.176583317929911 ], [ 77.61884063095205, 28.176587213291828 ], [ 77.618849422715783, 28.176947917237449 ], [ 77.618645890371994, 28.176951812355977 ], [ 77.618650285974027, 28.177132164350041 ], [ 77.618446753248961, 28.177136059195853 ], [ 77.618442357987632, 28.176955707172475 ], [ 77.618035293097179, 28.176963495899361 ], [ 77.618030898557791, 28.176783143811985 ], [ 77.617827366392405, 28.176787037693067 ], [ 77.617831760591102, 28.176967389809761 ], [ 77.617628228044481, 28.176971283418116 ], [ 77.617632621943045, 28.177151635558744 ], [ 77.617429089015175, 28.177155528894374 ], [ 77.617433482613592, 28.177335881058923 ], [ 77.617229949304459, 28.177339774121819 ], [ 77.617234342602742, 28.177520126310277 ], [ 77.617030808912347, 28.177524019100439 ], [ 77.617035201910497, 28.177704371312817 ], [ 77.616831667838838, 28.177708263830233 ], [ 77.616827275181393, 28.177527911588555 ], [ 77.616623741409896, 28.177531803774631 ], [ 77.616628133726635, 28.177712156045612 ], [ 77.616017531146767, 28.177723830879469 ] ] ] } },
{ "type": "Feature", "properties": { "lat": 28.175644632231176, "lon": 77.598754925380049, "area": 145482.50558295869, "perimeter": 2558.9674606193621, "anomaly_score": null, "change_score": 0.93049740791320801, "confidence": 0.9430210158875636, "timestamp": "2026-06-17T05:41:01Z", "source_scene": "S2B_MSIL2A_20260617T052649_N0512_R105_T43RGM_20260617T104156.SAFE_stack", "class": "UNKNOWN", "roi_id": "S2B_MSIL2A_20260617T052649_N0512_R105_T43RGM_20260617T104156.SAFE_stack:change:0047", "source_branch": "change", "target_profile": "landcover", "linked_roi_ids": [ ], "confidence_components": [ "c_change", "c_clear", "c_shape" ], "georef": "real" }, "geometry": { "type": "Polygon", "coordinates": [ [ [ 77.59667723561256, 28.177911772768024 ], [ 77.596672876726572, 28.177731417631584 ], [ 77.596469339297101, 28.177735279885319 ], [ 77.596456263902724, 28.177194214356547 ], [ 77.596252727455195, 28.177198076221014 ], [ 77.596248369411583, 28.177017721004948 ], [ 77.596451905518407, 28.177013859169552 ], [ 77.596443188870452, 28.176653148779423 ], [ 77.596646724255606, 28.176649286700123 ], [ 77.596642365651277, 28.176468931526067 ], [ 77.596845900655495, 28.176465069173794 ], [ 77.596850259600529, 28.176645424318764 ], [ 77.597257330169654, 28.176637698649913 ], [ 77.597252970543195, 28.176457343563087 ], [ 77.597456505426692, 28.176453480304673 ], [ 77.597452145499773, 28.176273125241558 ], [ 77.597655680002305, 28.176269261710178 ], [ 77.59765131977494, 28.176088906670778 ], [ 77.597854853896521, 28.17608504286644 ], [ 77.597850493368696, 28.175904687850746 ], [ 77.597646959587806, 28.175908551626005 ], [ 77.597620799310292, 28.174826421244518 ], [ 77.597824331047065, 28.174822557643768 ], [ 77.597819970801027, 28.174642202590469 ], [ 77.597616439404916, 28.174646066162129 ], [ 77.597612079539772, 28.174465711074372 ], [ 77.597408548444108, 28.174469574314937 ], [ 77.597404188959899, 28.174289219192719 ], [ 77.597607719714887, 28.174285355981244 ], [ 77.597603359930247, 28.17410500088274 ], [ 77.598010420638175, 28.174097273611896 ], [ 77.598006060212469, 28.173916918566192 ], [ 77.598209590165396, 28.173913054506844 ], [ 77.598205229439259, 28.173732699484852 ], [ 77.598408759011264, 28.173728835152581 ], [ 77.598404397984751, 28.173548480154302 ], [ 77.598200868753395, 28.173552344457491 ], [ 77.598196508107776, 28.173371989424751 ], [ 77.597992979176823, 28.173375853396838 ], [ 77.597988618912112, 28.17319549832964 ], [ 77.598192147502417, 28.173191634386637 ], [ 77.598183426412461, 28.172830924294306 ], [ 77.598386954281224, 28.172827060107483 ], [ 77.598382593455995, 28.172646705082343 ], [ 77.59858612094385, 28.172642840622608 ], [ 77.598581759818231, 28.172462485621189 ], [ 77.598785286925207, 28.172458620888563 ], [ 77.59878964839146, 28.172638975860885 ], [ 77.599400230492691, 28.172627379763728 ], [ 77.59940459302112, 28.172807734643388 ], [ 77.599608120648284, 28.172803868644571 ], [ 77.59961684650726, 28.173164578329555 ], [ 77.599413318198799, 28.17316844438658 ], [ 77.599417680848049, 28.173348799250107 ], [ 77.599621209497158, 28.173344933163985 ], [ 77.59962557252733, 28.173525287993044 ], [ 77.599829101476814, 28.173521421575813 ], [ 77.599833464887922, 28.17370177637039 ], [ 77.600036994137767, 28.173697909622042 ], [ 77.600041357929825, 28.173878264382136 ], [ 77.600244887480045, 28.173874397302665 ], [ 77.600249251653025, 28.17405475202828 ], [ 77.600045721762143, 28.174058619136858 ], [ 77.600050085634763, 28.174238973886208 ], [ 77.59984655536293, 28.174242840721885 ], [ 77.599850918935161, 28.174423195494963 ], [ 77.600054449547656, 28.174419328630183 ], [ 77.600058813500851, 28.174599683368779 ], [ 77.600262344413736, 28.174595816172868 ], [ 77.600266708747867, 28.174776170876989 ], [ 77.60006317749432, 28.174780038102011 ], [ 77.600067541528063, 28.174960392829863 ], [ 77.6002710731223, 28.17495652557573 ], [ 77.600284166487313, 28.175497589639708 ], [ 77.600487699063294, 28.175493721996208 ], [ 77.600500793812998, 28.176034785924482 ], [ 77.600297260214958, 28.176038653655322 ], [ 77.600314719082533, 28.176760072267573 ], [ 77.600518254043394, 28.176756204420276 ], [ 77.600522619201726, 28.176936559030789 ], [ 77.600726154463004, 28.176932690852325 ], [ 77.600734885581986, 28.177293399998984 ], [ 77.600531349639283, 28.177297268235684 ], [ 77.600535714918507, 28.177477622830075 ], [ 77.599518032897024, 28.177496959628314 ], [ 77.599522396512938, 28.177677314362874 ], [ 77.597690563270334, 28.177712101831982 ], [ 77.597694923859962, 28.17789245682302 ], [ 77.597491386290983, 28.177896320616149 ], [ 77.597487026042074, 28.177715965596025 ], [ 77.597079951464806, 28.177723692217924 ], [ 77.597084311032262, 28.177904047296217 ], [ 77.59667723561256, 28.177911772768024 ] ] ] } },
{ "type": "Feature", "properties": { "lat": 28.173247608779423, "lon": 77.622855134925828, "area": 36369.547234546138, "perimeter": 959.59834756295982, "anomaly_score": null, "change_score": 0.93044674396514893, "confidence": 0.9515567585817728, "timestamp": "2026-06-17T05:41:01Z", "source_scene": "S2B_MSIL2A_20260617T052649_N0512_R105_T43RGM_20260617T104156.SAFE_stack", "class": "UNKNOWN", "roi_id": "S2B_MSIL2A_20260617T052649_N0512_R105_T43RGM_20260617T104156.SAFE_stack:change:0054", "source_branch": "change", "target_profile": "landcover", "linked_roi_ids": [ ], "confidence_components": [ "c_change", "c_clear", "c_shape" ], "georef": "real" }, "geometry": { "type": "Polygon", "coordinates": [ [ [ 77.622243445207772, 28.174176381376057 ], [ 77.622239044123376, 28.173996029823947 ], [ 77.622035517920423, 28.173999929607294 ], [ 77.622031117217304, 28.173819578020442 ], [ 77.621827591314371, 28.173823477472443 ], [ 77.621809990270606, 28.173102070953782 ], [ 77.621606465689567, 28.173105969986381 ], [ 77.621597666092626, 28.172745266636042 ], [ 77.621801189992439, 28.172741367662141 ], [ 77.621796789914285, 28.172561016008252 ], [ 77.622000313432864, 28.172557116761734 ], [ 77.621995913054718, 28.172376765131808 ], [ 77.622199436192076, 28.172372865612669 ], [ 77.622203836910813, 28.172553217213235 ], [ 77.623017930416381, 28.172537615999506 ], [ 77.623013528335179, 28.172357264516389 ], [ 77.623624097015849, 28.172345560523475 ], [ 77.623628500118855, 28.172525911918484 ], [ 77.623832023271731, 28.1725220099542 ], [ 77.623849637452707, 28.173243415362915 ], [ 77.624053161927378, 28.173239512979148 ], [ 77.624066374011832, 28.173780566891015 ], [ 77.623862848515287, 28.173784469362904 ], [ 77.623867252284114, 28.173964820685466 ], [ 77.623053148528868, 28.173980427670646 ], [ 77.623057550975801, 28.1741607791053 ], [ 77.622854024594744, 28.17416468012598 ], [ 77.622849622488445, 28.173984328661959 ], [ 77.622646096407394, 28.173988229351281 ], [ 77.622650498173059, 28.174168580844672 ], [ 77.622243445207772, 28.174176381376057 ] ] ] } },
{ "type": "Feature", "properties": { "lat": 28.15940613812462, "lon": 77.629486959085554, "area": 63146.57690183739, "perimeter": 1919.1880160486701, "anomaly_score": null, "change_score": 0.89564996957778931, "confidence": 0.91228185397130901, "timestamp": "2026-06-17T05:41:01Z", "source_scene": "S2B_MSIL2A_20260617T052649_N0512_R105_T43RGM_20260617T104156.SAFE_stack", "class": "UNKNOWN", "roi_id": "S2B_MSIL2A_20260617T052649_N0512_R105_T43RGM_20260617T104156.SAFE_stack:change:0063", "source_branch": "change", "target_profile": "landcover", "linked_roi_ids": [ ], "confidence_components": [ "c_change", "c_clear", "c_shape" ], "georef": "real" }, "geometry": { "type": "Polygon", "coordinates": [ [ [ 77.629465038967723, 28.161407330492828 ], [ 77.629460628131284, 28.161226979651424 ], [ 77.629257127269724, 28.161230888547749 ], [ 77.629252716814406, 28.161050537671535 ], [ 77.629049216252525, 28.161054446236612 ], [ 77.629044806178342, 28.160874095325575 ], [ 77.628637805613238, 28.160881911491401 ], [ 77.628633396260554, 28.16070156051612 ], [ 77.62842989625733, 28.160705468116873 ], [ 77.628425487285753, 28.160525117106776 ], [ 77.628018487838006, 28.160532931343983 ], [ 77.628014079587928, 28.160352580269667 ], [ 77.62781058014339, 28.160356486906124 ], [ 77.627792948911591, 28.15963508243734 ], [ 77.627996446994587, 28.159631175918548 ], [ 77.627992038948008, 28.159450824817309 ], [ 77.62819553664994, 28.159446918026131 ], [ 77.628191128303669, 28.159266566948922 ], [ 77.628394625624509, 28.159262659885364 ], [ 77.628390216978588, 28.159082308832186 ], [ 77.62879721081741, 28.159074493858508 ], [ 77.628792801531461, 28.158894142858802 ], [ 77.628996298049444, 28.158890234948696 ], [ 77.62899188846383, 28.158709883973032 ], [ 77.629195384600735, 28.158705975790554 ], [ 77.629199794526713, 28.158886326736791 ], [ 77.629606787359094, 28.15887850940759 ], [ 77.629602376752402, 28.15869815852022 ], [ 77.62980587276715, 28.158694249432362 ], [ 77.629801461860808, 28.158513898569048 ], [ 77.630004957494464, 28.158509989208834 ], [ 77.6300005462885, 28.158329638369572 ], [ 77.630204041541077, 28.158325728737015 ], [ 77.630199630035477, 28.158145377921805 ], [ 77.630403124906977, 28.158141468016897 ], [ 77.630398713101755, 28.157961117225753 ], [ 77.63019521857062, 28.157965027101209 ], [ 77.630190807146477, 28.157784676275231 ], [ 77.629987312914949, 28.157788585819468 ], [ 77.62998290187187, 28.157608234958662 ], [ 77.629779407939964, 28.157612144171679 ], [ 77.629770586656676, 28.157251442375031 ], [ 77.629974079907925, 28.157247533220897 ], [ 77.629969668987044, 28.15706718234393 ], [ 77.630173161857215, 28.157063272917455 ], [ 77.630177573118445, 28.157243623764984 ], [ 77.630991545553172, 28.157227982923576 ], [ 77.630995958216474, 28.157408333647929 ], [ 77.631199451563646, 28.157404422653688 ], [ 77.631203864608025, 28.157584773343199 ], [ 77.631000370920503, 28.157588684366889 ], [ 77.63100478366529, 28.157769035080463 ], [ 77.63080128959669, 28.15777294583183 ], [ 77.630805702041854, 28.157953296569474 ], [ 77.630602207592176, 28.157957207048504 ], [ 77.630606619737748, 28.15813755781021 ], [ 77.630810114527776, 28.158133647301732 ], [ 77.630814527054426, 28.158313998028596 ], [ 77.631018022144076, 28.158310087188894 ], [ 77.631022435051818, 28.158490437880918 ], [ 77.630818939621832, 28.158494348750089 ], [ 77.630827764878845, 28.158855050176893 ], [ 77.630624268727388, 28.158858960803169 ], [ 77.630628681076644, 28.159039311537938 ], [ 77.63042518454408, 28.15904322189186 ], [ 77.630434008684063, 28.159403923404142 ], [ 77.630230511430042, 28.159407833515157 ], [ 77.630234923220755, 28.159588184292659 ], [ 77.630031425585628, 28.159592094131316 ], [ 77.630040248608495, 28.159952795729055 ], [ 77.629836750251883, 28.159956705324777 ], [ 77.629854395424857, 28.160678108573382 ], [ 77.63005789514304, 28.160674198859894 ], [ 77.630066718654703, 28.161034900393002 ], [ 77.629863218255721, 28.161038810165369 ], [ 77.629867629732232, 28.161219160953284 ], [ 77.629664128952129, 28.161223070453268 ], [ 77.629668540128975, 28.161403421265231 ], [ 77.629465038967723, 28.161407330492828 ] ] ] } },
{ "type": "Feature", "properties": { "lat": 28.159128601297351, "lon": 77.633638672281904, "area": 105110.51649266148, "perimeter": 2638.8770549699784, "anomaly_score": null, "change_score": 0.8723105788230896, "confidence": 0.89886364562762311, "timestamp": "2026-06-17T05:41:01Z", "source_scene": "S2B_MSIL2A_20260617T052649_N0512_R105_T43RGM_20260617T104156.SAFE_stack", "class": "UNKNOWN", "roi_id": "S2B_MSIL2A_20260617T052649_N0512_R105_T43RGM_20260617T104156.SAFE_stack:change:0064", "source_branch": "change", "target_profile": "landcover", "linked_roi_ids": [ ], "confidence_components": [ "c_change", "c_clear", "c_shape" ], "georef": "real" }, "geometry": { "type": "Polygon", "coordinates": [ [ [ 77.631495634506621, 28.161187874087723 ], [ 77.631491220306899, 28.161007523535396 ], [ 77.631084220038559, 28.161015347003818 ], [ 77.631079806560365, 28.160834996387198 ], [ 77.630876306705474, 28.160838907639228 ], [ 77.630867480552126, 28.160478206330914 ], [ 77.631070979726232, 28.160474295137792 ], [ 77.631066566370293, 28.160293944505003 ], [ 77.631473563915463, 28.160286121272222 ], [ 77.631469149919496, 28.160105770692965 ], [ 77.631672648290575, 28.160101858653313 ], [ 77.631668233994972, 28.159921508098122 ], [ 77.631871731984916, 28.15991759578613 ], [ 77.631862902835223, 28.159556894718502 ], [ 77.631659405526037, 28.159560806971587 ], [ 77.63165499135269, 28.159380456400235 ], [ 77.631858488321512, 28.15937654417662 ], [ 77.631854073848558, 28.159196193629342 ], [ 77.632057570436245, 28.159192281133386 ], [ 77.632053155663698, 28.159011930610188 ], [ 77.63225665187025, 28.159008017841892 ], [ 77.632252236798095, 28.15882766734277 ], [ 77.632455732623527, 28.158823754302148 ], [ 77.632451317251764, 28.158643403827107 ], [ 77.632247821766697, 28.158647316838262 ], [ 77.632243406776055, 28.158466966328362 ], [ 77.632039911590567, 28.158470879008259 ], [ 77.632035496981061, 28.158290528463514 ], [ 77.631832002095166, 28.158294440812163 ], [ 77.631827587866766, 28.158114090232569 ], [ 77.632031082412297, 28.158110177913379 ], [ 77.632026667884304, 28.157929827357862 ], [ 77.632230162048728, 28.157925914766352 ], [ 77.632225747221142, 28.157745564234904 ], [ 77.632632734747048, 28.157737738205483 ], [ 77.63263715025532, 28.157918088677995 ], [ 77.63284064429746, 28.157914175181144 ], [ 77.632845060186838, 28.158094525618793 ], [ 77.63325204882949, 28.158086697660803 ], [ 77.633256465440354, 28.158267048034116 ], [ 77.633459960040852, 28.158263133572976 ], [ 77.633464377032851, 28.158443483911416 ], [ 77.633667871932929, 28.158439569119007 ], [ 77.633672289306048, 28.158619919422591 ], [ 77.63387578450569, 28.15861600429891 ], [ 77.633880202259945, 28.158796354567624 ], [ 77.634083697759181, 28.15879243911267 ], [ 77.634088115894585, 28.158972789346507 ], [ 77.634291611693357, 28.158968873560273 ], [ 77.634287193217602, 28.158788523355923 ], [ 77.634490688635225, 28.158784607297381 ], [ 77.634486269859892, 28.158604257117126 ], [ 77.634689764896379, 28.15860034078629 ], [ 77.634685345821495, 28.15841999063014 ], [ 77.634888840476819, 28.158416074027013 ], [ 77.634880001768764, 28.158055373757541 ], [ 77.634676507794126, 28.158059290301683 ], [ 77.63467208884164, 28.157878940129372 ], [ 77.634468595166553, 28.157882856342241 ], [ 77.634459758064665, 28.157522155922468 ], [ 77.63425626502945, 28.15752607177458 ], [ 77.634251846880034, 28.157345721527125 ], [ 77.634455339574913, 28.157341805704501 ], [ 77.634450921125946, 28.157161455481145 ], [ 77.635061397944781, 28.157149706291111 ], [ 77.635056978515649, 28.156969356150842 ], [ 77.63526047036666, 28.156965439180123 ], [ 77.635264890136128, 28.157145789290897 ], [ 77.63546838228666, 28.157141871988905 ], [ 77.635463962176871, 28.15696152190764 ], [ 77.635870945674839, 28.156953686457367 ], [ 77.635875366465299, 28.157134036479626 ], [ 77.636078858493391, 28.157130118272335 ], [ 77.636092122130634, 28.157671168218268 ], [ 77.635888629081549, 28.157675086514079 ], [ 77.635897471029807, 28.158035786510109 ], [ 77.635693977259209, 28.158039704563155 ], [ 77.635698397954229, 28.158220054582589 ], [ 77.635494903802481, 28.158223972363359 ], [ 77.635503744634264, 28.158584672445066 ], [ 77.635707239466697, 28.158580754605296 ], [ 77.635716081142434, 28.158941454606445 ], [ 77.635512585629286, 28.158945372505226 ], [ 77.635525847427914, 28.159486422555048 ], [ 77.63532235085286, 28.159490340240538 ], [ 77.635335611997704, 28.160031390330374 ], [ 77.635132114360715, 28.160035307802559 ], [ 77.635136534483578, 28.160215657851218 ], [ 77.634526040306611, 28.160227408545438 ], [ 77.634521621204897, 28.160047058408292 ], [ 77.634114625563669, 28.16005489063641 ], [ 77.634119043984626, 28.160235240832542 ], [ 77.633305050851163, 28.16025090178503 ], [ 77.633309467951364, 28.160431252093694 ], [ 77.632698971651891, 28.160442994727479 ], [ 77.632703387771713, 28.160623345119184 ], [ 77.632296389354096, 28.160631172091577 ], [ 77.632300804833903, 28.160811522536836 ], [ 77.632097305223553, 28.160815435599776 ], [ 77.632101720403739, 28.160995786069105 ], [ 77.63169472037994, 28.161003611348448 ], [ 77.631699134920083, 28.161183961871316 ], [ 77.631495634506621, 28.161187874087723 ] ] ] } },
{ "type": "Feature", "properties": { "lat": 28.157261416672657, "lon": 77.611529193163761, "area": 19983.539588019234, "perimeter": 1119.5390495419058, "anomaly_score": null, "change_score": 0.83503532409667969, "confidence": 0.87149856577471074, "timestamp": "2026-06-17T05:41:01Z", "source_scene": "S2B_MSIL2A_20260617T052649_N0512_R105_T43RGM_20260617T104156.SAFE_stack", "class": "UNKNOWN", "roi_id": "S2B_MSIL2A_20260617T052649_N0512_R105_T43RGM_20260617T104156.SAFE_stack:change:0070", "source_branch": "change", "target_profile": "landcover", "linked_roi_ids": [ ], "confidence_components": [ "c_change", "c_clear", "c_shape" ], "georef": "real" }, "geometry": { "type": "Polygon", "coordinates": [ [ [ 77.611075310197421, 28.158691915049623 ], [ 77.611070930686239, 28.158511561476864 ], [ 77.610867431959321, 28.158515442711085 ], [ 77.610863052828961, 28.158335089103719 ], [ 77.611066551215487, 28.158331207898723 ], [ 77.611062171785193, 28.158150854315206 ], [ 77.61126566979091, 28.158146972837631 ], [ 77.611261290060668, 28.157966619277978 ], [ 77.611464787685563, 28.157962737527836 ], [ 77.6114604076554, 28.157782383992028 ], [ 77.611663904899501, 28.157778501969325 ], [ 77.611659524569404, 28.157598148457375 ], [ 77.611456027665668, 28.157602030450843 ], [ 77.611447267807534, 28.157241323352348 ], [ 77.611243771544068, 28.157245204985564 ], [ 77.611235012528383, 28.156884497807088 ], [ 77.6110315169052, 28.156888379080055 ], [ 77.611022758731963, 28.156527671821625 ], [ 77.610819263749022, 28.156531552734346 ], [ 77.610814885063391, 28.156351199067842 ], [ 77.61061139038037, 28.156355079649558 ], [ 77.610607012075519, 28.156174725948443 ], [ 77.610810506418204, 28.156170845395952 ], [ 77.610806127813433, 28.155990491718693 ], [ 77.611009621775338, 28.155986610893645 ], [ 77.611014000720445, 28.156166964541676 ], [ 77.611420989203665, 28.156159201927803 ], [ 77.611425368869874, 28.156339555512009 ], [ 77.611628863391161, 28.15633567372317 ], [ 77.611633243438149, 28.156516027272751 ], [ 77.611836738259342, 28.156512145152906 ], [ 77.611845499155351, 28.156872852177475 ], [ 77.612048994616771, 28.156868969697367 ], [ 77.61205775635527, 28.157229676641961 ], [ 77.612261252456946, 28.15722579380159 ], [ 77.612265633727233, 28.157406147236568 ], [ 77.612469130128815, 28.157402264065158 ], [ 77.61247351177991, 28.157582617465529 ], [ 77.61227001503795, 28.157586500666181 ], [ 77.612274396389154, 28.157766854090418 ], [ 77.612070899266385, 28.157770737018517 ], [ 77.61207528031764, 28.157951090466611 ], [ 77.611871782814077, 28.157954973122152 ], [ 77.611876163565427, 28.15813532659411 ], [ 77.611672665681027, 28.158139208977083 ], [ 77.611677046132456, 28.158319562472904 ], [ 77.611473547867234, 28.158323444583317 ], [ 77.611477928018743, 28.158503798102988 ], [ 77.611274429372699, 28.158507679940829 ], [ 77.61127880922426, 28.15868803348436 ], [ 77.611075310197421, 28.158691915049623 ] ] ] } },
{ "type": "Feature", "properties": { "lat": 28.150587058031814, "lon": 77.592852670724184, "area": 35571.515493996034, "perimeter": 1639.3438494820896, "anomaly_score": null, "change_score": 0.8587842583656311, "confidence": 0.884164965105947, "timestamp": "2026-06-17T05:41:01Z", "source_scene": "S2B_MSIL2A_20260617T052649_N0512_R105_T43RGM_20260617T104156.SAFE_stack", "class": "UNKNOWN", "roi_id": "S2B_MSIL2A_20260617T052649_N0512_R105_T43RGM_20260617T104156.SAFE_stack:change:0085", "source_branch": "change", "target_profile": "landcover", "linked_roi_ids": [ ], "confidence_components": [ "c_change", "c_clear", "c_shape" ], "georef": "real" }, "geometry": { "type": "Polygon", "coordinates": [ [ [ 77.591993226897458, 28.152558751874107 ], [ 77.591988880487833, 28.152378395399641 ], [ 77.591785390266679, 28.152382247520297 ], [ 77.59177669824841, 28.152021534497244 ], [ 77.591980187789005, 28.152017682434607 ], [ 77.591975841499789, 28.151837325944044 ], [ 77.59217933065996, 28.15183347360869 ], [ 77.592174984070596, 28.15165311714177 ], [ 77.592378472850342, 28.151649264533699 ], [ 77.59236543230223, 28.151108195187796 ], [ 77.592568920021037, 28.151104342365034 ], [ 77.59256457291167, 28.150923985934689 ], [ 77.592768060250066, 28.150920132839225 ], [ 77.592759365471224, 28.150559420020468 ], [ 77.592555878813371, 28.150563273057887 ], [ 77.592551531824441, 28.150382916611438 ], [ 77.592348045466693, 28.150386769318111 ], [ 77.592343698858144, 28.150206412837278 ], [ 77.59214021280053, 28.150210265213214 ], [ 77.592135866572363, 28.150029908697999 ], [ 77.592339352289741, 28.15002605635107 ], [ 77.59233065927333, 28.149665343362564 ], [ 77.592534144270076, 28.149661490771958 ], [ 77.592525450733717, 28.149300777820024 ], [ 77.592321966417472, 28.149304630352589 ], [ 77.592317620049741, 28.149124273839547 ], [ 77.592114136033572, 28.14912812604139 ], [ 77.592109790046223, 28.148947769493972 ], [ 77.592313273722141, 28.148943917321144 ], [ 77.592308927434686, 28.148763560797377 ], [ 77.592512410730251, 28.148759708351864 ], [ 77.592508064142692, 28.148579351851748 ], [ 77.592711547057888, 28.148575499133557 ], [ 77.592715893985655, 28.148755855604652 ], [ 77.592919377200943, 28.148752002555746 ], [ 77.592932419245813, 28.14929307184978 ], [ 77.593135903441663, 28.149289218412093 ], [ 77.593140251210485, 28.149469574803675 ], [ 77.593343735706398, 28.149465721035256 ], [ 77.593348083855616, 28.149646077392443 ], [ 77.593144599019439, 28.149649931189892 ], [ 77.593148946868553, 28.149830287570737 ], [ 77.592945461652008, 28.149834141095504 ], [ 77.592949809201031, 28.15001449750001 ], [ 77.593153294757826, 28.150010643946224 ], [ 77.593157642687245, 28.150191000316337 ], [ 77.59336112854416, 28.150187146431811 ], [ 77.593365476853961, 28.15036750276753 ], [ 77.593772449127826, 28.150359794035261 ], [ 77.593776798158316, 28.150540150307545 ], [ 77.593980284575267, 28.150536295459794 ], [ 77.593984633986167, 28.150716651697682 ], [ 77.594188120703222, 28.150712796519173 ], [ 77.594192470494548, 28.150893152722652 ], [ 77.593988983437228, 28.150897007930205 ], [ 77.593993332928463, 28.151077364157359 ], [ 77.593586358012814, 28.151085073725334 ], [ 77.593590706863679, 28.151265430005189 ], [ 77.593387219005336, 28.151269284365618 ], [ 77.593391567556083, 28.151449640669128 ], [ 77.593188079317329, 28.151453494756858 ], [ 77.593192427567942, 28.151633851084036 ], [ 77.592785450289441, 28.151641558412337 ], [ 77.592789797899641, 28.151821914792194 ], [ 77.592586308859893, 28.151825768032765 ], [ 77.592590656169946, 28.152006124436284 ], [ 77.592387166749774, 28.152009977404131 ], [ 77.592395860809759, 28.152370690253093 ], [ 77.592192370668869, 28.152374542977242 ], [ 77.592196717418773, 28.1525548994227 ], [ 77.591993226897458, 28.152558751874107 ] ] ] } }
]
}
