{
"type": "FeatureCollection",
"name": "Indian_pines_corrected_rois",
"crs": { "type": "name", "properties": { "name": "urn:ogc:def:crs:OGC:1.3:CRS84" } },
"features": [
{ "type": "Feature", "properties": { "lat": 40.469972137139692, "lon": -86.973104207332824, "area": 8006.3846268931602, "perimeter": 480.19204601387526, "anomaly_score": 0.65881627798080444, "change_score": null, "confidence": 0.65881627798080444, "timestamp": "2026-08-21T11:02:52Z", "source_scene": "Indian_pines_corrected", "class": "UNKNOWN", "roi_id": "Indian_pines_corrected:anomaly:0000", "source_branch": "anomaly", "target_profile": "object", "linked_roi_ids": [ ], "confidence_components": [ "c_anom" ], "georef": "synthetic" }, "geometry": { "type": "Polygon", "coordinates": [ [ [ -86.973575929941845, 40.470314591389446 ], [ -86.973576071184425, 40.469954228675093 ], [ -86.973811999096796, 40.469954282368285 ], [ -86.973812139075747, 40.469593919630711 ], [ -86.973576212424462, 40.469593865938208 ], [ -86.973576283043528, 40.469413684561317 ], [ -86.973340357023403, 40.469413630387614 ], [ -86.973340285773816, 40.469593811764156 ], [ -86.973104359123795, 40.469593757108569 ], [ -86.973104287243032, 40.469773938479143 ], [ -86.972632432683909, 40.469773827722612 ], [ -86.972632359541421, 40.469954009086855 ], [ -86.972396431632305, 40.469953952985904 ], [ -86.972396357858614, 40.470134134344143 ], [ -86.972160429319629, 40.470134077761287 ], [ -86.97216035491472, 40.47031425911355 ], [ -86.973575929941845, 40.470314591389446 ] ] ] } },
{ "type": "Feature", "properties": { "lat": 40.468422660135914, "lon": -86.973458709021727, "area": 4403.5215638920999, "perimeter": 400.16003907966365, "anomaly_score": 0.58233428001403809, "change_score": null, "confidence": 0.58233428001403809, "timestamp": "2026-08-21T11:02:52Z", "source_scene": "Indian_pines_corrected", "class": "UNKNOWN", "roi_id": "Indian_pines_corrected:anomaly:0001", "source_branch": "anomaly", "target_profile": "object", "linked_roi_ids": [ ], "confidence_components": [ "c_anom" ], "georef": "synthetic" }, "geometry": { "type": "Polygon", "coordinates": [ [ [ -86.9733405707683, 40.46887308622415 ], [ -86.973340642015316, 40.468692904825048 ], [ -86.973576565513383, 40.46869295899738 ], [ -86.973576636129252, 40.468512777592316 ], [ -86.973812558997466, 40.46851283128278 ], [ -86.973812628982216, 40.468332649871726 ], [ -86.974048551220562, 40.468332703080328 ], [ -86.97404862057418, 40.46815252166332 ], [ -86.973812698966313, 40.468152468455052 ], [ -86.973812768949799, 40.467972287032751 ], [ -86.973576847973035, 40.467972233343303 ], [ -86.973576777359085, 40.468152414765278 ], [ -86.973340855752497, 40.468152360593962 ], [ -86.973340784507414, 40.468332542009968 ], [ -86.973104862270972, 40.468332487356797 ], [ -86.973104790394757, 40.468512668766813 ], [ -86.972868867528462, 40.468512613631759 ], [ -86.9728687950211, 40.468692795035786 ], [ -86.973104718517874, 40.46869285017118 ], [ -86.973104646640365, 40.468873031569935 ], [ -86.9733405707683, 40.46887308622415 ] ] ] } },
{ "type": "Feature", "properties": { "lat": 40.450227343783446, "lon": -86.998466916906082, "area": 2001.6009598467399, "perimeter": 240.09603836392898, "anomaly_score": 0.53237366676330566, "change_score": null, "confidence": 0.53237366676330566, "timestamp": "2026-08-21T11:02:52Z", "source_scene": "Indian_pines_corrected", "class": "UNKNOWN", "roi_id": "Indian_pines_corrected:anomaly:0002", "source_branch": "anomaly", "target_profile": "object", "linked_roi_ids": [ ], "confidence_components": [ "c_anom" ], "georef": "synthetic" }, "geometry": { "type": "Polygon", "coordinates": [ [ [ -86.998584840705476, 40.450497618207045 ], [ -86.998584844485023, 40.450317436213858 ], [ -86.998820703737465, 40.45031743886058 ], [ -86.998820706887059, 40.450137256861723 ], [ -86.998584848264542, 40.450137254215022 ], [ -86.998584852044004, 40.449957072210552 ], [ -86.998348994051426, 40.44995706908265 ], [ -86.998348989642039, 40.450137251087106 ], [ -86.998113131019579, 40.450137247477961 ], [ -86.99811312598024, 40.450317429476762 ], [ -86.99834898523261, 40.450317433085921 ], [ -86.998348980823138, 40.450497615079094 ], [ -86.998584840705476, 40.450497618207045 ] ] ] } }
]
}
